NPI,State,ZIP,County,Ownership
340156,NC,28719,SWAIN,Federal
204005,ME,4092,CUMBERLAND,Federal
30084,AZ,86503,APACHE,Federal
350063,ND,58316,ROLETTE,Federal
320062,NM,87313,MCKINLEY,Federal
50125,CA,95116,SANTA CLARA,Federal
430083,SD,57625,DEWEY,Federal
320057,NM,87501,SANTA FE,Federal
20026,AK,99508,ANCHORAGE,Federal
50133,CA,95901,YUBA,Federal
51306,CA,95988,GLENN,Federal
231334,MI,49286,LENAWEE,Federal
114016,GA,31522,GLYNN,Federal
21312,AK,99723,NORTH SLOPE BOROUH,Federal
30078,AZ,85016,MARICOPA,Federal
194103,LA,70806,E. BATON ROUGE,Federal
320060,NM,87327,MCKINLEY,Federal
241358,MN,56633,CASS,Federal
31308,AZ,85147,PINAL,Federal
30077,AZ,85542,GILA,Federal
320059,NM,87420,SAN JUAN,Federal
250127,MS,39350,NESHOBA,Federal
270074,MT,59417,GLACIER,Federal
31307,AZ,85344,LAPAZ,Federal
240206,MN,56671,BELTRAMI,Federal
430084,SD,57570,TODD,Federal
74014,CT,6840,FAIRFIELD,Federal
344016,NC,28540,ONSLOW,Federal
120014,HI,96766,KAUAI,Federal
271315,MT,59526,BLAINE,Federal
430082,SD,57702,PENNINGTON,Federal
234006,MI,49548,KENT,Federal
184008,KY,40242,JEFFERSON,Federal
224038,MA,2453,MIDDLESEX,Federal
320070,NM,87049,CIBOLA,Federal
320061,NM,87301,MCKINLEY,Federal
450840,TX,75013,COLLIN,Federal
220108,MA,2186,NORFOLK,Federal
184017,KY,42103,WARREN,Federal
180018,KY,40351,ROWAN,Federal
350064,ND,58538,SIOUX,Federal
320058,NM,88340,OTERO,Federal
30071,AZ,86504,APACHE,Federal
331303,NY,12723,SULLIVAN,Federal
240196,MN,55404,HENNEPIN,Federal
370170,OK,73507,COMANCHE,Federal
30113,AZ,85941,NAVAJO,Federal
271339,MT,59022,BIG HORN,Federal
10126,AL,36081,PIKE,Federal
320022,NM,88101,CURRY,Federal
281309,NE,68446,OTOE,District
640001,AS,96799,EASTERN DISTRICT,District
451329,TX,79778,UPTON,District
110105,GA,31768,COLQUITT,District
271309,MT,59349,PRAIRIE,District
451363,TX,77957,JACKSON,District
451337,TX,79241,FLOYD,District
501325,WA,98331,CLALLAM,District
191323,LA,71232,RICHLAND,District
110109,GA,30401,EMANUEL,District
51300,CA,96122,PLUMAS,District
340001,NC,28025,CABARRUS,District
451358,TX,79360,GAINES,District
291314,NV,89447,LYON,District
451364,TX,78119,KARNES,District
241376,MN,56334,POPE,District
230015,MI,49093,ST. JOSEPH,District
450856,TX,78258,BEXAR,District
10091,AL,36451,CLARKE,District
50397,CA,93210,FRESNO,District
381305,OR,97845,GRANT,District
271342,MT,59263,DANIELS,District
501305,WA,99122,LINCOLN,District
501303,WA,98586,PACIFIC,District
190007,LA,71457,NATCHITOCHES,District
281355,NE,69153,KEITH,District
451301,TX,76932,REAGAN,District
111319,GA,30233,BUTTS,District
171376,KS,66743,CRAWFORD,District
451385,TX,76634,BOSQUE,District
450369,TX,79201,CHILDRESS,District
531314,WY,82225,NIOBRARA,District
261318,MO,65560,DENT,District
10095,AL,36744,HALE,District
190020,LA,70791,E. BATON ROUGE,District
191308,LA,70346,ASCENSION,District
230100,MI,48764,IOSCO,District
50320,CA,94602,ALAMEDA,District
241365,MN,56215,SWIFT,District
190133,LA,70648,ALLEN,District
10108,AL,36067,AUTAUGA,District
381309,OR,97630,LAKE,District
451303,TX,76642,LIMESTONE,District
451306,TX,76849,KIMBLE,District
501333,WA,98926,KITTITAS,District
61305,CO,80734,PHILLIPS,District
190050,LA,70634,BEAUREGARD,District
451354,TX,76374,YOUNG,District
171324,KS,67870,HASKELL,District
340090,NC,27577,JOHNSTON,District
141333,IL,62681,SCHUYLER,District
50342,CA,92227,IMPERIAL,District
51315,CA,96093,TRINITY,District
100142,FL,32446,JACKSON,District
50128,CA,92056,SAN DIEGO,District
501331,WA,99163,WHITMAN,District
191315,LA,71465,LASALLE,District
261301,MO,64724,ST. CLAIR,District
61317,CO,81650,GARFIELD,District
50636,CA,92064,SAN DIEGO,District
10058,AL,35042,BIBB,District
110086,GA,31082,WASHINGTON,District
450289,TX,77054,HARRIS,District
381304,OR,97411,COOS,District
451333,TX,79782,MARTIN,District
110146,GA,31558,CAMDEN,District
501318,WA,99344,ADAMS,District
180149,KY,42728,ADAIR,District
371337,OK,74953,LE FLORE,District
531310,WY,82435,PARK,District
670116,TX,76177,TARRANT,District
50773,CA,94578,ALAMEDA,District
500033,WA,98837,GRANT,District
10157,AL,35661,COLBERT,District
111333,GA,31539,JEFF DAVIS,District
451344,TX,79081,HANSFORD,District
281356,NE,69140,PERKINS,District
370041,OK,74010,CREEK,District
191311,LA,71322,AVOYELLES,District
371307,OK,73933,CIMARRON,District
50308,CA,94040,SANTA CLARA,District
141329,IL,61270,WHITESIDE,District
61343,CO,80810,CHEYENNE,District
10061,AL,35768,JACKSON,District
451341,TX,79521,HASKELL,District
100244,FL,33990,LEE,District
291303,NV,89820,LANDER,District
100087,FL,34239,SARASOTA,District
100026,FL,32401,BAY,District
141327,IL,62863,WABASH,District
190015,LA,70403,TANGIPAHOA,District
61316,CO,81089,HUERFANO,District
51312,CA,92352,SAN BERNARDINO,District
450241,TX,76458,JACK,District
500088,WA,98055,KING,District
450155,TX,79045,DEAF SMITH,District
190004,LA,70301,LAFOURCHE,District
171365,KS,66945,WASHINGTON,District
451317,TX,78377,REFUGIO,District
10114,AL,35021,JEFFERSON,District
10023,AL,36116,MONTGOMERY,District
191314,LA,71282,MADISON,District
51301,CA,93561,KERN,District
440002,TN,38301,MADISON,District
371322,OK,73932,BEAVER,District
340131,NC,28560,CRAVEN,District
450578,TX,79014,HEMPHILL,District
531308,WY,82834,JOHNSON,District
450411,TX,76448,EASTLAND,District
441316,TN,38320,BENTON,District
340109,NC,27909,PASQUOTANK,District
320003,NM,87701,SAN MIGUEL,District
50417,CA,95531,DEL NORTE,District
110234,GA,31639,BERRIEN,District
291304,NV,89419,PERSHING,District
241347,MN,56220,YELLOW MEDCINE,District
450024,TX,79905,EL PASO,District
30089,AZ,85306,MARICOPA,District
450537,TX,75082,COLLIN,District
260097,MO,64093,JOHNSON,District
451343,TX,76360,WICHITA,District
171381,KS,67410,DICKINSON,District
111310,GA,31008,PEACH,District
141313,IL,62644,MASON,District
171331,KS,67070,BARBER,District
501339,WA,98239,ISLAND,District
450641,TX,76255,MONTAGUE,District
241312,MN,55723,ST. LOUIS,District
191316,LA,70760,POINTE COUPEE,District
100051,FL,34711,LAKE,District
51330,CA,96101,MODOC,District
260177,MO,64069,CLAY,District
110032,GA,30577,STEPHENS,District
340113,NC,28203,MECKLENBURG,District
141323,IL,62960,MASSAC,District
361332,OH,45133,HIGHLAND,District
320016,NM,88061,GRANT,District
360058,OH,45828,MERCER,District
110054,GA,30162,FLOYD,District
451318,TX,79502,STONEWALL,District
450399,TX,79316,TERRY,District
381312,OR,97423,COOS,District
250117,MS,39466,PEARL RIVER,District
371341,OK,73717,WOODS,District
501319,WA,98356,LEWIS,District
451340,TX,79079,WHEELER,District
171354,KS,66521,POTTAWATOMIE,District
50057,CA,93291,TULARE,District
281358,NE,69343,SHERIDAN,District
451324,TX,76950,SUTTON,District
451351,TX,79373,LYNN,District
100028,FL,32796,BREVARD,District
370008,OK,73070,CLEVELAND,District
501301,WA,99347,GARFIELD,District
141321,IL,62812,FRANKLIN,District
340145,NC,28092,LINCOLN,District
110071,GA,31513,APPLING,District
371300,OK,74525,ATOKA,District
531315,WY,83101,LINCOLN,District
370056,OK,73505,COMANCHE,District
371323,OK,73096,CUSTER,District
64007,CO,80027,BOULDER,District
111313,GA,31024,PUTNAM,District
51314,CA,93240,KERN,District
131307,ID,83672,WASHINGTON,District
100023,FL,34452,CITRUS,District
231301,MI,49646,KALKASKA,District
451347,TX,76834,COLEMAN,District
131308,ID,83611,VALLEY,District
461305,UT,84751,BEAVER,District
501312,WA,99350,BENTON,District
30068,AZ,85546,GRAHAM,District
190313,LA,70127,ORLEANS,District
100022,FL,33136,MIAMI-DADE,District
371320,OK,74020,PAWNEE,District
451307,TX,79744,PECOS,District
11302,AL,35582,FRANKLIN,District
381306,OR,97828,WALLOWA,District
61325,CO,81641,RIO BLANCO,District
501322,WA,99166,FERRY,District
370139,OK,73077,NOBLE,District
10001,AL,36301,HOUSTON,District
51304,CA,95338,MARIPOSA,District
10069,AL,36027,BARBOUR,District
261310,MO,63555,SCOTLAND,District
31302,AZ,85643,COCHISE,District
190114,LA,71040,CLAIBORNE,District
191317,LA,71251,JACKSON,District
530002,WY,82716,CAMPBELL,District
261314,MO,65041,GASCONADE,District
10085,AL,35601,MORGAN,District
110107,GA,31201,BIBB,District
10149,AL,36117,MONTGOMERY,District
100200,FL,33308,BROWARD,District
501324,WA,98812,OKANOGAN,District
110051,GA,30512,UNION,District
171336,KS,67560,NESS,District
141319,IL,61254,HENRY,District
61315,CO,80759,YUMA,District
451310,TX,76821,RUNNELS,District
110226,GA,30058,DE KALB,District
10164,AL,35150,TALLADEGA,District
291302,NV,89301,WHITE PINE,District
190008,LA,70360,TERREBONNE,District
381310,OR,97836,MORROW,District
531312,WY,82414,PARK,District
440012,TN,37620,SULLIVAN,District
110044,GA,31719,SUMTER,District
381322,OR,97444,CURRY,District
50211,CA,94501,ALAMEDA,District
190013,LA,70663,CALCASIEU,District
291312,NV,89008,LINCOLN,District
171334,KS,67104,BARBER,District
111306,GA,31329,EFFINGHAM,District
451326,TX,79225,HARDEMAN,District
291300,NV,89415,MINERAL,District
141308,IL,62263,WASHINGTON,District
441309,TN,37091,MARSHALL,District
10035,AL,35058,CULLMAN,District
100276,FL,33065,BROWARD,District
190151,LA,71269,RICHLAND,District
451331,TX,79022,DALLAM,District
230144,MI,48198,WASHTENAW,District
51309,CA,95542,HUMBOLDT,District
190054,LA,70562,IBERIA,District
531313,WY,83110,LINCOLN,District
370153,OK,73651,KIOWA,District
501317,WA,98823,GRANT,District
110142,GA,30417,EVANS,District
450586,TX,76380,BAYLOR,District
100285,FL,33029,BROWARD,District
110025,GA,31520,GLYNN,District
61309,CO,80758,YUMA,District
281349,NE,68047,THURSTON,District
110111,GA,30824,MC DUFFIE,District
501320,WA,98848,GRANT,District
501338,WA,98065,KING,District
111300,GA,39840,RANDOLPH,District
10112,AL,36732,MARENGO,District
51303,CA,93546,MONO,District
31304,AZ,86040,COCONINO,District
190040,LA,70458,ST. TAMMANY,District
501323,WA,98368,JEFFERSON,District
451325,TX,76837,CONCHO,District
450584,TX,76384,WILBARGER,District
131314,ID,83837,SHOSHONE,District
190079,LA,70070,ST. CHARLES,District
451334,TX,79096,WHEELER,District
10059,AL,35650,LAWRENCE,District
340166,NC,28262,MECKLENBURG,District
451392,TX,76531,HAMILTON,District
110087,GA,30045,GWINNETT,District
340003,NC,27030,SURRY,District
50423,CA,92225,RIVERSIDE,District
61322,CO,81201,CHAFFEE,District
520098,WI,53792,DANE,District
61323,CO,81052,PROWERS,District
190184,LA,71418,CALDWELL,District
171346,KS,67003,HARPER,District
370112,OK,74955,SEQUOYAH,District
450654,TX,78582,STARR,District
50090,CA,95476,SONOMA,District
111324,GA,30546,TOWNS,District
371338,OK,73550,HARMON,District
191319,LA,70525,ACADIA,District
51302,CA,93545,INYO,District
100086,FL,33064,BROWARD,District
670087,TX,78613,WILLIAMSON,District
191300,LA,70441,ST. HELENA,District
450658,TX,75840,FREESTONE,District
371321,OK,74848,HUGHES,District
371327,OK,73763,BLAINE,District
100017,FL,32114,VOLUSIA,District
61304,CO,80731,PHILLIPS,District
10062,AL,36340,GENEVA,District
110092,GA,31023,DODGE,District
111326,GA,31635,LANIER,District
190208,LA,71254,EAST CARROLL,District
450746,TX,79529,KNOX,District
261312,MO,64424,HARRISON,District
10169,AL,36502,ESCAMBIA,District
451366,TX,79346,COCHRAN,District
50315,CA,93306,KERN,District
450508,TX,75961,NACOGDOCHES,District
340147,NC,27804,NASH,District
50279,CA,92252,SAN BERNARDINO,District
451311,TX,77480,BRAZORIA,District
530025,WY,82072,ALBANY,District
50026,CA,91942,SAN DIEGO,District
51305,CA,96028,SHASTA,District
271318,MT,59725,BEAVERHEAD,District
450144,TX,79714,ANDREWS,District
171300,KS,67572,NESS,District
371334,OK,73015,CADDO,District
191304,LA,71082,CADDO,District
141307,IL,62274,PERRY,District
110095,GA,31793,TIFT,District
450489,TX,79331,DAWSON,District
501315,WA,98672,KLICKITAT,District
230085,MI,49090,VAN BUREN,District
361329,OH,43351,WYANDOT,District
451370,TX,75418,FANNIN,District
500003,WA,98274,SKAGIT,District
371329,OK,73737,MAJOR,District
50296,CA,95023,SAN BENITO,District
110015,GA,30180,CARROLL,District
501336,WA,98584,MASON,District
141326,IL,62859,HAMILTON,District
61318,CO,80459,GRAND,District
10029,AL,36801,LEE,District
440132,TN,38242,HENRY,District
451352,TX,79252,HARDEMAN,District
531303,WY,82701,WESTON,District
51325,CA,95437,MENDOCINO,District
50110,CA,93436,SANTA BARBARA,District
370100,OK,74743,CHOCTAW,District
450271,TX,76234,WISE,District
10005,AL,35957,MARSHALL,District
50054,CA,92220,RIVERSIDE,District
110089,GA,31533,COFFEE,District
370214,OK,73052,GARVIN,District
110026,GA,30635,ELBERT,District
100012,FL,33901,LEE,District
451350,TX,79027,CASTRO,District
340184,NC,28721,HAYWOOD,District
51324,CA,93514,INYO,District
181327,KY,42025,MARSHALL,District
191309,LA,70422,TANGIPAHOA,District
340084,NC,28170,ANSON,District
381307,OR,97720,HARNEY,District
500007,WA,98221,SKAGIT,District
61319,CO,80461,LAKE,District
191305,LA,70071,ST. JAMES,District
110124,GA,31545,WAYNE,District
10021,AL,36360,DALE,District
501316,WA,98620,KLICKITAT,District
171356,KS,66861,MARION,District
181309,KY,42539,CASEY,District
451315,TX,79567,RUNNELS,District
241369,MN,56013,FARIBAULT,District
111302,GA,31014,BLECKLEY,District
501311,WA,99169,ADAMS,District
450460,TX,75979,TYLER,District
131304,ID,83211,POWER,District
111332,GA,31643,BROOKS,District
241316,MN,56628,ITASCA,District
451320,TX,77514,CHAMBERS,District
10073,AL,36251,CLAY,District
241314,MN,56232,LAC QUI PARLE,District
281313,NE,69138,DAWSON,District
451375,TX,77575,LIBERTY,District
380090,OR,97420,COOS,District
241373,MN,56573,OTTER TAIL,District
260175,MO,64735,HENRY,District
340098,NC,28210,MECKLENBURG,District
451387,TX,78801,UVALDE,District
190034,LA,70510,VERMILION,District
450085,TX,76450,YOUNG,District
51326,CA,95971,PLUMAS,District
450253,TX,77418,AUSTIN,District
450039,TX,76104,TARRANT,District
451359,TX,79070,OCHILTREE,District
110007,GA,31703,DOUGHERTY,District
450465,TX,77414,MATAGORDA,District
110100,GA,30434,JEFFERSON,District
171321,KS,67864,MEADE,District
501329,WA,98284,SKAGIT,District
111325,GA,30673,WILKES,District
381311,OR,97467,DOUGLAS,District
490120,VA,23320,CHESAPEAKE CITY,District
30055,AZ,86409,MOHAVE,District
111304,GA,30650,MORGAN,District
141338,IL,62233,RANDOLPH,District
370166,OK,74467,WAGONER,District
501302,WA,99328,COLUMBIA,District
10019,AL,35660,COLBERT,District
110132,GA,39819,DECATUR,District
100281,FL,33028,BROWARD,District
440104,TN,37403,HAMILTON,District
50115,CA,92025,SAN DIEGO,District
171368,KS,67865,FORD,District
51335,CA,92315,SAN BERNARDINO,District
141349,IL,62286,RANDOLPH,District
450498,TX,76424,STEPHENS,District
61303,CO,80723,MORGAN,District
190116,LA,71220,MOREHOUSE,District
500084,WA,98272,SNOHOMISH,District
111305,GA,39837,MILLER,District
191310,LA,70538,ST. MARY,District
61311,CO,81073,BACA,District
50067,CA,95361,STANISLAUS,District
281327,NE,69130,DAWSON,District
530015,WY,83001,TETON,District
191318,LA,71334,CONCORDIA,District
291301,NV,89451,WASHOE,District
440152,TN,38103,SHELBY,District
61312,CO,80517,LARIMER,District
201309,ME,4426,PISCATAQUIS,District
451376,TX,77964,LAVACA,District
111334,GA,30439,CANDLER,District
110122,GA,31602,LOWNDES,District
171329,KS,67022,SUMNER,District
110104,GA,31015,CRISP,District
111335,GA,31310,LIBERTY,District
141343,IL,62454,CRAWFORD,District
110035,GA,30060,COBB,District
501328,WA,98841,OKANOGAN,District
191325,LA,70345,LAFOURCHE,District
441306,TN,37367,BLEDSOE,District
451379,TX,76528,CORYELL,District
501307,WA,99159,LINCOLN,District
110040,GA,30529,JACKSON,District
11306,AL,36278,RANDOLPH,District
451330,TX,78861,MEDINA,District
51328,CA,96161,NEVADA,District
271346,MT,59072,MUSSELSHELL,District
101311,FL,32340,MADISON,District
110011,GA,30117,CARROLL,District
291308,NV,89445,HUMBOLDT,District
501310,WA,99156,PEND OREILLE,District
370054,OK,73018,GRADY,District
230174,MI,49417,OTTAWA,District
190017,LA,70570,ST. LANDRY,District
230241,MI,48054,ST. CLAIR,District
441320,TN,38008,HARDEMAN,District
450243,TX,79520,JONES,District
440031,TN,37748,ROANE,District
450451,TX,76043,SOMERVELL,District
190308,LA,70043,ST. BERNARD,District
340042,NC,28540,ONSLOW,District
180087,KY,42718,TAYLOR,District
531309,WY,82431,BIG HORN,District
450055,TX,79556,NOLAN,District
10039,AL,35801,MADISON,District
500060,WA,98223,SNOHOMISH,District
171330,KS,67554,RICE,District
190045,LA,70433,ST. TAMMANY,District
51321,CA,95448,SONOMA,District
111331,GA,31730,MITCHELL,District
440111,TN,37208,DAVIDSON,District
100130,FL,33430,PALM BEACH,District
50056,CA,93534,LOS ANGELES,District
180116,KY,42066,GRAVES,District
370083,OK,74523,PUSHMATAHA,District
10092,AL,35401,TUSCALOOSA,District
490032,VA,23298,RICHMOND CITY,District
451384,TX,79549,SCURRY,District
100038,FL,33021,BROWARD,District
500053,WA,99336,BENTON,District
340130,NC,28112,UNION,District
131324,ID,83213,BUTTE,District
370022,OK,73521,JACKSON,District
61313,CO,80807,KIT CARSON,District
191326,LA,71222,UNION,District
371303,OK,73628,ROGER MILLS,District
100039,FL,33316,BROWARD,District
450565,TX,76067,PALO PINTO,District
110191,GA,30281,HENRY,District
111318,GA,31029,MONROE,District
330234,NY,10595,WESTCHESTER,District
450213,TX,78229,BEXAR,District
50248,CA,93906,MONTEREY,District
130049,ID,83814,KOOTENAI,District
271329,MT,59729,MADISON,District
531301,WY,82410,BIG HORN,District
321305,NM,88260,LEA,District
420073,SC,29169,LEXINGTON,District
140089,IL,61455,MC DONOUGH,District
451309,TX,79752,UPTON,District
451386,TX,79029,MOORE,District
170040,KS,66160,WYANDOTTE,District
531311,WY,82729,CROOK,District
241353,MN,56441,CROW WING,District
451353,TX,79731,CRANE,District
450235,TX,78629,GONZALES,District
450080,TX,75455,TITUS,District
111320,GA,30110,HARALSON,District
243300,MN,55106,RAMSEY,District
61307,CO,81648,RIO BLANCO,District
271304,MT,59442,CHOUTEAU,District
190140,LA,71295,FRANKLIN,District
261336,MO,63663,IRON,District
171311,KS,67663,ROOKS,District
271303,MT,59858,GRANITE,District
371311,OK,73573,JEFFERSON,District
371340,OK,73942,TEXAS,District
450132,TX,79761,ECTOR,District
501304,WA,98541,GRAYS HARBOR,District
10079,AL,35611,LIMESTONE,District
110041,GA,30535,HABERSHAM,District
11300,AL,36518,WASHINGTON,District
61328,CO,81147,ARCHULETA,District
190145,LA,71342,LASALLE,District
281361,NE,68850,DAWSON,District
100062,FL,34474,MARION,District
340037,NC,28086,CLEVELAND,District
501334,WA,98816,CHELAN,District
260195,MO,65613,POLK,District
131315,ID,83530,IDAHO,District
451342,TX,79512,MITCHELL,District
101307,FL,32425,HOLMES,District
380027,OR,97471,DOUGLAS,District
451335,TX,76252,COOKE,District
450352,TX,75401,HUNT,District
450108,TX,78114,WILSON,District
190146,LA,70006,JEFFERSON,District
501327,WA,99111,WHITMAN,District
420103,SC,29651,GREENVILLE,District
241317,MN,55604,COOK,District
171301,KS,67526,BARTON,District
361301,OH,43526,DEFIANCE,District
450015,TX,75235,DALLAS,District
50195,CA,94538,ALAMEDA,District
100230,FL,33024,BROWARD,District
340021,NC,28150,CLEVELAND,District
450090,TX,76240,COOKE,District
450686,TX,79415,LUBBOCK,District
420007,SC,29303,SPARTANBURG,District
450597,TX,77954,DE WITT,District
60024,CO,80045,ADAMS,District
191306,LA,70775,WEST FELICIANA,District
110130,GA,31774,IRWIN,District
241350,MN,55767,CARLTON,District
281335,NE,68825,CUSTER,District
501308,WA,99133,GRANT,District
500124,WA,98034,KING,District
61324,CO,81611,PITKIN,District
440029,TN,37067,WILLIAMSON,District
181322,KY,42445,CALDWELL,District
451313,TX,79546,FISHER,District
191313,LA,70438,WASHINGTON,District
501313,WA,98826,CHELAN,District
450330,TX,77469,FORT BEND,District
10099,AL,36426,ESCAMBIA,District
100220,FL,33912,LEE,District
250124,MS,39111,SIMPSON,Local
161318,IA,52172,ALLAMAKEE,Local
10051,AL,35462,GREENE,Local
171312,KS,67029,COMANCHE,Local
254010,MS,39193,RANKIN,Local
250099,MS,38935,LEFLORE,Local
340141,NC,28402,NEW HANOVER,Local
281344,NE,69201,CHERRY,Local
281334,NE,68620,BOONE,Local
200031,ME,4736,AROOSTOOK,Local
171332,KS,67054,KIOWA,Local
330128,NY,11373,QUEENS,Local
140275,IL,61282,ROCK ISLAND,Local
511301,WV,26288,WEBSTER,Local
281353,NE,68862,VALLEY,Local
150072,IN,46947,CASS,Local
51308,CA,96104,MODOC,Local
440060,TN,38358,GIBSON,Local
250040,MS,39581,JACKSON,Local
440057,TN,37879,CLAIBORNE,Local
50159,CA,93003,VENTURA,Local
250036,MS,39452,GEORGE,Local
340024,NC,28328,SAMPSON,Local
330008,NY,14569,WYOMING,Local
361331,OH,43160,FAYETTE,Local
170014,KS,66067,FRANKLIN,Local
400127,PR,935,SAN JUAN,Local
364007,OH,43223,FRANKLIN,Local
380005,OR,97520,JACKSON,Local
204004,ME,4401,PENOBSCOT,Local
161356,IA,52641,HENRY,Local
530006,WY,82801,SHERIDAN,Local
310058,NJ,7652,BERGEN,Local
231300,MI,49635,BENZIE,Local
330405,NY,10993,ROCKLAND,Local
371324,OK,73834,HARPER,Local
261327,MO,64085,RAY,Local
171370,KS,67735,SHERMAN,Local
151331,IN,47112,HARRISON,Local
260070,MO,63851,PEMISCOT,Local
131303,ID,83252,ONEIDA,Local
461333,UT,84759,GARFIELD,Local
171379,KS,66846,MORRIS,Local
160101,IA,50314,POLK,Local
161327,IA,52537,DAVIS,Local
261333,MO,63353,PIKE,Local
171322,KS,67878,HAMILTON,Local
230096,MI,49091,ST. JOSEPH,Local
261330,MO,63670,STE. GENEVIEVE,Local
521312,WI,53530,LAFAYETTE,Local
170068,KS,67901,SEWARD,Local
440073,TN,38401,MAURY,Local
230095,MI,48661,OGEMAW,Local
261308,MO,63664,WASHINGTON,Local
10078,AL,36207,CALHOUN,Local
54125,CA,93110,SANTA BARBARA,Local
350019,ND,58201,GRAND FORKS,Local
261323,MO,64744,CEDAR,Local
330231,NY,11432,QUEENS,Local
440030,TN,37814,HAMBLEN,Local
340120,NC,28349,DUPLIN,Local
150005,IN,46122,HENDRICKS,Local
50360,CA,94904,MARIN,Local
40047,AR,72455,RANDOLPH,Local
50292,CA,92555,RIVERSIDE,Local
161361,IA,50595,HAMILTON,Local
330202,NY,11203,KINGS,Local
21302,AK,99664,KENAI PENINSULA,Local
314020,NJ,7009,ESSEX,Local
171383,KS,67156,COWLEY,Local
530011,WY,82901,SWEETWATER,Local
171348,KS,67654,NORTON,Local
290007,NV,89102,CLARK,Local
371332,OK,73663,DEWEY,Local
500072,WA,98362,CLALLAM,Local
281332,NE,68632,BUTLER,Local
281340,NE,69021,DUNDY,Local
214012,MD,21502,ALLEGANY,Local
171339,KS,67045,GREENWOOD,Local
250061,MS,38965,YALOBUSHA,Local
510072,WV,26155,WETZEL,Local
131318,ID,83617,GEM,Local
450698,TX,79339,LAMB,Local
251318,MS,38771,SUNFLOWER,Local
524014,WI,54311,BROWN,Local
250060,MS,39069,JEFFERSON,Local
170074,KS,66441,GEARY,Local
330127,NY,10461,BRONX,Local
230022,MI,49036,BRANCH,Local
281300,NE,68920,HARLAN,Local
330027,NY,11554,NASSAU,Local
420067,SC,29902,BEAUFORT,Local
161310,IA,50849,ADAIR,Local
21301,AK,99686,VALDEZ-CORDOVA,Local
161314,IA,50115,GUTHRIE,Local
41317,AR,71742,DALLAS,Local
141345,IL,62881,MARION,Local
431318,SD,57428,EDMUNDS,Local
281325,NE,69210,BROWN,Local
241334,MN,56082,NICOLLET,Local
251309,MS,39631,WILKINSON,Local
241374,MN,56164,PIPESTONE,Local
314024,NJ,7094,HUDSON,Local
371336,OK,73858,ELLIS,Local
170150,KS,67005,COWLEY,Local
340127,NC,27565,GRANVILLE,Local
531305,WY,82201,PLATTE,Local
161376,IA,50022,CASS,Local
50038,CA,95128,SANTA CLARA,Local
171371,KS,67432,CLAY,Local
171359,KS,67879,GREELEY,Local
241300,MN,56557,MAHNOMEN,Local
150112,IN,47201,BARTHOLOMEW,Local
171318,KS,67361,CHAUTAUQUA,Local
161302,IA,50525,WRIGHT,Local
250058,MS,39440,JONES,Local
61314,CO,81625,MOFFAT,Local
281360,NE,69301,BOX BUTTE,Local
440011,TN,37804,BLOUNT,Local
271321,MT,59036,WHEATLAND,Local
241332,MN,56101,COTTONWOOD,Local
250097,MS,39649,PIKE,Local
140300,IL,60615,COOK,Local
10109,AL,35447,PICKENS,Local
261338,MO,64836,JASPER,Local
150059,IN,46060,HAMILTON,Local
61320,CO,81230,GUNNISON,Local
361313,OH,43338,MORROW,Local
130025,ID,83440,MADISON,Local
271310,MT,59337,GARFIELD,Local
171347,KS,67740,SHERIDAN,Local
360036,OH,44691,WAYNE,Local
330196,NY,11235,KINGS,Local
250078,MS,39404,FORREST,Local
334012,NY,13901,BROOME,Local
151332,IN,47240,DECATUR,Local
281350,NE,68450,JOHNSON,Local
161330,IA,50025,AUDUBON,Local
161364,IA,52556,JEFFERSON,Local
50348,CA,92868,ORANGE,Local
340107,NC,27886,EDGECOMBE,Local
150065,IN,47274,JACKSON,Local
360148,OH,44654,HOLMES,Local
251334,MS,39735,CHOCTAW,Local
320067,NM,88435,GUADALUPE,Local
461309,UT,84741,KANE,Local
171306,KS,67861,WICHITA,Local
281330,NE,68359,SALINE,Local
50245,CA,92324,SAN BERNARDINO,Local
150001,IN,46131,JOHNSON,Local
171375,KS,67420,MITCHELL,Local
241325,MN,56265,CHIPPEWA,Local
171380,KS,66720,NEOSHO,Local
261324,MO,64701,CASS,Local
511313,WV,25130,BOONE,Local
171369,KS,67854,HODGEMAN,Local
321308,NM,87020,CIBOLA,Local
61310,CO,80737,SEDGWICK,Local
161339,IA,50677,BREMER,Local
281304,NE,68370,THAYER,Local
501321,WA,98855,OKANOGAN,Local
171317,KS,67547,EDWARDS,Local
440109,TN,38372,HARDIN,Local
141303,IL,61727,DE WITT,Local
250019,MS,39502,HARRISON,Local
161307,IA,50423,HANCOCK,Local
281328,NE,68826,MERRICK,Local
241367,MN,55051,KANABEC,Local
520021,WI,53143,KENOSHA,Local
240014,MN,55057,RICE,Local
161337,IA,52565,VAN BUREN,Local
171377,KS,66967,SMITH,Local
281306,NE,68959,KEARNEY,Local
151330,IN,46733,ADAMS,Local
150024,IN,46202,MARION,Local
250082,MS,38704,WASHINGTON,Local
161326,IA,50273,MADISON,Local
150104,IN,46052,BOONE,Local
371328,OK,73086,MURRAY,Local
70036,CT,6032,HARTFORD,Local
171313,KS,67860,KEARNY,Local
260034,MO,64730,BATES,Local
131305,ID,83467,LEMHI,Local
530012,WY,82601,NATRONA,Local
524001,WI,53226,MILWAUKEE,Local
160030,IA,50010,STORY,Local
260017,MO,65401,PHELPS,Local
441310,TN,37321,RHEA,Local
261305,MO,63565,PUTNAM,Local
171353,KS,67661,PHILLIPS,Local
340064,NC,28659,WILKES,Local
650001,GU,96913,GUAM,Local
430008,SD,57006,BROOKINGS,Local
240088,MN,56201,KANDIYOHI,Local
420068,SC,29115,ORANGEBURG,Local
61300,CO,81036,KIOWA,Local
240030,MN,56308,DOUGLAS,Local
260009,MO,65302,PETTIS,Local
371325,OK,73632,WASHITA,Local
431308,SD,57437,MC PHERSON,Local
281311,NE,68939,FRANKLIN,Local
161305,IA,50574,POCAHONTAS,Local
431327,SD,57066,BON HOMME,Local
281301,NE,68361,FILLMORE,Local
161308,IA,50441,FRANKLIN,Local
50228,CA,94110,SAN FRANCISCO,Local
171325,KS,67642,GRAHAM,Local
340017,NC,28791,HENDERSON,Local
340155,NC,27704,DURHAM,Local
450133,TX,79701,MIDLAND,Local
180095,KY,42064,CRITTENDEN,Local
241342,MN,56278,BIG STONE,Local
41309,AR,72476,LAWRENCE,Local
281305,NE,69145,KIMBALL,Local
50548,CA,92626,ORANGE,Local
340133,NC,27892,MARTIN,Local
150097,IN,46176,SHELBY,Local
261325,MO,64759,BARTON,Local
284009,NE,68105,DOUGLAS,Local
60071,CO,81416,DELTA,Local
231309,MI,49953,ONTONAGON,Local
161311,IA,51023,SIOUX,Local
444001,TN,38103,SHELBY,Local
21307,AK,99574,VALDEZ-CORDOVA,Local
10120,AL,36460,MONROE,Local
30022,AZ,85008,MARICOPA,Local
161325,IA,50129,GREENE,Local
54124,CA,95501,HUMBOLDT,Local
531302,WY,82633,CONVERSE,Local
451339,TX,76483,THROCKMORTON,Local
334021,NY,13502,ONEIDA,Local
440102,TN,37334,LINCOLN,Local
161329,IA,52060,JACKSON,Local
241351,MN,56283,REDWOOD,Local
41330,AR,72454,CLAY,Local
171344,KS,66757,WILSON,Local
450078,TX,79501,JONES,Local
271328,MT,59474,TOOLE,Local
21305,AK,99929,WRANGELL CITY AND BOROUGH,Local
50668,CA,94116,SAN FRANCISCO,Local
20008,AK,99801,JUNEAU,Local
231307,MI,49946,BARAGA,Local
161379,IA,52577,MAHASKA,Local
330396,NY,11206,KINGS,Local
40015,AR,71953,POLK,Local
421304,SC,29824,EDGEFIELD,Local
140124,IL,60612,COOK,Local
50717,CA,90242,LOS ANGELES,Local
261319,MO,63379,LINCOLN,Local
150086,IN,47025,DEARBORN,Local
260061,MO,64772,VERNON,Local
180012,KY,42701,HARDIN,Local
241319,MN,56172,MURRAY,Local
330080,NY,10451,BRONX,Local
131317,ID,83861,BENEWAH,Local
241343,MN,56241,YELLOW MEDCINE,Local
170145,KS,67337,MONTGOMERY,Local
230054,MI,49855,MARQUETTE,Local
241306,MN,56277,RENVILLE,Local
451356,TX,77979,CALHOUN,Local
171374,KS,66736,WILSON,Local
480001,VI,801,SAINT THOMAS ISLAND,Local
281324,NE,68305,NEMAHA,Local
171355,KS,67672,TREGO,Local
451377,TX,79772,REEVES,Local
110029,GA,30501,HALL,Local
110073,GA,31750,BEN HILL,Local
330385,NY,10467,BRONX,Local
230055,MI,49801,DICKINSON,Local
111303,GA,31064,JASPER,Local
330240,NY,10037,NEW YORK,Local
161365,IA,50801,UNION,Local
150018,IN,46514,ELKHART,Local
111308,GA,31634,CLINCH,Local
390185,PA,18201,LUZERNE,Local
171342,KS,67548,RUSH,Local
161373,IA,50854,RINGGOLD,Local
251320,MS,39150,CLAIBORNE,Local
171343,KS,67855,STANTON,Local
431316,SD,57469,SPINK,Local
241341,MN,56208,SWIFT,Local
161375,IA,50588,BUENA VISTA,Local
524019,WI,54449,WOOD,Local
281312,NE,68640,PLATTE,Local
251326,MS,39474,JEFFERSON DAVIS,Local
440059,TN,38501,PUTNAM,Local
21303,AK,99835,SITKA BOROUGH,Local
461308,UT,84535,SAN JUAN,Local
260096,MO,64116,CLAY,Local
250043,MS,39350,NESHOBA,Local
250079,MS,39159,SHARKEY,Local
261311,MO,63775,PERRY,Local
451373,TX,79756,WARD,Local
220011,MA,2138,MIDDLESEX,Local
440070,TN,38363,DECATUR,Local
281318,NE,69336,MORRILL,Local
531304,WY,82443,HOT SPRINGS,Local
161357,IA,50536,PALO ALTO,Local
441322,TN,37061,HOUSTON,Local
181319,KY,40143,BRECKINRIDGE,Local
104068,FL,34474,MARION,Local
444008,TN,38008,HARDEMAN,Local
421301,SC,29620,ABBEVILLE,Local
281314,NE,68651,POLK,Local
510023,WV,26062,HANCOCK,Local
250162,MS,39520,HANCOCK,Local
251325,MS,39428,COVINGTON,Local
330199,NY,10029,NEW YORK,Local
510046,WV,24740,MERCER,Local
370089,OK,74465,CHEROKEE,Local
511322,WV,26651,NICHOLAS,Local
251324,MS,39667,WALTHALL,Local
251333,MS,39470,PEARL RIVER,Local
161328,IA,52136,HOWARD,Local
451314,TX,79745,WINKLER,Local
241327,MN,56085,BROWN,Local
140043,IL,61081,WHITESIDE,Local
281316,NE,68970,WEBSTER,Local
150061,IN,47501,DAVIESS,Local
184002,KY,42240,CHRISTIAN,Local
500064,WA,98104,KING,Local
281307,NE,68066,SAUNDERS,Local
161340,IA,50144,DECATUR,Local
251337,MS,38663,TIPPAH,Local
330223,NY,13662,ST. LAWRENCE,Local
251330,MS,39653,FRANKLIN,Local
241366,MN,55355,MEEKER,Local
151333,IN,46135,PUTNAM,Local
251305,MS,39654,LAWRENCE,Local
251327,MS,39083,COPIAH,Local
251329,MS,39451,GREENE,Local
50167,CA,95231,SAN JOAQUIN,Local
371306,OK,73448,LOVE,Local
451308,TX,79323,YOAKUM,Local
141337,IL,61356,BUREAU,Local
431317,SD,57059,BON HOMME,Local
451389,TX,79735,PECOS,Local
511304,WV,26175,TYLER,Local
50045,CA,92243,IMPERIAL,Local
161312,IA,52052,CLAYTON,Local
431322,SD,57747,FALL RIVER,Local
334020,NY,14620,MONROE,Local
361300,OH,45879,PAULDING,Local
131322,ID,83263,FRANKLIN,Local
251307,MS,39341,NOXUBEE,Local
451362,TX,76365,CLAY,Local
531306,WY,82401,WASHAKIE,Local
161363,IA,51566,MONTGOMERY,Local
250018,MS,39422,JASPER,Local
360092,OH,43040,UNION,Local
240004,MN,55415,HENNEPIN,Local
240084,MN,55792,ST. LOUIS,Local
531316,WY,82301,CARBON,Local
131319,ID,83350,MINIDOKA,Local
251304,MS,38921,TALLAHATCHIE,Local
250077,MS,39367,WAYNE,Local
50376,CA,90502,LOS ANGELES,Local
141351,IL,62839,CLAY,Local
261306,MO,63556,SULLIVAN,Local
361326,OH,45679,ADAMS,Local
161333,IA,50201,STORY,Local
171326,KS,67748,LOGAN,Local
171364,KS,67473,OSBORNE,Local
171323,KS,67578,STAFFORD,Local
40067,AR,71754,COLUMBIA,Local
170166,KS,67950,MORTON,Local
140059,IL,62052,JERSEY,Local
340051,NC,28607,WATAUGA,Local
151304,IN,46173,RUSH,Local
524026,WI,53188,WAUKESHA,Local
41316,AR,72370,MISSISSIPPI,Local
281351,NE,69033,CHASE,Local
170039,KS,67152,SUMNER,Local
161353,IA,50511,KOSSUTH,Local
360175,OH,45177,CLINTON,Local
330204,NY,10016,NEW YORK,Local
150030,IN,47362,HENRY,Local
101305,FL,32320,FRANKLIN,Local
231303,MI,49854,SCHOOLCRAFT,Local
40069,AR,72315,MISSISSIPPI,Local
150037,IN,46140,HANCOCK,Local
341307,NC,28425,PENDER,Local
40002,AR,72830,JOHNSON,Local
370158,OK,73080,MCCLAIN,Local
170120,KS,67357,LABETTE,Local
21304,AK,99833,PETERSBURG BOROUGH,Local
271313,MT,59011,SWEET GRASS,Local
524025,WI,54935,FOND DU LAC,Local
171351,KS,66968,WASHINGTON,Local
151327,IN,47882,SULLIVAN,Local
171309,KS,66956,JEWELL,Local
161372,IA,50036,BOONE,Local
271338,MT,59034,BIG HORN,Local
50373,CA,90033,LOS ANGELES,Local
171360,KS,67455,LINCOLN,Local
261313,MO,63552,MACON,Local
261322,MO,64024,CLAY,Local
281333,NE,68714,HOLT,Local
170203,KS,66739,CHEROKEE,Local
131309,ID,83276,CARIBOU,Local
54114,CA,92110,SAN DIEGO,Local
161380,IA,50126,HARDIN,Local
161371,IA,52101,WINNESHIEK,Local
421300,SC,29827,ALLENDALE,Local
50781,CA,95472,SONOMA,Local
521328,WI,54848,RUSK,Local
250050,MS,39759,OKTIBBEHA,Local
151313,IN,46975,FULTON,Local
171335,KS,67951,STEVENS,Local
231304,MI,49868,LUCE,Local
230093,MI,49307,MECOSTA,Local
160112,IA,51301,CLAY,Local
60022,CO,80909,EL PASO,Local
181317,KY,42717,CUMBERLAND,Local
351321,ND,58495,MCINTOSH,Local
341318,NC,27932,CHOWAN,Local
181330,KY,42642,RUSSELL,Local
360170,OH,43113,PICKAWAY,Local
50276,CA,94553,CONTRA COSTA,Local
131316,ID,83254,BEAR LAKE,Local
181328,KY,40906,KNOX,Local
50113,CA,94403,SAN MATEO,Local
151320,IN,47371,JAY,Local
171384,KS,66801,LYON,Local
250095,MS,38751,SUNFLOWER,Local
161358,IA,50060,WAYNE,Local
170137,KS,66044,DOUGLAS,Local
151317,IN,47441,GREENE,Local
161301,IA,50421,WRIGHT,Local
314005,NJ,8037,ATLANTIC,State
454008,TX,76308,WICHITA,State
234025,MI,48723,TUSCOLA,State
334054,NY,10035,NEW YORK,State
424011,SC,29622,ANDERSON,State
474004,VT,5602,WASHINGTON,State
250134,MS,39193,RANKIN,State
214018,MD,21228,BALTIMORE,State
224032,MA,1604,WORCESTER,State
344023,NC,28711,BUNCOMBE,State
461335,UT,84713,BEAVER,State
244012,MN,56308,DOUGLAS,State
334001,NY,13210,ONONDAGA,State
120005,HI,96720,HAWAII,State
330350,NY,11203,KINGS,State
10033,AL,35233,JEFFERSON,State
144038,IL,62906,UNION,State
374001,OK,73841,WOODWARD,State
224028,MA,2720,BRISTOL,State
174006,KS,67550,PAWNEE,State
104007,FL,32063,BAKER,State
40016,AR,72205,PULASKI,State
330241,NY,13210,ONONDAGA,State
450018,TX,77555,GALVESTON,State
194008,LA,70748,EAST FELICIANA,State
400105,PR,956,BAYAMON,State
394012,PA,18411,LACKAWANNA,State
234035,MI,48185,WAYNE,State
120002,HI,96793,MAUI,State
50262,CA,90095,LOS ANGELES,State
121301,HI,96777,HAWAII,State
334015,NY,10962,ROCKLAND,State
264025,MO,63112,ST. LOUIS CITY,State
144028,IL,60141,COOK,State
360048,OH,43699,LUCAS,State
480002,VI,820,SAINT CROIX ISLAND,State
334063,NY,11203,KINGS,State
344027,NC,27509,GRANVILLE,State
154056,IN,47714,VANDERBURGH,State
454104,TX,76201,DENTON,State
394001,PA,19401,MONTGOMERY,State
454076,TX,77021,HARRIS,State
450690,TX,75708,SMITH,State
144010,IL,60634,COOK,State
144016,IL,62002,MADISON,State
294002,NV,89146,CLARK,State
244015,MN,56425,CROW WING,State
244014,MN,56601,BELTRAMI,State
334046,NY,12208,ALBANY,State
264005,MO,63640,ST. FRANCOIS,State
454006,TX,75160,KAUFMAN,State
330393,NY,11794,SUFFOLK,State
374008,OK,73505,COMANCHE,State
524002,WI,54985,WINNEBAGO,State
54133,CA,90650,LOS ANGELES,State
10087,AL,36617,MOBILE,State
264004,MO,65251,CALLAWAY,State
310119,NJ,7101,ESSEX,State
424005,SC,29203,RICHLAND,State
250001,MS,39216,HINDS,State
450766,TX,75390,DALLAS,State
394004,PA,17821,MONTOUR,State
494017,VA,24541,DANVILLE CITY,State
534001,WY,82931,UINTA,State
454000,TX,79721,HOWARD,State
180067,KY,40536,FAYETTE,State
160058,IA,52242,JOHNSON,State
114029,GA,30906,RICHMOND,State
490009,VA,22908,CHARLOTTESVILLE CITY,State
284003,NE,68509,LANCASTER,State
174022,KS,66064,MIAMI,State
504004,WA,99022,SPOKANE,State
294000,NV,89431,WASHOE,State
494021,VA,24402,STAUNTON CITY,State
121300,HI,96796,KAUAI,State
454084,TX,78751,TRAVIS,State
64001,CO,81003,PUEBLO,State
14007,AL,35401,TUSCALOOSA,State
500008,WA,98195,KING,State
434003,SD,57078,YANKTON,State
514009,WV,25709,CABELL,State
494010,VA,22042,FAIRFAX,State
334061,NY,10958,ORANGE,State
254008,MS,39475,LAMAR,State
60014,CO,80218,DENVER,State
251319,MS,39095,HOLMES,State
191321,LA,70443,TANGIPAHOA,State
334003,NY,13669,ST. LAWRENCE,State
244011,MN,55302,WRIGHT,State
10168,AL,36867,RUSSELL,State
244017,MN,55904,OLMSTED,State
234041,MI,48176,WASHTENAW,State
114013,GA,31917,MUSCOGEE,State
194025,LA,71361,RAPIDES,State
34021,AZ,85008,MARICOPA,State
400061,PR,927,SAN JUAN,State
121308,HI,96790,MAUI,State
394026,PA,15779,WESTMORELAND,State
450044,TX,75390,DALLAS,State
334053,NY,10461,BRONX,State
354003,ND,58401,STUTSMAN,State
400132,PR,979,SAN JUAN,State
121306,HI,96746,KAUAI,State
524008,WI,53704,DANE,State
60011,CO,80204,DENVER,State
224001,MA,2780,BRISTOL,State
374006,OK,74501,PITTSBURG,State
314011,NJ,8854,MIDDLESEX,State
104000,FL,32324,GADSDEN,State
364011,OH,44067,SUMMIT,State
344026,NC,27530,WAYNE,State
140150,IL,60612,COOK,State
504003,WA,98498,PIERCE,State
370078,OK,74127,TULSA,State
464001,UT,84605,UTAH,State
74011,CT,6508,NEW HAVEN,State
100298,FL,32324,GADSDEN,State
321307,NM,87740,COLFAX,State
74012,CT,6610,FAIRFIELD,State
244013,MN,56537,OTTER TAIL,State
154019,IN,47250,JEFFERSON,State
444014,TN,37214,DAVIDSON,State
121307,HI,96727,HAWAII,State
450888,TX,76092,TARRANT,State
494029,VA,24354,SMYTH,State
364035,OH,45237,HAMILTON,State
403301,PR,935,SAN JUAN,State
54144,CA,94143,SAN FRANCISCO,State
460009,UT,84132,SALT LAKE,State
490104,VA,23803,PETERSBURG CITY,State
154008,IN,46218,MARION,State
134010,ID,83221,BINGHAM,State
334045,NY,14901,CHEMUNG,State
340114,NC,27607,WAKE,State
164003,IA,50644,BUCHANAN,State
144021,IL,62703,SANGAMON,State
104001,FL,33025,BROWARD,State
214004,MD,21784,CARROLL,State
454014,TX,78028,KERR,State
344025,NC,28655,BURKE,State
394016,PA,16365,WARREN,State
74003,CT,6457,MIDDLESEX,State
244002,MN,55303,ANOKA,State
164002,IA,51012,CHEROKEE,State
334066,NY,10962,ROCKLAND,State
334043,NY,10305,RICHMOND,State
320084,NM,88130,ROOSEVELT,State
334009,NY,10032,NEW YORK,State
13301,AL,36604,MOBILE,State
100030,FL,34761,ORANGE,State
54009,CA,90095,LOS ANGELES,State
274086,MT,59756,DEER LODGE,State
501314,WA,98624,PACIFIC,State
364014,OH,43614,LUCAS,State
360085,OH,43210,FRANKLIN,State
334060,NY,10035,NEW YORK,State
420004,SC,29425,CHARLESTON,State
320017,NM,87109,BERNALILLO,State
74015,CT,6457,MIDDLESEX,State
84001,DE,19720,NEW CASTLE,State
114019,GA,30034,DE KALB,State
184015,KY,40223,JEFFERSON,State
314013,NJ,8625,MERCER,State
454011,TX,78223,BEXAR,State
120019,HI,96750,HAWAII,State
94001,DC,20032,THE DISTRICT,State
50547,CA,95431,SONOMA,State
24002,AK,99508,ANCHORAGE,State
454100,TX,79905,EL PASO,State
334013,NY,11717,SUFFOLK,State
250168,MS,38901,GRENADA,State
374000,OK,73070,CLEVELAND,State
121302,HI,96755,HAWAII,State
264008,MO,64108,JACKSON,State
334052,NY,14213,ERIE,State
444002,TN,37405,HAMILTON,State
260141,MO,65212,BOONE,State
264007,MO,64502,BUCHANAN,State
334004,NY,11427,QUEENS,State
314016,NJ,7950,MORRIS,State
510086,WV,24801,MC DOWELL,State
254009,MS,38804,LEE,State
334065,NY,14224,ERIE,State
10097,AL,36092,ELMORE,State
454009,TX,75785,CHEROKEE,State
214002,MD,21613,DORCHESTER,State
304000,NH,3301,MERRIMACK,State
171373,KS,66749,ALLEN,State
50546,CA,93257,TULARE,State
144037,IL,60123,KANE,State
234026,MI,49008,KALAMAZOO,State
224031,MA,2559,BARNSTABLE,State
394014,PA,19565,BERKS,State
54122,CA,94558,NAPA,State
373300,OK,73071,CLEVELAND,State
340061,NC,27514,ORANGE,State
44011,AR,72205,PULASKI,State
244005,MN,56201,KANDIYOHI,State
670125,TX,78223,BEXAR,State
514010,WV,26452,LEWIS,State
14012,AL,35401,TUSCALOOSA,State
454088,TX,78550,CAMERON,State
264010,MO,63139,ST. LOUIS,State
400124,PR,936,SAN JUAN,State
104027,FL,32570,SANTA ROSA,State
384008,OR,97301,MARION,State
334064,NY,11746,SUFFOLK,State
224040,MA,2118,SUFFOLK,State
121305,HI,96763,MAUI,State
364031,OH,44648,STARK,State
464009,UT,84108,SALT LAKE,State
530034,WY,82609,NATRONA,Physician
390321,PA,18104,LEHIGH,Physician
170183,KS,67226,SEDGWICK,Physician
170190,KS,66502,RILEY,Physician
190298,LA,71301,RAPIDES,Physician
670109,TX,77521,HARRIS,Physician
50684,CA,92585,RIVERSIDE,Physician
450803,TX,77091,HARRIS,Physician
370206,OK,73134,OKLAHOMA,Physician
670076,TX,75090,GRAYSON,Physician
30107,AZ,85206,MARICOPA,Physician
50697,CA,96001,SHASTA,Physician
370210,OK,74137,TULSA,Physician
150166,IN,46307,LAKE,Physician
390314,PA,18017,NORTHAMPTON,Physician
190245,LA,71201,OUACHITA,Physician
150172,IN,47150,FLOYD,Physician
370203,OK,73159,OKLAHOMA,Physician
30030,AZ,85015,MARICOPA,Physician
450056,TX,78705,TRAVIS,Physician
520196,WI,54720,EAU CLAIRE,Physician
450880,TX,76110,TARRANT,Physician
370199,OK,73120,OKLAHOMA,Physician
190278,LA,71101,CADDO,Physician
370192,OK,73120,OKLAHOMA,Physician
190303,LA,70403,TANGIPAHOA,Physician
50766,CA,95991,SUTTER,Physician
450200,TX,75501,BOWIE,Physician
190251,LA,70810,E. BATON ROUGE,Physician
190268,LA,70503,LAFAYETTE,Physician
250012,MS,38635,MARSHALL,Physician
520205,WI,53132,MILWAUKEE,Physician
370234,OK,73135,OKLAHOMA,Physician
670031,TX,77505,HARRIS,Physician
370225,OK,73013,OKLAHOMA,Physician
510091,WV,25301,KANAWHA,Physician
60117,CO,81301,LA PLATA,Physician
450656,TX,75961,NACOGDOCHES,Physician
170187,KS,67401,SALINE,Physician
190267,LA,70433,ST. TAMMANY,Physician
190241,LA,70360,TERREBONNE,Physician
170196,KS,67226,SEDGWICK,Physician
130065,ID,83404,BONNEVILLE,Physician
50324,CA,92037,SAN DIEGO,Physician
170188,KS,66211,JOHNSON,Physician
440007,TN,37355,COFFEE,Physician
450893,TX,76208,DENTON,Physician
450518,TX,77640,JEFFERSON,Physician
150160,IN,46278,MARION,Physician
450697,TX,78224,BEXAR,Physician
450860,TX,77479,FORT BEND,Physician
50390,CA,92543,RIVERSIDE,Physician
450869,TX,78539,HIDALGO,Physician
370215,OK,73120,OKLAHOMA,Physician
441319,TN,38551,CLAY,Physician
450864,TX,75701,SMITH,Physician
390323,PA,15301,WASHINGTON,Physician
450774,TX,77090,HARRIS,Physician
670008,TX,77598,HARRIS,Physician
190300,LA,70130,ORLEANS,Physician
450872,TX,76017,TARRANT,Physician
370222,OK,73114,OKLAHOMA,Physician
280131,NE,68114,DOUGLAS,Physician
670090,TX,75146,DALLAS,Physician
150177,IN,46545,ST. JOSEPH,Physician
280129,NE,68144,DOUGLAS,Physician
670113,TX,77338,HARRIS,Physician
170198,KS,67502,RENO,Physician
190270,LA,70458,ST. TAMMANY,Physician
390307,PA,16154,MERCER,Physician
390324,PA,19468,MONTGOMERY,Physician
670093,TX,77304,MONTGOMERY,Physician
400120,PR,725,CAGUAS,ForProfit
194073,LA,70518,LAFAYETTE,ForProfit
100183,FL,33134,MIAMI-DADE,ForProfit
454108,TX,77090,HARRIS,ForProfit
431312,SD,57430,MARSHALL,ForProfit
504012,WA,98271,SNOHOMISH,ForProfit
104074,FL,33908,LEE,ForProfit
454103,TX,77339,HARRIS,ForProfit
400011,PR,792,HUMACAO,ForProfit
464014,UT,84097,UTAH,ForProfit
264024,MO,65806,GREENE,ForProfit
454122,TX,79606,TAYLOR,ForProfit
454113,TX,76001,TARRANT,ForProfit
144039,IL,60624,COOK,ForProfit
404004,PR,739,CIDRA,ForProfit
454139,TX,77054,HARRIS,ForProfit
430089,SD,57049,UNION,ForProfit
400131,PR,738,FAJARDO,ForProfit
334026,NY,11701,SUFFOLK,ForProfit
450797,TX,77004,HARRIS,ForProfit
194094,LA,71103,CADDO,ForProfit
154058,IN,46506,MARSHALL,ForProfit
524041,WI,54311,BROWN,ForProfit
114036,GA,31602,LOWNDES,ForProfit
400133,PR,928,SAN JUAN,ForProfit
404005,PR,928,SAN JUAN,ForProfit
110209,GA,31788,COLQUITT,ForProfit
141348,IL,62278,RANDOLPH,ForProfit
670080,TX,76548,BELL,ForProfit
250163,MS,39153,SMITH,ForProfit
50132,CA,91776,LOS ANGELES,ForProfit
344031,NC,28210,MECKLENBURG,ForProfit
264031,MO,65065,CAMDEN,ForProfit
300017,NH,3038,ROCKINGHAM,ForProfit
130014,ID,83605,CANYON,ForProfit
190263,LA,70508,LAFAYETTE,ForProfit
50581,CA,90712,LOS ANGELES,ForProfit
390127,PA,19460,CHESTER,ForProfit
30121,AZ,85209,MARICOPA,ForProfit
100256,FL,34667,PASCO,ForProfit
54032,CA,91770,LOS ANGELES,ForProfit
440231,TN,37129,RUTHERFORD,ForProfit
450834,TX,77802,BRAZOS,ForProfit
34022,AZ,85704,PIMA,ForProfit
50242,CA,95065,SANTA CRUZ,ForProfit
30110,AZ,85395,MARICOPA,ForProfit
171302,KS,67356,LABETTE,ForProfit
190086,LA,71270,LINCOLN,ForProfit
460054,UT,84341,CACHE,ForProfit
460011,UT,84501,CARBON,ForProfit
450447,TX,75110,NAVARRO,ForProfit
50028,CA,95521,HUMBOLDT,ForProfit
394040,PA,16828,CENTRE,ForProfit
40078,AR,71901,GARLAND,ForProfit
324014,NM,87107,BERNALILLO,ForProfit
40134,AR,72211,PULASKI,ForProfit
370099,OK,74023,PAYNE,ForProfit
100121,FL,33831,POLK,ForProfit
220073,MA,2780,BRISTOL,ForProfit
451369,TX,79007,HUTCHINSON,ForProfit
400126,PR,683,SAN GERMAN,ForProfit
30037,AZ,85006,MARICOPA,ForProfit
110233,GA,30265,COWETA,ForProfit
450855,TX,78550,CAMERON,ForProfit
670118,TX,77070,HARRIS,ForProfit
364029,OH,44094,LAKE,ForProfit
230047,MI,48038,MACOMB,ForProfit
50234,CA,92118,SAN DIEGO,ForProfit
440035,TN,37040,MONTGOMERY,ForProfit
291311,NV,89048,NYE,ForProfit
14000,AL,35212,JEFFERSON,ForProfit
194082,LA,70546,JEFFRSON DAVIS,ForProfit
100161,FL,32771,SEMINOLE,ForProfit
670124,TX,79928,EL PASO,ForProfit
10128,AL,36545,CLARKE,ForProfit
450672,TX,76104,TARRANT,ForProfit
280132,NE,68123,SARPY,ForProfit
54146,CA,94601,ALAMEDA,ForProfit
100329,FL,32765,SEMINOLE,ForProfit
34032,AZ,85392,MARICOPA,ForProfit
170199,KS,66219,JOHNSON,ForProfit
260095,MO,64057,JACKSON,ForProfit
340013,NC,28139,RUTHERFORD,ForProfit
10008,AL,36049,CRENSHAW,ForProfit
250007,MS,39530,HARRISON,ForProfit
34033,AZ,85712,PIMA,ForProfit
100269,FL,33470,PALM BEACH,ForProfit
194114,LA,70068,ST. JOHN BAPTIST,ForProfit
444024,TN,38107,SHELBY,ForProfit
100092,FL,32955,BREVARD,ForProfit
354005,ND,58201,GRAND FORKS,ForProfit
364052,OH,44053,LORAIN,ForProfit
140082,IL,60640,COOK,ForProfit
450379,TX,75234,DALLAS,ForProfit
440067,TN,37814,HAMBLEN,ForProfit
490115,VA,24333,GALAX CITY,ForProfit
54095,CA,92128,SAN DIEGO,ForProfit
100224,FL,33321,BROWARD,ForProfit
454121,TX,78745,TRAVIS,ForProfit
104016,FL,32216,DUVAL,ForProfit
30108,AZ,85015,MARICOPA,ForProfit
33303,AZ,85210,MARICOPA,ForProfit
400098,PR,923,SAN JUAN,ForProfit
670099,TX,77380,MONTGOMERY,ForProfit
440068,TN,37371,MC MINN,ForProfit
150150,IN,46825,ALLEN,ForProfit
250017,MS,38851,CHICKASAW,ForProfit
670025,TX,75093,COLLIN,ForProfit
110192,GA,30078,GWINNETT,ForProfit
190026,LA,71301,RAPIDES,ForProfit
194022,LA,71303,RAPIDES,ForProfit
300029,NH,3801,ROCKINGHAM,ForProfit
340129,NC,28117,IREDELL,ForProfit
50726,CA,95355,STANISLAUS,ForProfit
290032,NV,89434,WASHOE,ForProfit
454060,TX,78259,BEXAR,ForProfit
194069,LA,70433,ST. TAMMANY,ForProfit
141342,IL,62906,UNION,ForProfit
170110,KS,67880,GRANT,ForProfit
310006,NJ,7055,PASSAIC,ForProfit
440194,TN,37075,SUMNER,ForProfit
50724,CA,93308,KERN,ForProfit
190014,LA,70380,ST. MARY,ForProfit
424006,SC,29405,CHARLESTON,ForProfit
441307,TN,37030,SMITH,ForProfit
444023,TN,38305,MADISON,ForProfit
50464,CA,95350,STANISLAUS,ForProfit
54077,CA,93001,VENTURA,ForProfit
54153,CA,90806,LOS ANGELES,ForProfit
394054,PA,15221,ALLEGHENY,ForProfit
180005,KY,41653,FLOYD,ForProfit
290046,NV,89118,CLARK,ForProfit
450661,TX,79761,ECTOR,ForProfit
100213,FL,34209,MANATEE,ForProfit
450874,TX,75063,DALLAS,ForProfit
340142,NC,28557,CARTERET,ForProfit
191307,LA,70633,CALCASIEU,ForProfit
441314,TN,38063,LAUDERDALE,ForProfit
144009,IL,60130,COOK,ForProfit
364057,OH,45213,HAMILTON,ForProfit
50022,CA,92501,RIVERSIDE,ForProfit
454134,TX,75034,DENTON,ForProfit
100181,FL,33143,MIAMI-DADE,ForProfit
420010,SC,29550,DARLINGTON,ForProfit
100070,FL,34285,SARASOTA,ForProfit
670005,TX,77339,HARRIS,ForProfit
100206,FL,33609,HILLSBOROUGH,ForProfit
374025,OK,73114,OKLAHOMA,ForProfit
381320,OR,97103,CLATSOP,ForProfit
40074,AR,72076,PULASKI,ForProfit
290054,NV,89149,CLARK,ForProfit
670006,TX,78746,TRAVIS,ForProfit
364041,OH,43223,FRANKLIN,ForProfit
100228,FL,33324,BROWARD,ForProfit
340116,NC,28601,CATAWBA,ForProfit
90008,DC,20032,THE DISTRICT,ForProfit
30101,AZ,86442,MOHAVE,ForProfit
450891,TX,75093,COLLIN,ForProfit
374024,OK,74133,TULSA,ForProfit
494022,VA,23805,PETERSBURG CITY,ForProfit
374012,OK,74128,TULSA,ForProfit
440200,TN,37190,CANNON,ForProfit
440040,TN,37096,PERRY,ForProfit
390058,PA,17015,CUMBERLAND,ForProfit
430095,SD,57108,LINCOLN,ForProfit
454141,TX,78550,CAMERON,ForProfit
420048,SC,29020,KERSHAW,ForProfit
250031,MS,39183,WARREN,ForProfit
394050,PA,17257,CUMBERLAND,ForProfit
120026,HI,96701,HONOLULU,ForProfit
320063,NM,88220,EDDY,ForProfit
10040,AL,35903,ETOWAH,ForProfit
520193,WI,54311,BROWN,ForProfit
190106,LA,71463,ALLEN,ForProfit
450883,TX,76262,DENTON,ForProfit
430093,SD,57701,PENNINGTON,ForProfit
44022,AR,72034,FAULKNER,ForProfit
420085,SC,29572,HORRY,ForProfit
454118,TX,77429,HARRIS,ForProfit
450209,TX,79106,POTTER,ForProfit
250038,MS,39046,MADISON,ForProfit
454123,TX,75904,ANGELINA,ForProfit
24001,AK,99508,ANCHORAGE,ForProfit
430090,SD,57105,MINNEHAHA,ForProfit
10110,AL,36089,BULLOCK,ForProfit
400087,PR,613,ARECIBO,ForProfit
40019,AR,72335,ST. FRANCIS,ForProfit
420101,SC,29927,JASPER,ForProfit
260119,MO,63901,BUTLER,ForProfit
490112,VA,23235,CHESTERFIELD,ForProfit
170175,KS,67801,FORD,ForProfit
54053,CA,90505,LOS ANGELES,ForProfit
104026,FL,33334,BROWARD,ForProfit
190205,LA,70508,LAFAYETTE,ForProfit
494032,VA,23188,JAMES CITY,ForProfit
400123,PR,681,MAYAGUEZ,ForProfit
220126,MA,2062,NORFOLK,ForProfit
250072,MS,39204,HINDS,ForProfit
100231,FL,32514,ESCAMBIA,ForProfit
90001,DC,20037,THE DISTRICT,ForProfit
10139,AL,35209,JEFFERSON,ForProfit
114037,GA,30655,WALTON,ForProfit
324013,NM,87108,BERNALILLO,ForProfit
264030,MO,64116,CLAY,ForProfit
40152,AR,72703,WASHINGTON,ForProfit
390322,PA,19020,BUCKS,ForProfit
440020,TN,38478,GILES,ForProfit
194109,LA,70364,TERREBONNE,ForProfit
450605,TX,78336,SAN PATRICIO,ForProfit
150075,IN,46714,WELLS,ForProfit
250025,MS,38821,MONROE,ForProfit
340075,NC,28655,BURKE,ForProfit
290003,NV,89109,CLARK,ForProfit
50230,CA,92843,ORANGE,ForProfit
450718,TX,78681,WILLIAMSON,ForProfit
454064,TX,76901,TOM GREEN,ForProfit
510002,WV,24970,GREENBRIER,ForProfit
464013,UT,84106,SALT LAKE,ForProfit
390290,PA,19102,PHILADELPHIA,ForProfit
231326,MI,48879,CLINTON,ForProfit
364027,OH,43725,GUERNSEY,ForProfit
400122,PR,969,GUAYNABO,ForProfit
450422,TX,75204,DALLAS,ForProfit
454135,TX,77080,HARRIS,ForProfit
490145,VA,20166,LOUDOUN,ForProfit
130066,ID,83854,KOOTENAI,ForProfit
390302,PA,19047,BUCKS,ForProfit
104071,FL,34474,MARION,ForProfit
100179,FL,32216,DUVAL,ForProfit
394039,PA,18704,LUZERNE,ForProfit
450808,TX,78731,TRAVIS,ForProfit
190256,LA,70458,ST. TAMMANY,ForProfit
50588,CA,91773,LOS ANGELES,ForProfit
60129,CO,80021,JEFFERSON,ForProfit
450638,TX,77090,HARRIS,ForProfit
451312,TX,77434,COLORADO,ForProfit
10150,AL,36037,BUTLER,ForProfit
393307,PA,19134,PHILADELPHIA,ForProfit
370094,OK,73110,OKLAHOMA,ForProfit
50526,CA,92647,ORANGE,ForProfit
374016,OK,74820,PONTOTOC,ForProfit
370216,OK,74132,TULSA,ForProfit
454012,TX,76011,TARRANT,ForProfit
14018,AL,35806,MADISON,ForProfit
250027,MS,39339,WINSTON,ForProfit
30138,AZ,85338,MARICOPA,ForProfit
150064,IN,47331,FAYETTE,ForProfit
390026,PA,19118,PHILADELPHIA,ForProfit
200041,ME,4901,KENNEBEC,ForProfit
670054,TX,78240,BEXAR,ForProfit
310118,NJ,7094,HUDSON,ForProfit
50783,CA,95932,COLUSA,ForProfit
194102,LA,70071,ST. JAMES,ForProfit
100236,FL,33952,CHARLOTTE,ForProfit
110187,GA,30533,LUMPKIN,ForProfit
370212,OK,73139,OKLAHOMA,ForProfit
50329,CA,92882,RIVERSIDE,ForProfit
100049,FL,33870,HIGHLANDS,ForProfit
454065,TX,75115,DALLAS,ForProfit
450147,TX,77902,VICTORIA,ForProfit
450670,TX,77375,HARRIS,ForProfit
334002,NY,10536,WESTCHESTER,ForProfit
420083,SC,29307,SPARTANBURG,ForProfit
194100,LA,70131,ORLEANS,ForProfit
670043,TX,78613,WILLIAMSON,ForProfit
450033,TX,78550,CAMERON,ForProfit
340049,NC,27704,DURHAM,ForProfit
201306,ME,4276,OXFORD,ForProfit
364047,OH,45863,VAN WERT,ForProfit
320074,NM,87114,BERNALILLO,ForProfit
450678,TX,75218,DALLAS,ForProfit
170201,KS,66213,JOHNSON,ForProfit
460057,UT,84060,SUMMIT,ForProfit
50257,CA,93308,KERN,ForProfit
400103,PR,682,MAYAGUEZ,ForProfit
460014,UT,84074,TOOELE,ForProfit
50745,CA,92869,ORANGE,ForProfit
670117,TX,75140,VAN ZANDT,ForProfit
100077,FL,33952,CHARLOTTE,ForProfit
451378,TX,79830,BREWSTER,ForProfit
450324,TX,75020,GRAYSON,ForProfit
100081,FL,32435,WALTON,ForProfit
370183,OK,74437,OKMULGEE,ForProfit
344014,NC,27610,WAKE,ForProfit
424014,SC,29720,LANCASTER,ForProfit
100110,FL,34741,OSCEOLA,ForProfit
450340,TX,76904,TOM GREEN,ForProfit
140100,IL,60099,LAKE,ForProfit
450775,TX,77325,HARRIS,ForProfit
100080,FL,33462,PALM BEACH,ForProfit
114035,GA,30274,CLAYTON,ForProfit
390008,PA,16117,LAWRENCE,ForProfit
30112,AZ,85224,MARICOPA,ForProfit
50740,CA,90291,LOS ANGELES,ForProfit
313302,NJ,8053,BURLINGTON,ForProfit
330103,NY,14760,CATTARAUGUS,ForProfit
510071,WV,24701,MERCER,ForProfit
50551,CA,90720,ORANGE,ForProfit
180078,KY,41240,JOHNSON,ForProfit
100180,FL,33710,PINELLAS,ForProfit
100246,FL,34950,ST. LUCIE,ForProfit
460005,UT,84405,WEBER,ForProfit
190167,LA,70586,EVANGELINE,ForProfit
510048,WV,25601,LOGAN,ForProfit
490110,VA,24060,MONTGOMERY,ForProfit
110125,GA,31021,LAURENS,ForProfit
50689,CA,94583,CONTRA COSTA,ForProfit
10086,AL,35594,FAYETTE,ForProfit
670095,TX,77375,HARRIS,ForProfit
340159,NC,27573,PERSON,ForProfit
201314,ME,4976,SOMERSET,ForProfit
510031,WV,25301,KANAWHA,ForProfit
454101,TX,79072,HALE,ForProfit
140040,IL,61401,KNOX,ForProfit
150046,IN,47802,VIGO,ForProfit
50063,CA,90027,LOS ANGELES,ForProfit
100242,FL,32405,BAY,ForProfit
394034,PA,19002,MONTGOMERY,ForProfit
360141,OH,44501,MAHONING,ForProfit
64027,CO,80534,WELD,ForProfit
450730,TX,75010,DENTON,ForProfit
40041,AR,72801,POPE,ForProfit
110115,GA,30312,FULTON,ForProfit
670126,TX,75835,HOUSTON,ForProfit
670119,TX,77090,HARRIS,ForProfit
420055,SC,29574,MARION,ForProfit
370228,OK,74055,TULSA,ForProfit
34029,AZ,85225,MARICOPA,ForProfit
54150,CA,95051,SANTA CLARA,ForProfit
440161,TN,37203,DAVIDSON,ForProfit
450617,TX,77598,HARRIS,ForProfit
314021,NJ,8060,BURLINGTON,ForProfit
54104,CA,95841,SACRAMENTO,ForProfit
460041,UT,84041,DAVIS,ForProfit
100191,FL,34655,PASCO,ForProfit
34013,AZ,85006,MARICOPA,ForProfit
180066,KY,42276,LOGAN,ForProfit
440159,TN,38118,SHELBY,ForProfit
194105,LA,70809,E. BATON ROUGE,ForProfit
50737,CA,91754,LOS ANGELES,ForProfit
250151,MS,39301,LAUDERDALE,ForProfit
344028,NC,27529,WAKE,ForProfit
184012,KY,40160,HARDIN,ForProfit
250042,MS,38614,COAHOMA,ForProfit
34024,AZ,85302,MARICOPA,ForProfit
100252,FL,34972,OKEECHOBEE,ForProfit
390084,PA,17801,NORTHUMBERLND,ForProfit
10104,AL,35243,JEFFERSON,ForProfit
100267,FL,34223,SARASOTA,ForProfit
420030,SC,29488,COLLETON,ForProfit
450831,TX,77504,HARRIS,ForProfit
230273,MI,48201,WAYNE,ForProfit
100291,FL,32935,BREVARD,ForProfit
450675,TX,76015,TARRANT,ForProfit
394027,PA,19128,PHILADELPHIA,ForProfit
340030,NC,27710,DURHAM,ForProfit
110075,GA,30458,BULLOCH,ForProfit
30038,AZ,85251,MARICOPA,ForProfit
371326,OK,73446,MARSHALL,ForProfit
180132,KY,42503,PULASKI,ForProfit
130067,ID,83221,BINGHAM,ForProfit
454127,TX,78626,WILLIAMSON,ForProfit
264017,MO,64133,JACKSON,ForProfit
104072,FL,32821,ORANGE,ForProfit
190297,LA,71446,VERNON,ForProfit
454018,TX,76301,WICHITA,ForProfit
500012,WA,98902,YAKIMA,ForProfit
410009,RI,2886,KENT,ForProfit
660001,MP,96950,SAIPAN,ForProfit
410005,RI,2904,PROVIDENCE,ForProfit
10052,AL,36853,TALLAPOOSA,ForProfit
394043,PA,16214,CLARION,ForProfit
100150,FL,33040,MONROE,ForProfit
194084,LA,70128,ORLEANS,ForProfit
450894,TX,75235,DALLAS,ForProfit
400106,PR,915,SAN JUAN,ForProfit
370097,OK,73505,COMANCHE,ForProfit
100248,FL,33770,PINELLAS,ForProfit
390072,PA,18603,COLUMBIA,ForProfit
370026,OK,73701,GARFIELD,ForProfit
521342,WI,54871,WASHBURN,ForProfit
220062,MA,1605,WORCESTER,ForProfit
40084,AR,72015,SALINE,ForProfit
30069,AZ,86403,MOHAVE,ForProfit
450299,TX,77842,BRAZOS,ForProfit
534004,WY,82609,NATRONA,ForProfit
50091,CA,90255,LOS ANGELES,ForProfit
320018,NM,88011,DONA ANA,ForProfit
140033,IL,60085,LAKE,ForProfit
194087,LA,71203,OUACHITA,ForProfit
100302,FL,34769,OSCEOLA,ForProfit
440185,TN,37311,BRADLEY,ForProfit
670107,TX,76028,JOHNSON,ForProfit
50757,CA,92120,SAN DIEGO,ForProfit
364038,OH,44505,MAHONING,ForProfit
223304,MA,2114,SUFFOLK,ForProfit
50709,CA,92395,SAN BERNARDINO,ForProfit
390237,PA,18501,LACKAWANNA,ForProfit
184014,KY,42240,CHRISTIAN,ForProfit
260074,MO,65270,RANDOLPH,ForProfit
180046,KY,40361,BOURBON,ForProfit
390076,PA,19320,CHESTER,ForProfit
370201,OK,73129,OKLAHOMA,ForProfit
130018,ID,83404,BONNEVILLE,ForProfit
440227,TN,37167,RUTHERFORD,ForProfit
110230,GA,30097,GWINNETT,ForProfit
190099,LA,71351,AVOYELLES,ForProfit
10148,AL,36401,CONECUH,ForProfit
190160,LA,71291,OUACHITA,ForProfit
44021,AR,72301,CRITTENDEN,ForProfit
241335,MN,55981,WABASHA,ForProfit
110236,GA,30742,CATOOSA,ForProfit
250096,MS,39042,RANKIN,ForProfit
670112,TX,78249,BEXAR,ForProfit
220111,MA,2301,PLYMOUTH,ForProfit
194044,LA,70507,LAFAYETTE,ForProfit
260027,MO,64132,JACKSON,ForProfit
450876,TX,79416,LUBBOCK,ForProfit
430091,SD,57703,PENNINGTON,ForProfit
10012,AL,35968,DE KALB,ForProfit
490116,VA,24301,PULASKI,ForProfit
400112,PR,984,CAROLINA,ForProfit
420079,SC,29406,CHARLESTON,ForProfit
110046,GA,30655,WALTON,ForProfit
530032,WY,82930,UINTA,ForProfit
224013,MA,2130,SUFFOLK,ForProfit
10131,AL,35801,MADISON,ForProfit
50024,CA,91950,SAN DIEGO,ForProfit
454128,TX,76132,TARRANT,ForProfit
151334,IN,47170,SCOTT,ForProfit
360075,OH,44143,CUYAHOGA,ForProfit
84002,DE,19713,NEW CASTLE,ForProfit
50780,CA,92780,ORANGE,ForProfit
144026,IL,60644,COOK,ForProfit
194106,LA,71301,RAPIDES,ForProfit
110177,GA,30909,RICHMOND,ForProfit
450853,TX,75034,DENTON,ForProfit
110031,GA,30223,SPALDING,ForProfit
101310,FL,32091,BRADFORD,ForProfit
224022,MA,2467,MIDDLESEX,ForProfit
450668,TX,79902,EL PASO,ForProfit
250136,MS,39232,RANKIN,ForProfit
194079,LA,71111,BOSSIER,ForProfit
390192,PA,18657,WYOMING,ForProfit
490141,VA,22408,SPOTSYLVANIA,ForProfit
140118,IL,60406,COOK,ForProfit
194074,LA,71270,LINCOLN,ForProfit
321300,NM,87901,SIERRA,ForProfit
140054,IL,60402,COOK,ForProfit
10036,AL,36420,COVINGTON,ForProfit
54130,CA,92506,RIVERSIDE,ForProfit
100047,FL,33950,CHARLOTTE,ForProfit
230024,MI,48235,WAYNE,ForProfit
314023,NJ,8068,BURLINGTON,ForProfit
454117,TX,75605,GREGG,ForProfit
394051,PA,17110,DAUPHIN,ForProfit
450587,TX,76801,BROWN,ForProfit
230075,MI,49017,CALHOUN,ForProfit
440072,TN,38024,DYER,ForProfit
261320,MO,64067,LAFAYETTE,ForProfit
344030,NC,28451,BRUNSWICK,ForProfit
50158,CA,91436,LOS ANGELES,ForProfit
111336,GA,30525,RABUN,ForProfit
354004,ND,58103,CASS,ForProfit
450154,TX,78840,VAL VERDE,ForProfit
450097,TX,77504,HARRIS,ForProfit
400032,PR,960,BAYAMON,ForProfit
454126,TX,75115,DALLAS,ForProfit
251314,MS,38646,QUITMAN,ForProfit
450092,TX,78852,MAVERICK,ForProfit
194107,LA,70806,E. BATON ROUGE,ForProfit
50776,CA,90806,LOS ANGELES,ForProfit
364045,OH,43223,FRANKLIN,ForProfit
144029,IL,61820,CHAMPAIGN,ForProfit
170123,KS,67214,SEDGWICK,ForProfit
114004,GA,30046,GWINNETT,ForProfit
514008,WV,25701,CABELL,ForProfit
450488,TX,75662,GREGG,ForProfit
10158,AL,35653,FRANKLIN,ForProfit
460013,UT,84651,UTAH,ForProfit
360351,OH,44310,SUMMIT,ForProfit
400006,PR,909,SAN JUAN,ForProfit
154063,IN,46254,MARION,ForProfit
10047,AL,36033,BUTLER,ForProfit
140200,IL,60126,DU PAGE,ForProfit
450747,TX,75801,ANDERSON,ForProfit
234030,MI,49546,KENT,ForProfit
364048,OH,45417,MONTGOMERY,ForProfit
30136,AZ,85339,MARICOPA,ForProfit
670073,TX,75001,DALLAS,ForProfit
420091,SC,29505,FLORENCE,ForProfit
184009,KY,40509,FAYETTE,ForProfit
344007,NC,27104,FORSYTH,ForProfit
451328,TX,77665,CHAMBERS,ForProfit
50205,CA,91740,LOS ANGELES,ForProfit
670060,TX,75182,DALLAS,ForProfit
390162,PA,18042,NORTHAMPTON,ForProfit
54111,CA,91710,SAN BERNARDINO,ForProfit
194031,LA,70123,JEFFERSON,ForProfit
120022,HI,96813,HONOLULU,ForProfit
334022,NY,14209,ERIE,ForProfit
50549,CA,91360,VENTURA,ForProfit
371331,OK,74030,CREEK,ForProfit
424002,SC,29526,HORRY,ForProfit
134009,ID,83704,ADA,ForProfit
50769,CA,92618,ORANGE,ForProfit
450851,TX,75226,DALLAS,ForProfit
420080,SC,29925,BEAUFORT,ForProfit
464012,UT,84115,SALT LAKE,ForProfit
180124,KY,42104,WARREN,ForProfit
260210,MO,63118,ST. LOUIS CITY,ForProfit
150184,IN,46123,HENDRICKS,ForProfit
10144,AL,36608,MOBILE,ForProfit
364056,OH,45242,HAMILTON,ForProfit
30085,AZ,85741,PIMA,ForProfit
670071,TX,76012,TARRANT,ForProfit
364054,OH,44041,ASHTABULA,ForProfit
440151,TN,37110,WARREN,ForProfit
100053,FL,33013,MIAMI-DADE,ForProfit
440187,TN,38570,OVERTON,ForProfit
70005,CT,6721,NEW HAVEN,ForProfit
390304,PA,19128,PHILADELPHIA,ForProfit
41306,AR,72519,BAXTER,ForProfit
190164,LA,71446,VERNON,ForProfit
194083,LA,71220,MOREHOUSE,ForProfit
111323,GA,30453,TATTNALL,ForProfit
50573,CA,92270,RIVERSIDE,ForProfit
150035,IN,46383,PORTER,ForProfit
161343,IA,52057,DELAWARE,ForProfit
30123,AZ,85255,MARICOPA,ForProfit
454110,TX,79706,MIDLAND,ForProfit
154018,IN,47374,WAYNE,ForProfit
100258,FL,33484,PALM BEACH,ForProfit
150047,IN,46802,ALLEN,ForProfit
450651,TX,75075,COLLIN,ForProfit
460003,UT,84102,SALT LAKE,ForProfit
54069,CA,91724,LOS ANGELES,ForProfit
154064,IN,46214,MARION,ForProfit
161324,IA,51640,FREMONT,ForProfit
50586,CA,91710,SAN BERNARDINO,ForProfit
40147,AR,72118,PULASKI,ForProfit
194091,LA,70444,TANGIPAHOA,ForProfit
460030,UT,84078,UINTAH,ForProfit
50771,CA,90650,LOS ANGELES,ForProfit
110091,GA,30012,ROCKDALE,ForProfit
264012,MO,63304,ST. CHARLES,ForProfit
160089,IA,52501,WAPELLO,ForProfit
410004,RI,2908,PROVIDENCE,ForProfit
50426,CA,92804,ORANGE,ForProfit
50763,CA,90026,LOS ANGELES,ForProfit
391302,PA,15552,SOMERSET,ForProfit
101301,FL,32060,SUWANNEE,ForProfit
390316,PA,19610,BERKS,ForProfit
100299,FL,34202,MANATEE,ForProfit
40022,AR,72764,WASHINGTON,ForProfit
100268,FL,33428,PALM BEACH,ForProfit
450484,TX,75904,ANGELINA,ForProfit
154059,IN,47905,TIPPECANOE,ForProfit
161368,IA,51031,PLYMOUTH,ForProfit
114032,GA,30349,FULTON,ForProfit
170194,KS,66211,JOHNSON,ForProfit
451338,TX,79855,CULBERSON,ForProfit
670115,TX,77327,LIBERTY,ForProfit
44005,AR,72113,PULASKI,ForProfit
400118,PR,674,MANATI,ForProfit
100275,FL,33414,PALM BEACH,ForProfit
150153,IN,46290,HAMILTON,ForProfit
110189,GA,30513,FANNIN,ForProfit
400130,PR,641,UTUADO,ForProfit
54087,CA,95823,SACRAMENTO,ForProfit
290022,NV,89119,CLARK,ForProfit
251306,MS,39476,GREENE,ForProfit
250081,MS,39301,LAUDERDALE,ForProfit
450875,TX,79124,POTTER,ForProfit
50471,CA,90017,LOS ANGELES,ForProfit
100254,FL,32308,LEON,ForProfit
490092,VA,23851,FRANKLIN CITY,ForProfit
50222,CA,91911,SAN DIEGO,ForProfit
100322,FL,32696,LEVY,ForProfit
54149,CA,94578,ALAMEDA,ForProfit
50678,CA,92708,ORANGE,ForProfit
250128,MS,38606,PANOLA,ForProfit
171357,KS,67063,MARION,ForProfit
250123,MS,39503,HARRISON,ForProfit
670098,TX,78130,COMAL,ForProfit
254011,MS,39503,HARRISON,ForProfit
444019,TN,37040,MONTGOMERY,ForProfit
50663,CA,90023,LOS ANGELES,ForProfit
50736,CA,91754,LOS ANGELES,ForProfit
100255,FL,33615,HILLSBOROUGH,ForProfit
150158,IN,46123,HENDRICKS,ForProfit
40085,AR,72342,PHILLIPS,ForProfit
490060,VA,24641,TAZEWELL,ForProfit
100209,FL,33175,MIAMI-DADE,ForProfit
450877,TX,79936,EL PASO,ForProfit
453309,TX,77082,HARRIS,ForProfit
364059,OH,44236,SUMMIT,ForProfit
250138,MS,39232,RANKIN,ForProfit
400134,PR,912,SAN JUAN,ForProfit
100204,FL,32605,ALACHUA,ForProfit
440137,TN,37160,BEDFORD,ForProfit
670055,TX,78258,BEXAR,ForProfit
390110,PA,15905,CAMBRIA,ForProfit
371330,OK,73554,GREER,ForProfit
174021,KS,66604,SHAWNEE,ForProfit
450716,TX,77065,HARRIS,ForProfit
454142,TX,77059,HARRIS,ForProfit
44004,AR,72703,WASHINGTON,ForProfit
220080,MA,1844,ESSEX,ForProfit
50135,CA,90028,LOS ANGELES,ForProfit
390071,PA,17745,CLINTON,ForProfit
100232,FL,32177,PUTNAM,ForProfit
180024,KY,40033,MARION,ForProfit
450889,TX,75231,DALLAS,ForProfit
100126,FL,33707,PINELLAS,ForProfit
224021,MA,2703,BRISTOL,ForProfit
114028,GA,31416,CHATHAM,ForProfit
50775,CA,92592,RIVERSIDE,ForProfit
454130,TX,75093,COLLIN,ForProfit
180069,KY,41503,PIKE,ForProfit
50739,CA,90301,LOS ANGELES,ForProfit
450119,TX,78539,HIDALGO,ForProfit
520030,WI,54401,MARATHON,ForProfit
233300,MI,48201,WAYNE,ForProfit
420036,SC,29720,LANCASTER,ForProfit
210051,MD,20706,PRINCE GEORGES,ForProfit
404007,PR,623,CABO ROJO,ForProfit
50744,CA,92805,ORANGE,ForProfit
450780,TX,78240,BEXAR,ForProfit
54154,CA,95138,SANTA CLARA,ForProfit
244016,MN,55443,HENNEPIN,ForProfit
670110,TX,75006,DALLAS,ForProfit
444025,TN,38125,SHELBY,ForProfit
440056,TN,37760,JEFFERSON,ForProfit
670078,TX,78232,BEXAR,ForProfit
440008,TN,38351,HENDERSON,ForProfit
140294,IL,62864,JEFFERSON,ForProfit
341317,NC,27016,STOKES,ForProfit
231321,MI,49849,MARQUETTE,ForProfit
310130,NJ,7675,BERGEN,ForProfit
450713,TX,78704,TRAVIS,ForProfit
454136,TX,77450,HARRIS,ForProfit
450702,TX,75605,GREGG,ForProfit
400102,PR,959,BAYAMON,ForProfit
40153,AR,71801,HEMPSTEAD,ForProfit
384012,OR,97225,WASHINGTON,ForProfit
150183,IN,47403,MONROE,ForProfit
454138,TX,75042,DALLAS,ForProfit
450231,TX,79106,POTTER,ForProfit
150133,IN,46580,KOSCIUSKO,ForProfit
371335,OK,74462,HASKELL,ForProfit
280133,NE,68122,DOUGLAS,ForProfit
50708,CA,93710,FRESNO,ForProfit
294010,NV,89146,CLARK,ForProfit
370190,OK,74133,TULSA,ForProfit
450035,TX,77002,HARRIS,ForProfit
100054,FL,32578,OKALOOSA,ForProfit
440061,TN,38237,WEAKLEY,ForProfit
460047,UT,84124,SALT LAKE,ForProfit
100176,FL,33410,PALM BEACH,ForProfit
450558,TX,79606,TAYLOR,ForProfit
250126,MS,38668,TATE,ForProfit
50589,CA,92870,ORANGE,ForProfit
100137,FL,33837,POLK,ForProfit
190302,LA,70002,JEFFERSON,ForProfit
390272,PA,19401,MONTGOMERY,ForProfit
180127,KY,40601,FRANKLIN,ForProfit
84003,DE,19720,NEW CASTLE,ForProfit
450196,TX,75460,LAMAR,ForProfit
194095,LA,70570,ST. LANDRY,ForProfit
220176,MA,1608,WORCESTER,ForProfit
230013,MI,48341,OAKLAND,ForProfit
371318,OK,74637,OSAGE,ForProfit
100211,FL,33525,PASCO,ForProfit
670047,TX,79938,EL PASO,ForProfit
454026,TX,77074,HARRIS,ForProfit
50751,CA,90036,LOS ANGELES,ForProfit
450662,TX,78526,CAMERON,ForProfit
440058,TN,37398,FRANKLIN,ForProfit
454133,TX,78754,TRAVIS,ForProfit
460017,UT,84302,BOX ELDER,ForProfit
220036,MA,2135,SUFFOLK,ForProfit
30087,AZ,85260,MARICOPA,ForProfit
170020,KS,67502,RENO,ForProfit
450788,TX,78414,NUECES,ForProfit
670120,TX,79911,EL PASO,ForProfit
461306,UT,84634,SANPETE,ForProfit
294009,NV,89103,CLARK,ForProfit
190090,LA,71483,WINN,ForProfit
54028,CA,90026,LOS ANGELES,ForProfit
364036,OH,43537,LUCAS,ForProfit
504011,WA,98168,KING,ForProfit
450469,TX,75091,GRAYSON,ForProfit
450400,TX,76667,LIMESTONE,ForProfit
450203,TX,76086,PARKER,ForProfit
104079,FL,33021,BROWARD,ForProfit
50382,CA,91723,LOS ANGELES,ForProfit
170027,KS,67124,PRATT,ForProfit
84004,DE,19901,KENT,ForProfit
10083,AL,36535,BALDWIN,ForProfit
114010,GA,30338,DE KALB,ForProfit
150017,IN,46804,ALLEN,ForProfit
230036,MI,49707,ALPENA,ForProfit
290039,NV,89128,CLARK,ForProfit
50747,CA,92704,ORANGE,ForProfit
451355,TX,79095,COLLINGSWORTH,ForProfit
390119,PA,18510,LACKAWANNA,ForProfit
420002,SC,29730,YORK,ForProfit
670045,TX,76054,TARRANT,ForProfit
390325,PA,17402,YORK,ForProfit
370006,OK,74601,KAY,ForProfit
441311,TN,37015,CHEATHAM,ForProfit
54151,CA,95401,SONOMA,ForProfit
194098,LA,70065,JEFFERSON,ForProfit
50506,CA,93405,SAN LUIS OBISPO,ForProfit
440003,TN,37066,SUMNER,ForProfit
454109,TX,79902,EL PASO,ForProfit
400114,PR,674,MANATI,ForProfit
64024,CO,80130,DOUGLAS,ForProfit
60100,CO,80012,ARAPAHOE,ForProfit
270087,MT,59901,FLATHEAD,ForProfit
180128,KY,41230,LAWRENCE,ForProfit
100243,FL,33511,HILLSBOROUGH,ForProfit
321309,NM,88031,LUNA,ForProfit
41331,AR,72736,BENTON,ForProfit
450403,TX,75069,COLLIN,ForProfit
260105,MO,63110,ST. LOUIS CITY,ForProfit
100189,FL,33063,BROWARD,ForProfit
670068,TX,75028,DENTON,ForProfit
104017,FL,33764,PINELLAS,ForProfit
31313,AZ,85621,SANTA CRUZ,ForProfit
154062,IN,46013,MADISON,ForProfit
50570,CA,92708,ORANGE,ForProfit
260022,MO,63501,ADAIR,ForProfit
154041,IN,47404,MONROE,ForProfit
50281,CA,91801,LOS ANGELES,ForProfit
444022,TN,38501,PUTNAM,ForProfit
420019,SC,29706,CHESTER,ForProfit
100284,FL,33155,MIAMI-DADE,ForProfit
400115,PR,693,VEGA BAJA,ForProfit
454137,TX,78666,HAYS,ForProfit
390130,PA,16646,CAMBRIA,ForProfit
50701,CA,92562,RIVERSIDE,ForProfit
364053,OH,44122,CUYAHOGA,ForProfit
460060,UT,84020,SALT LAKE,ForProfit
224043,MA,1434,WORCESTER,ForProfit
60034,CO,80113,ARAPAHOE,ForProfit
170176,KS,66215,JOHNSON,ForProfit
394053,PA,19129,PHILADELPHIA,ForProfit
280134,NE,68845,BUFFALO,ForProfit
364051,OH,45069,BUTLER,ForProfit
360055,OH,44482,TRUMBULL,ForProfit
370202,OK,74133,TULSA,ForProfit
100260,FL,34952,ST. LUCIE,ForProfit
50096,CA,91790,LOS ANGELES,ForProfit
254005,MS,38654,DE SOTO,ForProfit
450742,TX,75088,DALLAS,ForProfit
150149,IN,47630,WARRICK,ForProfit
50378,CA,91352,LOS ANGELES,ForProfit
234023,MI,48326,OAKLAND,ForProfit
154024,IN,46143,JOHNSON,ForProfit
44019,AR,72704,WASHINGTON,ForProfit
670044,TX,75032,ROCKWALL,ForProfit
451361,TX,75948,SABINE,ForProfit
310050,NJ,7834,MORRIS,ForProfit
194113,LA,70065,JEFFERSON,ForProfit
494025,VA,23454,VIRGINIA BEACH CITY,ForProfit
404008,PR,733,PONCE,ForProfit
370039,OK,74017,ROGERS,ForProfit
230297,MI,48201,WAYNE,ForProfit
424007,SC,29690,GREENVILLE,ForProfit
54152,CA,95062,SANTA CRUZ,ForProfit
371301,OK,74864,LINCOLN,ForProfit
340132,NC,27536,VANCE,ForProfit
360261,OH,45669,LAWRENCE,ForProfit
50468,CA,90247,LOS ANGELES,ForProfit
20017,AK,99508,ANCHORAGE,ForProfit
54155,CA,93309,KERN,ForProfit
60124,CO,80228,JEFFERSON,ForProfit
390068,PA,17543,LANCASTER,ForProfit
440083,TN,38556,FENTRESS,ForProfit
510070,WV,25801,RALEIGH,ForProfit
54135,CA,92663,ORANGE,ForProfit
111311,GA,30442,JENKINS,ForProfit
130028,ID,83201,BANNOCK,ForProfit
450644,TX,77082,HARRIS,ForProfit
290057,NV,89011,CLARK,ForProfit
490097,VA,23847,EMPORIA CITY,ForProfit
394008,PA,19124,PHILADELPHIA,ForProfit
304001,NH,3841,ROCKINGHAM,ForProfit
490067,VA,23805,PETERSBURG CITY,ForProfit
374017,OK,74354,OTTAWA,ForProfit
250084,MS,39120,ADAMS,ForProfit
450659,TX,77004,HARRIS,ForProfit
454132,TX,78240,BEXAR,ForProfit
50194,CA,95076,SANTA CRUZ,ForProfit
460052,UT,84057,UTAH,ForProfit
50608,CA,93215,KERN,ForProfit
194089,LA,70517,ST. MARTIN,ForProfit
230301,MI,48075,OAKLAND,ForProfit
370015,OK,74361,MAYES,ForProfit
670106,TX,77584,BRAZORIA,ForProfit
451304,TX,76936,SCHLEICHER,ForProfit
420082,SC,29801,AIKEN,ForProfit
44020,AR,71854,MILLER,ForProfit
50481,CA,91307,LOS ANGELES,ForProfit
424008,SC,29169,LEXINGTON,ForProfit
190307,LA,70631,CAMERON,ForProfit
334049,NY,12866,SARATOGA,ForProfit
150168,IN,46804,ALLEN,ForProfit
110101,GA,31620,COOK,ForProfit
374023,OK,73141,OKLAHOMA,ForProfit
104069,FL,32216,DUVAL,ForProfit
191320,LA,71001,BIENVILLE,ForProfit
450688,TX,75149,DALLAS,ForProfit
390061,PA,17604,LANCASTER,ForProfit
670075,TX,77070,HARRIS,ForProfit
450674,TX,77054,HARRIS,ForProfit
314001,NJ,7901,UNION,ForProfit
440197,TN,37211,DAVIDSON,ForProfit
450222,TX,77304,MONTGOMERY,ForProfit
190081,LA,71263,WEST CARROLL,ForProfit
194096,LA,71303,RAPIDES,ForProfit
114012,GA,30080,COBB,ForProfit
100288,FL,33407,PALM BEACH,ForProfit
450827,TX,76310,WICHITA,ForProfit
450130,TX,78205,BEXAR,ForProfit
670061,TX,78414,NUECES,ForProfit
400125,PR,738,FAJARDO,ForProfit
370014,OK,74702,BRYAN,ForProfit
450002,TX,79902,EL PASO,ForProfit
100249,FL,34428,CITRUS,ForProfit
324012,NM,88008,DONA ANA,ForProfit
224023,MA,2090,NORFOLK,ForProfit
50735,CA,90605,LOS ANGELES,ForProfit
100286,FL,34119,COLLIER,ForProfit
454107,TX,77081,HARRIS,ForProfit
10006,AL,35630,LAUDERDALE,ForProfit
181323,KY,42347,OHIO,ForProfit
50633,CA,93465,SAN LUIS OBISPO,ForProfit
670069,TX,75070,COLLIN,ForProfit
424010,SC,29650,GREENVILLE,ForProfit
190259,LA,70508,LAFAYETTE,ForProfit
100029,FL,33150,MIAMI-DADE,ForProfit
54110,CA,94538,ALAMEDA,ForProfit
390211,PA,16146,MERCER,ForProfit
50764,CA,96001,SHASTA,ForProfit
41302,AR,72834,YELL,ForProfit
270086,MT,59405,CASCADE,ForProfit
670046,TX,76132,TARRANT,ForProfit
50742,CA,90036,LOS ANGELES,ForProfit
50767,CA,95688,SOLANO,ForProfit
100320,FL,34758,OSCEOLA,ForProfit
100166,FL,34233,SARASOTA,ForProfit
341314,NC,27962,WASHINGTON,ForProfit
440228,TN,38133,SHELBY,ForProfit
670067,TX,76015,TARRANT,ForProfit
340016,NC,28779,JACKSON,ForProfit
130072,ID,83686,CANYON,ForProfit
451357,TX,76567,MILAM,ForProfit
490075,VA,24541,DANVILLE CITY,ForProfit
530008,WY,82501,FREMONT,ForProfit
110201,GA,31210,BIBB,ForProfit
450653,TX,79720,HOWARD,ForProfit
170191,KS,67530,BARTON,ForProfit
364015,OH,45701,ATHENS,ForProfit
454050,TX,75401,HUNT,ForProfit
10038,AL,36201,CALHOUN,ForProfit
53308,CA,92866,ORANGE,ForProfit
140125,IL,62040,MADISON,ForProfit
30137,AZ,85614,PIMA,ForProfit
360263,OH,45804,ALLEN,ForProfit
670062,TX,76227,DENTON,ForProfit
440183,TN,38119,SHELBY,ForProfit
530035,WY,82901,SWEETWATER,ForProfit
180092,KY,40391,CLARK,ForProfit
54078,CA,91107,LOS ANGELES,ForProfit
194020,LA,71106,CADDO,ForProfit
464015,UT,84047,SALT LAKE,ForProfit
294012,NV,89052,CLARK,ForProfit
320006,NM,88201,CHAVES,ForProfit
181308,KY,40383,WOODFORD,ForProfit
364049,OH,43016,FRANKLIN,ForProfit
110045,GA,30680,BARROW,ForProfit
104073,FL,32405,BAY,ForProfit
144034,IL,60107,COOK,ForProfit
180019,KY,41056,MASON,ForProfit
180101,KY,40324,SCOTT,ForProfit
450822,TX,75039,DALLAS,ForProfit
50204,CA,93552,LOS ANGELES,ForProfit
281302,NE,68420,PAWNEE,ForProfit
150176,IN,47129,CLARK,ForProfit
64028,CO,80112,ARAPAHOE,ForProfit
110198,GA,30076,FULTON,ForProfit
324010,NM,88012,DONA ANA,ForProfit
234021,MI,48047,MACOMB,ForProfit
234038,MI,48205,WAYNE,ForProfit
454129,TX,78626,WILLIAMSON,ForProfit
140184,IL,62959,WILLIAMSON,ForProfit
260176,MO,63122,ST. LOUIS,ForProfit
194081,LA,70634,BEAUREGARD,ForProfit
450596,TX,76048,HOOD,ForProfit
420026,SC,29204,RICHLAND,ForProfit
100217,FL,32978,INDIAN RIVER,ForProfit
194090,LA,70607,CALCASIEU,ForProfit
104070,FL,34952,ST. LUCIE,ForProfit
111329,GA,30642,GREENE,ForProfit
30083,AZ,85032,MARICOPA,ForProfit
493300,VA,23124,NEW KENT,ForProfit
50580,CA,90623,ORANGE,ForProfit
400110,PR,698,YAUCO,ForProfit
30114,AZ,85755,PIMA,ForProfit
50534,CA,92201,RIVERSIDE,ForProfit
101303,FL,32054,UNION,ForProfit
50243,CA,92262,RIVERSIDE,ForProfit
261334,MO,65351,SALINE,ForProfit
370001,OK,74104,TULSA,ForProfit
670102,TX,77015,HARRIS,ForProfit
450028,TX,78520,CAMERON,ForProfit
320065,NM,88240,LEA,ForProfit
70004,CT,6069,LITCHFIELD,ForProfit
340144,NC,28687,IREDELL,ForProfit
670010,TX,76208,DENTON,ForProfit
64009,CO,80906,EL PASO,ForProfit
440156,TN,37404,HAMILTON,ForProfit
230104,MI,48201,WAYNE,ForProfit
40055,AR,72901,SEBASTIAN,ForProfit
220020,MA,2721,BRISTOL,ForProfit
254007,MS,39232,RANKIN,ForProfit
40088,AR,71730,UNION,ForProfit
360270,OH,43512,DEFIANCE,ForProfit
190218,LA,71449,SABINE,ForProfit
504002,WA,98034,KING,ForProfit
104063,FL,34113,COLLIER,ForProfit
224041,MA,2747,BRISTOL,ForProfit
100187,FL,33016,MIAMI-DADE,ForProfit
290021,NV,89106,CLARK,ForProfit
104078,FL,34210,MANATEE,ForProfit
194085,LA,70508,LAFAYETTE,ForProfit
291307,NV,89027,CLARK,ForProfit
260011,MO,65109,COLE,ForProfit
190011,LA,71202,OUACHITA,ForProfit
220017,MA,2124,SUFFOLK,ForProfit
444021,TN,38401,MAURY,ForProfit
54055,CA,90703,LOS ANGELES,ForProfit
440192,TN,38583,WHITE,ForProfit
370229,OK,74868,SEMINOLE,ForProfit
170186,KS,67226,SEDGWICK,ForProfit
110128,GA,30474,TOOMBS,ForProfit
10049,AL,36330,COFFEE,ForProfit
50380,CA,95124,SANTA CLARA,ForProfit
511317,WV,25901,FAYETTE,ForProfit
294011,NV,89117,CLARK,ForProfit
10118,AL,36701,DALLAS,ForProfit
50641,CA,90023,LOS ANGELES,ForProfit
461300,UT,84624,MILLARD,ForProfit
224018,MA,2446,NORFOLK,ForProfit
190144,LA,71055,WEBSTER,ForProfit
41304,AR,72632,CARROLL,ForProfit
100316,FL,32907,BREVARD,ForProfit
154057,IN,46226,MARION,ForProfit
234042,MI,48092,MACOMB,ForProfit
450647,TX,75230,DALLAS,ForProfit
250093,MS,38732,BOLIVAR,ForProfit
194086,LA,70815,E. BATON ROUGE,ForProfit
450388,TX,78229,BEXAR,ForProfit
110168,GA,30165,FLOYD,ForProfit
450809,TX,78758,TRAVIS,ForProfit
110150,GA,31061,BALDWIN,ForProfit
100223,FL,32547,OKALOOSA,ForProfit
454125,TX,77845,BRAZOS,ForProfit
170197,KS,67002,BUTLER,ForProfit
100099,FL,33853,POLK,ForProfit
321301,NM,87801,SOCORRO,ForProfit
54096,CA,95826,SACRAMENTO,ForProfit
450107,TX,79902,EL PASO,ForProfit
440235,TN,37841,SCOTT,ForProfit
450236,TX,75482,HOPKINS,ForProfit
400005,PR,791,HUMACAO,ForProfit
454111,TX,78745,TRAVIS,ForProfit
144040,IL,60016,COOK,ForProfit
290008,NV,89801,ELKO,ForProfit
250049,MS,39652,PIKE,ForProfit
174020,KS,66062,JOHNSON,ForProfit
154051,IN,47130,CLARK,ForProfit
100035,FL,34208,MANATEE,ForProfit
100124,FL,32570,SANTA ROSA,ForProfit
41319,AR,71832,SEVIER,ForProfit
251303,MS,39577,STONE,ForProfit
190255,LA,70508,LAFAYETTE,ForProfit
30094,AZ,85308,MARICOPA,ForProfit
260190,MO,64063,JACKSON,ForProfit
10046,AL,35901,ETOWAH,ForProfit
450634,TX,76210,DENTON,ForProfit
360247,OH,43230,FRANKLIN,ForProfit
454114,TX,76513,BELL,ForProfit
290058,NV,89031,CLARK,ForProfit
440046,TN,37055,DICKSON,ForProfit
14006,AL,35902,ETOWAH,ForProfit
150102,IN,46534,STARKE,ForProfit
360352,OH,44512,MAHONING,ForProfit
670121,TX,76054,TARRANT,ForProfit
394052,PA,19601,BERKS,ForProfit
14016,AL,35055,CULLMAN,ForProfit
114008,GA,31406,CHATHAM,ForProfit
14015,AL,36049,CRENSHAW,ForProfit
420089,SC,29464,CHARLESTON,ForProfit
400109,PR,961,BAYAMON,ForProfit
450029,TX,78044,WEBB,ForProfit
220098,MA,1432,MIDDLESEX,ForProfit
104049,FL,33012,MIAMI-DADE,ForProfit
10055,AL,36305,HOUSTON,ForProfit
451372,TX,79347,BAILEY,ForProfit
450643,TX,78041,WEBB,ForProfit
60032,CO,80220,DENVER,ForProfit
320033,NM,87544,LOS ALAMOS,ForProfit
230277,MI,48382,OAKLAND,ForProfit
171327,KS,67439,ELLSWORTH,ForProfit
390070,PA,19007,BUCKS,ForProfit
450058,TX,78205,BEXAR,ForProfit
454119,TX,75010,DENTON,ForProfit
100259,FL,33573,HILLSBOROUGH,ForProfit
450833,TX,75119,ELLIS,ForProfit
70012,CT,6066,TOLLAND,ForProfit
490020,VA,23860,HOPEWELL CITY,ForProfit
50543,CA,92627,ORANGE,ForProfit
294013,NV,89109,CLARK,ForProfit
280127,NE,68506,LANCASTER,ForProfit
290041,NV,89144,CLARK,ForProfit
520109,WI,53948,JUNEAU,ForProfit
454124,TX,76123,TARRANT,ForProfit
450165,TX,78026,ATASCOSA,ForProfit
130063,ID,83704,ADA,ForProfit
320085,NM,88011,DONA ANA,ForProfit
154061,IN,46545,ST. JOSEPH,ForProfit
440120,TN,37849,KNOX,ForProfit
450825,TX,78539,HIDALGO,ForProfit
194056,LA,70115,ORLEANS,ForProfit
50298,CA,92311,SAN BERNARDINO,ForProfit
360266,OH,43054,FRANKLIN,ForProfit
50746,CA,92705,ORANGE,ForProfit
224039,MA,1830,ESSEX,ForProfit
40018,AR,72957,CRAWFORD,ForProfit
100212,FL,34478,MARION,ForProfit
194112,LA,71322,AVOYELLES,ForProfit
100238,FL,33709,PINELLAS,ForProfit
330009,NY,10456,BRONX,ForProfit
450711,TX,78503,HIDALGO,ForProfit
370002,OK,73801,WOODWARD,ForProfit
64026,CO,80923,EL PASO,ForProfit
44007,AR,72019,SALINE,ForProfit
110200,GA,31909,MUSCOGEE,ForProfit
234043,MI,48879,CLINTON,ForProfit
134002,ID,83704,ADA,ForProfit
100287,FL,33401,PALM BEACH,ForProfit
364040,OH,45504,CLARK,ForProfit
450087,TX,76180,TARRANT,ForProfit
314018,NJ,8012,CAMDEN,ForProfit
30117,AZ,86426,MOHAVE,ForProfit
34020,AZ,85007,MARICOPA,ForProfit
144005,IL,60640,COOK,ForProfit
440150,TN,37076,DAVIDSON,ForProfit
111312,GA,30467,SCREVEN,ForProfit
110113,GA,30830,BURKE,ForProfit
170122,KS,67214,SEDGWICK,NonProfit
100057,FL,32778,LAKE,NonProfit
210011,MD,21229,BALTIMORE CITY,NonProfit
520027,WI,53097,OZAUKEE,NonProfit
150004,IN,46320,LAKE,NonProfit
521350,WI,54409,LANGLADE,NonProfit
171308,KS,66725,CHEROKEE,NonProfit
140187,IL,62269,ST. CLAIR,NonProfit
381315,OR,97814,BAKER,NonProfit
260050,MO,64468,NODAWAY,NonProfit
330151,NY,14843,STEUBEN,NonProfit
230059,MI,49503,KENT,NonProfit
240104,MN,55379,SCOTT,NonProfit
240101,MN,56501,BECKER,NonProfit
180035,KY,41017,KENTON,NonProfit
110023,GA,30701,GORDON,NonProfit
150162,IN,46237,MARION,NonProfit
280023,NE,68803,HALL,NonProfit
140208,IL,60453,COOK,NonProfit
450677,TX,76028,JOHNSON,NonProfit
380037,OR,97132,YAMHILL,NonProfit
270014,MT,59806,MISSOULA,NonProfit
50168,CA,92835,ORANGE,NonProfit
490059,VA,23226,RICHMOND CITY,NonProfit
140290,IL,60169,COOK,NonProfit
520002,WI,54481,PORTAGE,NonProfit
361302,OH,44621,TUSCARAWAS,NonProfit
30024,AZ,85013,MARICOPA,NonProfit
350002,ND,58501,BURLEIGH,NonProfit
160029,IA,52245,JOHNSON,NonProfit
330158,NY,10901,ROCKLAND,NonProfit
500054,WA,99204,SPOKANE,NonProfit
380060,OR,97216,MULTNOMAH,NonProfit
140034,IL,62801,MARION,NonProfit
150109,IN,47905,TIPPECANOE,NonProfit
280009,NE,68848,BUFFALO,NonProfit
50502,CA,90057,LOS ANGELES,NonProfit
160067,IA,50702,BLACK HAWK,NonProfit
50335,CA,95370,TUOLUMNE,NonProfit
360276,OH,44512,MAHONING,NonProfit
330111,NY,14141,ERIE,NonProfit
70016,CT,6706,NEW HAVEN,NonProfit
50778,CA,92354,SAN BERNARDINO,NonProfit
520037,WI,54449,WOOD,NonProfit
330224,NY,12401,ULSTER,NonProfit
381318,OR,97031,HOOD RIVER,NonProfit
50236,CA,93065,VENTURA,NonProfit
310070,NJ,8901,MIDDLESEX,NonProfit
100118,FL,32164,FLAGLER,NonProfit
100046,FL,33541,PASCO,NonProfit
60103,CO,80027,BOULDER,NonProfit
160079,IA,52403,LINN,NonProfit
231305,MI,48658,ARENAC,NonProfit
50688,CA,95020,SANTA CLARA,NonProfit
50225,CA,95969,BUTTE,NonProfit
440082,TN,37205,DAVIDSON,NonProfit
10103,AL,35211,JEFFERSON,NonProfit
400048,PR,785,GUAYANILLA,NonProfit
330286,NY,11795,SUFFOLK,NonProfit
180043,KY,40962,CLAY,NonProfit
50353,CA,90503,LOS ANGELES,NonProfit
431302,SD,57442,POTTER,NonProfit
231337,MI,49829,DELTA,NonProfit
330205,NY,10990,ORANGE,NonProfit
351324,ND,58072,BARNES,NonProfit
280105,NE,68046,SARPY,NonProfit
150157,IN,46032,HAMILTON,NonProfit
490111,VA,24382,WYTHE,NonProfit
150010,IN,46904,HOWARD,NonProfit
310016,NJ,7306,HUDSON,NonProfit
50289,CA,94015,SAN MATEO,NonProfit
50069,CA,92868,ORANGE,NonProfit
440091,TN,37404,HAMILTON,NonProfit
170142,KS,66502,RILEY,NonProfit
151308,IN,46036,MADISON,NonProfit
50055,CA,94110,SAN FRANCISCO,NonProfit
501326,WA,99114,STEVENS,NonProfit
180010,KY,40504,FAYETTE,NonProfit
450152,TX,76542,BELL,NonProfit
451316,TX,77864,MADISON,NonProfit
444004,TN,38133,SHELBY,NonProfit
500141,WA,98003,KING,NonProfit
450193,TX,77030,HARRIS,NonProfit
360152,OH,43228,FRANKLIN,NonProfit
130013,ID,83687,CANYON,NonProfit
270049,MT,59101,YELLOWSTONE,NonProfit
140127,IL,61761,MC LEAN,NonProfit
351336,ND,58601,STARK,NonProfit
50301,CA,95482,MENDOCINO,NonProfit
50009,CA,94558,NAPA,NonProfit
100075,FL,33677,HILLSBOROUGH,NonProfit
240207,MN,55337,DAKOTA,NonProfit
60023,CO,81502,MESA,NonProfit
150015,IN,46360,LA PORTE,NonProfit
190312,LA,70427,WASHINGTON,NonProfit
360239,OH,45342,MONTGOMERY,NonProfit
100045,FL,32720,VOLUSIA,NonProfit
281342,NE,68410,OTOE,NonProfit
161331,IA,50659,CHICKASAW,NonProfit
381319,OR,97801,UMATILLA,NonProfit
30119,AZ,85297,MARICOPA,NonProfit
140172,IL,60461,COOK,NonProfit
50179,CA,95382,STANISLAUS,NonProfit
344004,NC,27509,GRANVILLE,NonProfit
520091,WI,54568,VILAS,NonProfit
351334,ND,58801,WILLIAMS,NonProfit
450801,TX,75504,BOWIE,NonProfit
100071,FL,34601,HERNANDO,NonProfit
140161,IL,61764,LIVINGSTON,NonProfit
240010,MN,55902,OLMSTED,NonProfit
361325,OH,44833,CRAWFORD,NonProfit
180102,KY,42003,MC CRACKEN,NonProfit
381303,OR,97138,CLATSOP,NonProfit
141350,IL,62056,MONTGOMERY,NonProfit
310019,NJ,7503,PASSAIC,NonProfit
50103,CA,90033,LOS ANGELES,NonProfit
100067,FL,33705,PINELLAS,NonProfit
170058,KS,66701,BOURBON,NonProfit
140080,IL,60202,COOK,NonProfit
510007,WV,25702,CABELL,NonProfit
140288,IL,60515,DU PAGE,NonProfit
150126,IN,46307,LAKE,NonProfit
170075,KS,67107,MCPHERSON,NonProfit
100069,FL,33614,HILLSBOROUGH,NonProfit
140250,IL,60429,COOK,NonProfit
140064,IL,61401,KNOX,NonProfit
150090,IN,46311,LAKE,NonProfit
51310,CA,95490,MENDOCINO,NonProfit
371313,OK,73750,KINGFISHER,NonProfit
451323,TX,76550,LAMPASAS,NonProfit
150084,IN,46260,MARION,NonProfit
450148,TX,76033,JOHNSON,NonProfit
440053,TN,37129,RUTHERFORD,NonProfit
40026,AR,71903,GARLAND,NonProfit
390096,PA,19605,BERKS,NonProfit
490136,VA,23114,CHESTERFIELD,NonProfit
360089,OH,44883,SENECA,NonProfit
190064,LA,70808,E. BATON ROUGE,NonProfit
330188,NY,14092,NIAGARA,NonProfit
281329,NE,68763,HOLT,NonProfit
430014,SD,57401,BROWN,NonProfit
360017,OH,43215,FRANKLIN,NonProfit
500108,WA,98405,PIERCE,NonProfit
160069,IA,52001,DUBUQUE,NonProfit
524038,WI,54301,BROWN,NonProfit
230058,MI,49738,CRAWFORD,NonProfit
161338,IA,50662,FAYETTE,NonProfit
50107,CA,93454,SANTA BARBARA,NonProfit
521305,WI,54656,MONROE,NonProfit
150022,IN,47933,MONTGOMERY,NonProfit
281346,NE,68769,PIERCE,NonProfit
140067,IL,61637,PEORIA,NonProfit
161351,IA,51334,EMMET,NonProfit
151303,IN,47265,JENNINGS,NonProfit
371304,OK,73460,JOHNSTON,NonProfit
50002,CA,94545,ALAMEDA,NonProfit
50042,CA,96080,TEHAMA,NonProfit
41300,AR,72855,LOGAN,NonProfit
140223,IL,60068,COOK,NonProfit
20001,AK,99508,ANCHORAGE,NonProfit
290053,NV,89113,CLARK,NonProfit
140114,IL,60625,COOK,NonProfit
241377,MN,56520,WILKIN,NonProfit
450021,TX,75246,DALLAS,NonProfit
450143,TX,78957,BASTROP,NonProfit
210004,MD,20910,MONTGOMERY,NonProfit
140113,IL,61801,CHAMPAIGN,NonProfit
50121,CA,93230,KINGS,NonProfit
140063,IL,60304,COOK,NonProfit
380075,OR,97504,JACKSON,NonProfit
50278,CA,91346,LOS ANGELES,NonProfit
140065,IL,60525,COOK,NonProfit
450082,TX,78102,BEE,NonProfit
400014,PR,681,MAYAGUEZ,NonProfit
360236,OH,45103,CLERMONT,NonProfit
360134,OH,45220,HAMILTON,NonProfit
10173,AL,35045,CHILTON,NonProfit
380022,OR,97321,LINN,NonProfit
140162,IL,61701,MC LEAN,NonProfit
450419,TX,76020,TARRANT,NonProfit
453308,TX,75002,COLLIN,NonProfit
330102,NY,14217,ERIE,NonProfit
140052,IL,62002,MADISON,NonProfit
501309,WA,99109,STEVENS,NonProfit
141318,IL,61462,WARREN,NonProfit
230081,MI,49601,WEXFORD,NonProfit
521313,WI,54487,LINCOLN,NonProfit
140093,IL,61832,VERMILION,NonProfit
100014,FL,32170,VOLUSIA,NonProfit
230156,MI,48106,WASHTENAW,NonProfit
450040,TX,79410,LUBBOCK,NonProfit
521307,WI,54736,PEPIN,NonProfit
50616,CA,93010,VENTURA,NonProfit
381317,OR,97141,TILLAMOOK,NonProfit
150115,IN,47546,DUBOIS,NonProfit
451305,TX,77836,BURLESON,NonProfit
330182,NY,11576,NASSAU,NonProfit
260200,MO,63367,ST. CHARLES,NonProfit
10090,AL,36608,MOBILE,NonProfit
140145,IL,62230,CLINTON,NonProfit
380082,OR,97222,CLACKAMAS,NonProfit
21311,AK,99901,KETCHIKAN GATEWAY,NonProfit
180104,KY,42003,MC CRACKEN,NonProfit
520013,WI,54701,EAU CLAIRE,NonProfit
490069,VA,23116,HANOVER,NonProfit
41329,AR,72616,CARROLL,NonProfit
390097,PA,19046,MONTGOMERY,NonProfit
140174,IL,60506,KANE,NonProfit
100068,FL,32117,VOLUSIA,NonProfit
360079,OH,45429,MONTGOMERY,NonProfit
140291,IL,60010,LAKE,NonProfit
330135,NY,12771,ORANGE,NonProfit
440033,TN,37766,CAMPBELL,NonProfit
370037,OK,73101,OKLAHOMA,NonProfit
280130,NE,68130,DOUGLAS,NonProfit
520136,WI,53210,MILWAUKEE,NonProfit
141336,IL,62249,MADISON,NonProfit
290012,NV,89015,CLARK,NonProfit
260001,MO,64804,JASPER,NonProfit
60113,CO,80122,ARAPAHOE,NonProfit
371302,OK,73772,BLAINE,NonProfit
181311,KY,41097,GRANT,NonProfit
260193,MO,64014,JACKSON,NonProfit
520096,WI,53405,RACINE,NonProfit
310021,NJ,8629,MERCER,NonProfit
310115,NJ,7840,WARREN,NonProfit
360064,OH,44501,MAHONING,NonProfit
180056,KY,42420,HENDERSON,NonProfit
370011,OK,73036,CANADIAN,NonProfit
440131,TN,38019,TIPTON,NonProfit
41324,AR,72110,CONWAY,NonProfit
60064,CO,80210,DENVER,NonProfit
140180,IL,60622,COOK,NonProfit
520017,WI,54729,CHIPPEWA,NonProfit
360081,OH,43616,LUCAS,NonProfit
360112,OH,43608,LUCAS,NonProfit
50191,CA,90813,LOS ANGELES,NonProfit
440049,TN,38104,SHELBY,NonProfit
170146,KS,66112,WYANDOTTE,NonProfit
140224,IL,60657,COOK,NonProfit
520051,WI,53211,MILWAUKEE,NonProfit
260059,MO,65536,LACLEDE,NonProfit
140117,IL,60631,COOK,NonProfit
60118,CO,80443,SUMMIT,NonProfit
370013,OK,73120,OKLAHOMA,NonProfit
120006,HI,96734,HONOLULU,NonProfit
310040,NJ,7030,HUDSON,NonProfit
520075,WI,54301,BROWN,NonProfit
260183,MO,63703,CAPE GIRARDEAU,NonProfit
230019,MI,48075,OAKLAND,NonProfit
351307,ND,58318,BOTTINEAU,NonProfit
181306,KY,42437,UNION,NonProfit
241301,MN,56623,LAKE OF  WOODS,NonProfit
150182,IN,46032,HAMILTON,NonProfit
140217,IL,60123,KANE,NonProfit
10125,AL,35565,WINSTON,NonProfit
140053,IL,62769,SANGAMON,NonProfit
500151,WA,98332,PIERCE,NonProfit
440153,TN,37821,COCKE,NonProfit
60013,CO,81301,LA PLATA,NonProfit
360179,OH,45242,HAMILTON,NonProfit
250048,MS,39216,HINDS,NonProfit
381323,OR,97355,LINN,NonProfit
400021,PR,683,SAN GERMAN,NonProfit
210008,MD,21202,BALTIMORE CITY,NonProfit
50104,CA,90262,LOS ANGELES,NonProfit
170200,KS,67235,SEDGWICK,NonProfit
21306,AK,99615,KODIAK ISLAND BOROUGH,NonProfit
230165,MI,48236,WAYNE,NonProfit
140032,IL,62401,EFFINGHAM,NonProfit
330395,NY,11691,QUEENS,NonProfit
360262,OH,43623,LUCAS,NonProfit
140007,IL,60435,WILL,NonProfit
150057,IN,46158,MORGAN,NonProfit
170104,KS,66204,JOHNSON,NonProfit
160040,IA,50613,BLACK HAWK,NonProfit
230077,MI,48601,SAGINAW,NonProfit
440148,TN,37166,DE KALB,NonProfit
70002,CT,6105,HARTFORD,NonProfit
501337,WA,99301,FRANKLIN,NonProfit
261316,MO,65605,LAWRENCE,NonProfit
140258,IL,60007,COOK,NonProfit
280125,NE,68701,MADISON,NonProfit
521358,WI,54235,DOOR,NonProfit
100134,FL,32063,BAKER,NonProfit
40010,AR,72758,BENTON,NonProfit
230197,MI,48439,GENESEE,NonProfit
50235,CA,91505,LOS ANGELES,NonProfit
144031,IL,60169,COOK,NonProfit
230031,MI,48060,ST. CLAIR,NonProfit
450237,TX,78229,BEXAR,NonProfit
351303,ND,58540,MCLEAN,NonProfit
141325,IL,61443,HENRY,NonProfit
510050,WV,26003,OHIO,NonProfit
500041,WA,98632,COWLITZ,NonProfit
451322,TX,77868,GRIMES,NonProfit
351304,ND,58575,MCLEAN,NonProfit
200001,ME,4401,PENOBSCOT,NonProfit
360161,OH,44481,TRUMBULL,NonProfit
51317,CA,95422,LAKE,NonProfit
174016,KS,67114,HARVEY,NonProfit
521323,WI,54456,CLARK,NonProfit
400044,PR,733,PONCE,NonProfit
450135,TX,76104,TARRANT,NonProfit
161300,IA,51245,OBRIEN,NonProfit
394020,PA,17064,LEBANON,NonProfit
200008,ME,4101,CUMBERLAND,NonProfit
60012,CO,81004,PUEBLO,NonProfit
500021,WA,98499,PIERCE,NonProfit
170016,KS,66606,SHAWNEE,NonProfit
240059,MN,55033,DAKOTA,NonProfit
70028,CT,6606,FAIRFIELD,NonProfit
261317,MO,65625,BARRY,NonProfit
500014,WA,98201,SNOHOMISH,NonProfit
130007,ID,83706,ADA,NonProfit
100109,FL,33871,HIGHLANDS,NonProfit
151307,IN,47993,WARREN,NonProfit
381316,OR,97439,LANE,NonProfit
100072,FL,32763,VOLUSIA,NonProfit
521339,WI,54452,LINCOLN,NonProfit
150076,IN,46563,MARSHALL,NonProfit
60015,CO,80228,JEFFERSON,NonProfit
501335,WA,98022,KING,NonProfit
351312,ND,58267,GRAND FORKS,NonProfit
140233,IL,61108,WINNEBAGO,NonProfit
100073,FL,33308,BROWARD,NonProfit
40137,AR,72120,PULASKI,NonProfit
380052,OR,97914,MALHEUR,NonProfit
500025,WA,98122,KING,NonProfit
50093,CA,93710,FRESNO,NonProfit
250044,MS,38829,PRENTISS,NonProfit
521311,WI,54768,CHIPPEWA,NonProfit
490033,VA,22630,WARREN,NonProfit
230099,MI,48162,MONROE,NonProfit
360133,OH,45405,MONTGOMERY,NonProfit
34026,AZ,85018,MARICOPA,NonProfit
230132,MI,48503,GENESEE,NonProfit
50076,CA,94115,SAN FRANCISCO,NonProfit
50008,CA,94117,SAN FRANCISCO,NonProfit
40001,AR,72761,BENTON,NonProfit
104080,FL,34997,MARTIN,NonProfit
360010,OH,44622,TUSCARAWAS,NonProfit
110002,GA,30286,UPSON,NonProfit
240076,MN,55313,WRIGHT,NonProfit
50541,CA,94063,SAN MATEO,NonProfit
161334,IA,50548,HUMBOLDT,NonProfit
50118,CA,95336,SAN JOAQUIN,NonProfit
390142,PA,19141,PHILADELPHIA,NonProfit
260068,MO,65201,BOONE,NonProfit
50040,CA,91342,LOS ANGELES,NonProfit
260024,MO,65483,TEXAS,NonProfit
50424,CA,92037,SAN DIEGO,NonProfit
50760,CA,94531,CONTRA COSTA,NonProfit
141320,IL,61944,EDGAR,NonProfit
380009,OR,97239,MULTNOMAH,NonProfit
171328,KS,67467,OTTAWA,NonProfit
241333,MN,56081,WATONWAN,NonProfit
390065,PA,17325,ADAMS,NonProfit
51316,CA,96097,SISKIYOU,NonProfit
90011,DC,20010,THE DISTRICT,NonProfit
90005,DC,20016,THE DISTRICT,NonProfit
181302,KY,40330,MERCER,NonProfit
440081,TN,37862,SEVIER,NonProfit
250057,MS,39601,LINCOLN,NonProfit
454093,TX,79408,LUBBOCK,NonProfit
500051,WA,98004,KING,NonProfit
50351,CA,90509,LOS ANGELES,NonProfit
151311,IN,46072,TIPTON,NonProfit
390019,PA,18071,CARBON,NonProfit
420051,SC,29506,FLORENCE,NonProfit
50723,CA,91706,LOS ANGELES,NonProfit
500030,WA,98225,WHATCOM,NonProfit
50189,CA,93930,MONTEREY,NonProfit
171307,KS,67730,RAWLINS,NonProfit
330403,NY,14620,MONROE,NonProfit
250085,MS,39429,MARION,NonProfit
20006,AK,99645,MATANUSKA-SUSITNA,NonProfit
220052,MA,2302,PLYMOUTH,NonProfit
500052,WA,98112,KING,NonProfit
230180,MI,48617,CLARE,NonProfit
220008,MA,2703,BRISTOL,NonProfit
341327,NC,28461,BRUNSWICK,NonProfit
131301,ID,83805,BOUNDARY,NonProfit
391313,PA,16915,POTTER,NonProfit
451367,TX,75686,CAMP,NonProfit
390114,PA,15213,ALLEGHENY,NonProfit
64003,CO,80236,DENVER,NonProfit
140240,IL,60160,COOK,NonProfit
450023,TX,77901,VICTORIA,NonProfit
60044,CO,80701,MORGAN,NonProfit
30016,AZ,85122,PINAL,NonProfit
370171,OK,74464,CHEROKEE,NonProfit
70035,CT,6050,HARTFORD,NonProfit
230208,MI,48811,MONTCALM,NonProfit
360107,OH,44811,SANDUSKY,NonProfit
454094,TX,75251,DALLAS,NonProfit
41320,AR,71822,LITTLE RIVER,NonProfit
100055,FL,34689,PINELLAS,NonProfit
20024,AK,99669,KENAI PENINSULA,NonProfit
320001,NM,87106,BERNALILLO,NonProfit
511320,WV,25271,JACKSON,NonProfit
50590,CA,95823,SACRAMENTO,NonProfit
140049,IL,60302,COOK,NonProfit
360082,OH,44119,CUYAHOGA,NonProfit
450804,TX,77030,HARRIS,NonProfit
50516,CA,95608,SACRAMENTO,NonProfit
140179,IL,60805,COOK,NonProfit
53309,CA,90806,LOS ANGELES,NonProfit
30002,AZ,85006,MARICOPA,NonProfit
50099,CA,91786,SAN BERNARDINO,NonProfit
34031,AZ,85027,MARICOPA,NonProfit
50075,CA,94611,ALAMEDA,NonProfit
421302,SC,29180,FAIRFIELD,NonProfit
161348,IA,50213,CLARKE,NonProfit
150042,IN,47591,KNOX,NonProfit
450890,TX,75093,COLLIN,NonProfit
30043,AZ,85635,COCHISE,NonProfit
670059,TX,77384,MONTGOMERY,NonProfit
190183,LA,70363,TERREBONNE,NonProfit
14017,AL,36526,BALDWIN,NonProfit
110036,GA,31404,CHATHAM,NonProfit
390056,PA,16652,HUNTINGDON,NonProfit
140228,IL,61104,WINNEBAGO,NonProfit
470003,VT,5401,CHITTENDEN,NonProfit
110034,GA,30912,RICHMOND,NonProfit
161315,IA,52591,KEOKUK,NonProfit
51327,CA,96020,PLUMAS,NonProfit
50696,CA,90033,LOS ANGELES,NonProfit
50765,CA,92555,RIVERSIDE,NonProfit
310064,NJ,8401,ATLANTIC,NonProfit
60096,CO,81657,EAGLE,NonProfit
50510,CA,94903,MARIN,NonProfit
390025,PA,19122,PHILADELPHIA,NonProfit
360014,OH,45701,ATHENS,NonProfit
503301,WA,98415,PIERCE,NonProfit
330264,NY,12550,ORANGE,NonProfit
50686,CA,92505,RIVERSIDE,NonProfit
210060,MD,20744,PRINCE GEORGES,NonProfit
260078,MO,65775,HOWELL,NonProfit
420108,SC,29379,UNION,NonProfit
330104,NY,10960,ROCKLAND,NonProfit
454069,TX,78705,TRAVIS,NonProfit
53303,CA,92123,SAN DIEGO,NonProfit
521302,WI,54758,TREMPEALEAU,NonProfit
370004,OK,74355,OTTAWA,NonProfit
360147,OH,45750,WASHINGTON,NonProfit
440144,TN,37388,COFFEE,NonProfit
360008,OH,45662,SCIOTO,NonProfit
50138,CA,90027,LOS ANGELES,NonProfit
360090,OH,43537,LUCAS,NonProfit
180017,KY,42141,BARREN,NonProfit
210049,MD,21014,HARFORD,NonProfit
50180,CA,94598,CONTRA COSTA,NonProfit
220090,MA,1757,WORCESTER,NonProfit
180070,KY,42754,GRAYSON,NonProfit
530014,WY,82001,LARAMIE,NonProfit
490019,VA,22701,CULPEPER,NonProfit
160124,IA,51360,DICKINSON,NonProfit
161369,IA,51442,CRAWFORD,NonProfit
250006,MS,38652,UNION,NonProfit
260186,MO,65065,CAMDEN,NonProfit
331317,NY,13367,LEWIS,NonProfit
250020,MS,39744,WEBSTER,NonProfit
280032,NE,68901,ADAMS,NonProfit
70031,CT,6418,NEW HAVEN,NonProfit
180139,KY,41339,BREATHITT,NonProfit
450162,TX,79412,LUBBOCK,NonProfit
390180,PA,19013,DELAWARE,NonProfit
113300,GA,30322,DE KALB,NonProfit
261302,MO,63645,MADISON,NonProfit
171367,KS,67752,GOVE,NonProfit
260113,MO,63801,SCOTT,NonProfit
520194,WI,53212,MILWAUKEE,NonProfit
100292,FL,32550,WALTON,NonProfit
241355,MN,55336,MC LEOD,NonProfit
111316,GA,31830,MERIWETHER,NonProfit
360040,OH,43050,KNOX,NonProfit
490117,VA,24651,TAZEWELL,NonProfit
110028,GA,30904,RICHMOND,NonProfit
400004,PR,936,SAN JUAN,NonProfit
250009,MS,38834,ALCORN,NonProfit
140280,IL,61201,ROCK ISLAND,NonProfit
360059,OH,44109,CUYAHOGA,NonProfit
110064,GA,31901,MUSCOGEE,NonProfit
260032,MO,63110,ST. LOUIS CITY,NonProfit
520097,WI,54303,BROWN,NonProfit
390045,PA,17701,LYCOMING,NonProfit
280111,NE,68601,PLATTE,NonProfit
360121,OH,43506,WILLIAMS,NonProfit
300011,NH,3060,HILLSBOROUGH,NonProfit
50568,CA,93637,MADERA,NonProfit
10102,AL,36726,WILCOX,NonProfit
390052,PA,16830,CLEARFIELD,NonProfit
140048,IL,60617,COOK,NonProfit
390016,PA,16105,LAWRENCE,NonProfit
50336,CA,95240,SAN JOAQUIN,NonProfit
50674,CA,95823,SACRAMENTO,NonProfit
361308,OH,44030,ASHTABULA,NonProfit
240069,MN,55060,STEELE,NonProfit
670049,TX,75231,DALLAS,NonProfit
50025,CA,92103,SAN DIEGO,NonProfit
400015,PR,936,SAN JUAN,NonProfit
140010,IL,60201,COOK,NonProfit
340148,NC,27103,FORSYTH,NonProfit
340041,NC,28645,CALDWELL,NonProfit
231327,MI,48813,EATON,NonProfit
231310,MI,48755,HURON,NonProfit
14014,AL,36693,MOBILE,NonProfit
523300,WI,53226,MILWAUKEE,NonProfit
240040,MN,55746,ST. LOUIS,NonProfit
50411,CA,90710,LOS ANGELES,NonProfit
453312,TX,77030,HARRIS,NonProfit
361316,OH,44820,CRAWFORD,NonProfit
161335,IA,50644,BUCHANAN,NonProfit
500019,WA,98531,LEWIS,NonProfit
490044,VA,23439,SUFFOLK CITY,NonProfit
271332,MT,59330,DAWSON,NonProfit
230108,MI,49930,HOUGHTON,NonProfit
190025,LA,70554,EVANGELINE,NonProfit
400079,PR,603,AGUADILLA,NonProfit
60126,CO,80528,LARIMER,NonProfit
393309,PA,19104,PHILADELPHIA,NonProfit
520107,WI,54221,MANITOWOC,NonProfit
180079,KY,41031,HARRISON,NonProfit
440175,TN,38464,LAWRENCE,NonProfit
111327,GA,31510,BACON,NonProfit
140116,IL,60050,MC HENRY,NonProfit
310060,NJ,8865,WARREN,NonProfit
110024,GA,31412,CHATHAM,NonProfit
393302,PA,15224,ALLEGHENY,NonProfit
524017,WI,54403,MARATHON,NonProfit
50126,CA,91406,LOS ANGELES,NonProfit
161342,IA,52531,MONROE,NonProfit
50150,CA,95945,NEVADA,NonProfit
450104,TX,78155,GUADALUPE,NonProfit
140084,IL,60085,LAKE,NonProfit
103303,FL,33612,HILLSBOROUGH,NonProfit
180105,KY,42167,MONROE,NonProfit
10045,AL,35555,FAYETTE,NonProfit
50295,CA,93301,KERN,NonProfit
281338,NE,68873,HOWARD,NonProfit
241329,MN,56479,TODD,NonProfit
110042,GA,30141,PAULDING,NonProfit
161341,IA,50049,LUCAS,NonProfit
50122,CA,95203,SAN JOAQUIN,NonProfit
113301,GA,30342,FULTON,NonProfit
50690,CA,95403,SONOMA,NonProfit
490007,VA,23507,NORFOLK CITY,NonProfit
310076,NJ,7039,ESSEX,NonProfit
450871,TX,78746,TRAVIS,NonProfit
330079,NY,12983,FRANKLIN,NonProfit
50139,CA,90242,LOS ANGELES,NonProfit
360211,OH,43952,JEFFERSON,NonProfit
380001,OR,97058,WASCO,NonProfit
50334,CA,93901,MONTEREY,NonProfit
161347,IA,50616,FLOYD,NonProfit
310052,NJ,8724,OCEAN,NonProfit
390067,PA,17105,DAUPHIN,NonProfit
110079,GA,30303,FULTON,NonProfit
110008,GA,30115,CHEROKEE,NonProfit
150009,IN,47130,CLARK,NonProfit
490057,VA,23454,VIRGINIA BEACH CITY,NonProfit
200050,ME,4605,HANCOCK,NonProfit
151305,IN,46996,PULASKI,NonProfit
50131,CA,94945,MARIN,NonProfit
180050,KY,40831,HARLAN,NonProfit
30122,AZ,85234,MARICOPA,NonProfit
50071,CA,95051,SANTA CLARA,NonProfit
161344,IA,52353,WASHINGTON,NonProfit
100296,FL,33146,MIAMI-DADE,NonProfit
230303,MI,49660,MANISTEE,NonProfit
230121,MI,48867,SHIAWASSEE,NonProfit
431314,SD,57551,BENNETT,NonProfit
390044,PA,19611,BERKS,NonProfit
180053,KY,41041,FLEMING,NonProfit
440010,TN,38485,WAYNE,NonProfit
231328,MI,49010,ALLEGAN,NonProfit
100264,FL,34613,HERNANDO,NonProfit
103300,FL,33701,PINELLAS,NonProfit
100226,FL,32073,CLAY,NonProfit
460042,UT,84010,DAVIS,NonProfit
60112,CO,80124,DOUGLAS,NonProfit
30036,AZ,85224,MARICOPA,NonProfit
390225,PA,17522,LANCASTER,NonProfit
363302,OH,44106,CUYAHOGA,NonProfit
154054,IN,47802,VIGO,NonProfit
230092,MI,49201,JACKSON,NonProfit
140210,IL,62946,SALINE,NonProfit
151322,IN,47586,PERRY,NonProfit
50485,CA,90806,LOS ANGELES,NonProfit
511314,WV,24924,POCAHONTAS,NonProfit
370049,OK,74076,PAYNE,NonProfit
100266,FL,32561,SANTA ROSA,NonProfit
330261,NY,10591,WESTCHESTER,NonProfit
90003,DC,20060,THE DISTRICT,NonProfit
10138,AL,36925,SUMTER,NonProfit
161323,IA,50461,MITCHELL,NonProfit
210056,MD,21239,BALTIMORE CITY,NonProfit
360072,OH,43130,FAIRFIELD,NonProfit
230069,MI,48843,LIVINGSTON,NonProfit
70024,CT,6360,NEW LONDON,NonProfit
241323,MN,56062,WATONWAN,NonProfit
40017,AR,72601,BOONE,NonProfit
161317,IA,52301,IOWA,NonProfit
110225,GA,30143,PICKENS,NonProfit
321304,NM,88415,UNION,NonProfit
161352,IA,51632,PAGE,NonProfit
241354,MN,56482,WADENA,NonProfit
180002,KY,41858,LETCHER,NonProfit
200039,ME,4330,KENNEBEC,NonProfit
441301,TN,37074,TROUSDALE,NonProfit
50625,CA,90048,LOS ANGELES,NonProfit
180103,KY,40503,FAYETTE,NonProfit
51319,CA,96067,SISKIYOU,NonProfit
50127,CA,95695,YOLO,NonProfit
170185,KS,66213,JOHNSON,NonProfit
121304,HI,96731,HONOLULU,NonProfit
171304,KS,67831,CLARK,NonProfit
50072,CA,94596,CONTRA COSTA,NonProfit
314027,NJ,7922,UNION,NonProfit
380051,OR,97301,MARION,NonProfit
440110,TN,37772,LOUDON,NonProfit
50073,CA,94589,SOLANO,NonProfit
50512,CA,94538,ALAMEDA,NonProfit
330144,NY,14810,STEUBEN,NonProfit
230040,MI,49058,BARRY,NonProfit
450885,TX,75035,COLLIN,NonProfit
521353,WI,54829,BARRON,NonProfit
460051,UT,84088,SALT LAKE,NonProfit
431321,SD,57785,MEADE,NonProfit
370034,OK,74501,PITTSBURG,NonProfit
230105,MI,49770,EMMET,NonProfit
251316,MS,39355,CLARKE,NonProfit
30061,AZ,85351,MARICOPA,NonProfit
380002,OR,97527,JOSEPHINE,NonProfit
230275,MI,48603,SAGINAW,NonProfit
230230,MI,48912,INGHAM,NonProfit
340068,NC,28472,COLUMBUS,NonProfit
140292,IL,60139,DU PAGE,NonProfit
230117,MI,49048,KALAMAZOO,NonProfit
50599,CA,95817,SACRAMENTO,NonProfit
360150,OH,44223,SUMMIT,NonProfit
370180,OK,74820,PONTOTOC,NonProfit
161303,IA,50638,GRUNDY,NonProfit
180027,KY,42071,CALLOWAY,NonProfit
523302,WI,54956,WINNEBAGO,NonProfit
520208,WI,53546,ROCK,NonProfit
30073,AZ,86045,COCONINO,NonProfit
50367,CA,94533,SOLANO,NonProfit
330084,NY,12953,FRANKLIN,NonProfit
161374,IA,51537,SHELBY,NonProfit
30134,AZ,85120,PINAL,NonProfit
390041,PA,15401,FAYETTE,NonProfit
140068,IL,60628,COOK,NonProfit
470024,VT,5478,FRANKLIN,NonProfit
231318,MI,49935,IRON,NonProfit
390145,PA,15601,WESTMORELAND,NonProfit
240141,MN,55371,MILLE LACS,NonProfit
220001,MA,1453,WORCESTER,NonProfit
431315,SD,57380,CHARLES MIX,NonProfit
360009,OH,45804,ALLEN,NonProfit
390093,PA,16214,CLARION,NonProfit
360080,OH,43935,BELMONT,NonProfit
101309,FL,33440,HENDRY,NonProfit
140130,IL,60045,LAKE,NonProfit
140135,IL,62526,MACON,NonProfit
263301,MO,63110,ST. LOUIS CITY,NonProfit
440065,TN,37172,ROBERTSON,NonProfit
51332,CA,95249,CALAVERAS,NonProfit
370029,OK,73601,CUSTER,NonProfit
61306,CO,80821,LINCOLN,NonProfit
320030,NM,88210,EDDY,NonProfit
50488,CA,94546,ALAMEDA,NonProfit
231322,MI,49720,CHARLEVOIX,NonProfit
390032,PA,15065,ALLEGHENY,NonProfit
171303,KS,67839,LANE,NonProfit
360095,OH,45840,HANCOCK,NonProfit
440218,TN,37203,DAVIDSON,NonProfit
44006,AR,72923,SEBASTIAN,NonProfit
171340,KS,67449,DICKINSON,NonProfit
30011,AZ,85711,PIMA,NonProfit
53304,CA,92868,ORANGE,NonProfit
170009,KS,66048,LEAVENWORTH,NonProfit
420053,SC,29108,NEWBERRY,NonProfit
50454,CA,94143,SAN FRANCISCO,NonProfit
110074,GA,30606,CLARKE,NonProfit
330115,NY,13421,MADISON,NonProfit
450431,TX,78705,TRAVIS,NonProfit
390223,PA,19104,PHILADELPHIA,NonProfit
390091,PA,16346,VENANGO,NonProfit
251336,MS,39090,ATTALA,NonProfit
490119,VA,23456,VIRGINIA BEACH CITY,NonProfit
50604,CA,95119,SANTA CLARA,NonProfit
380091,OR,97015,CLACKAMAS,NonProfit
230222,MI,48670,MIDLAND,NonProfit
161322,IA,50220,DALLAS,NonProfit
360084,OH,44710,STARK,NonProfit
340143,NC,28602,CATAWBA,NonProfit
41322,AR,72576,FULTON,NonProfit
360131,OH,44601,STARK,NonProfit
331314,NY,14527,YATES,NonProfit
230035,MI,48838,MONTCALM,NonProfit
171337,KS,66547,POTTAWATOMIE,NonProfit
340158,NC,28462,BRUNSWICK,NonProfit
50136,CA,94954,SONOMA,NonProfit
390057,PA,18960,BUCKS,NonProfit
50291,CA,95403,SONOMA,NonProfit
511316,WV,26847,GRANT,NonProfit
170013,KS,67601,ELLIS,NonProfit
230097,MI,49684,GRAND TRAVERSE,NonProfit
500001,WA,98133,KING,NonProfit
490118,VA,23229,HENRICO,NonProfit
360156,OH,43420,SANDUSKY,NonProfit
110143,GA,30106,COBB,NonProfit
310051,NJ,7902,UNION,NonProfit
260191,MO,63376,ST. CHARLES,NonProfit
390086,PA,15801,CLEARFIELD,NonProfit
390012,PA,19446,MONTGOMERY,NonProfit
454131,TX,77407,FORT BEND,NonProfit
360259,OH,43616,LUCAS,NonProfit
50438,CA,91109,LOS ANGELES,NonProfit
210024,MD,21218,BALTIMORE CITY,NonProfit
210038,MD,21201,BALTIMORE CITY,NonProfit
210043,MD,21061,ANNE ARUNDEL,NonProfit
360144,OH,44122,CUYAHOGA,NonProfit
161360,IA,51041,SIOUX,NonProfit
390220,PA,19390,CHESTER,NonProfit
50357,CA,93111,SANTA BARBARA,NonProfit
451390,TX,78834,DIMMIT,NonProfit
360035,OH,43222,FRANKLIN,NonProfit
50149,CA,90015,LOS ANGELES,NonProfit
390013,PA,17837,UNION,NonProfit
460019,UT,84066,DUCHESNE,NonProfit
220046,MA,1201,BERKSHIRE,NonProfit
490101,VA,22033,FAIRFAX,NonProfit
390217,PA,15666,WESTMORELAND,NonProfit
170182,KS,66209,JOHNSON,NonProfit
400001,PR,907,SAN JUAN,NonProfit
490046,VA,23502,NORFOLK CITY,NonProfit
210039,MD,20678,CALVERT,NonProfit
260004,MO,65233,COOPER,NonProfit
330065,NY,14302,NIAGARA,NonProfit
220101,MA,2462,MIDDLESEX,NonProfit
360002,OH,44805,ASHLAND,NonProfit
361330,OH,43138,HOCKING,NonProfit
340171,NC,28106,MECKLENBURG,NonProfit
370220,OK,73109,OKLAHOMA,NonProfit
390066,PA,17042,LEBANON,NonProfit
390100,PA,17604,LANCASTER,NonProfit
31318,AZ,85541,GILA,NonProfit
220030,MA,1069,HAMPDEN,NonProfit
154047,IN,46563,MARSHALL,NonProfit
281363,NE,69001,RED WILLOW,NonProfit
140083,IL,60644,COOK,NonProfit
490090,VA,23901,PRINCE EDWARD,NonProfit
141346,IL,62471,FAYETTE,NonProfit
450051,TX,75203,DALLAS,NonProfit
230217,MI,49068,CALHOUN,NonProfit
363306,OH,45404,MONTGOMERY,NonProfit
70018,CT,6830,FAIRFIELD,NonProfit
143301,IL,60649,COOK,NonProfit
51323,CA,92363,SAN BERNARDINO,NonProfit
371342,OK,74745,MCCURTAIN,NonProfit
431331,SD,57022,MINNEHAHA,NonProfit
474001,VT,5301,WINDHAM,NonProfit
21309,AK,99576,DILLINGHAM,NonProfit
270003,MT,59601,LEWIS AND CLARK,NonProfit
400117,PR,614,ARECIBO,NonProfit
670103,TX,76177,TARRANT,NonProfit
180049,KY,40475,MADISON,NonProfit
453311,TX,77550,GALVESTON,NonProfit
431323,SD,57730,CUSTER,NonProfit
344029,NC,28339,HARNETT,NonProfit
471302,VT,5089,WINDSOR,NonProfit
330055,NY,11355,QUEENS,NonProfit
210064,MD,21209,BALTIMORE CITY,NonProfit
50327,CA,92354,SAN BERNARDINO,NonProfit
210023,MD,21401,ANNE ARUNDEL,NonProfit
220019,MA,1550,WORCESTER,NonProfit
60107,CO,80206,DENVER,NonProfit
170017,KS,67042,BUTLER,NonProfit
50609,CA,92806,ORANGE,NonProfit
510055,WV,25701,CABELL,NonProfit
510022,WV,25301,KANAWHA,NonProfit
450358,TX,77030,HARRIS,NonProfit
100048,FL,32565,SANTA ROSA,NonProfit
431301,SD,57438,FAULK,NonProfit
420072,SC,29944,HAMPTON,NonProfit
521318,WI,54020,POLK,NonProfit
241357,MN,56542,POLK,NonProfit
220015,MA,1060,HAMPSHIRE,NonProfit
260180,MO,63136,ST. LOUIS,NonProfit
500150,WA,98686,CLARK,NonProfit
281362,NE,68949,PHELPS,NonProfit
391300,PA,17740,LYCOMING,NonProfit
180093,KY,42431,HOPKINS,NonProfit
330409,NY,12180,RENSSELAER,NonProfit
61326,CO,80863,TELLER,NonProfit
453300,TX,76104,TARRANT,NonProfit
151312,IN,47960,WHITE,NonProfit
100084,FL,34748,LAKE,NonProfit
110076,GA,30033,DE KALB,NonProfit
191301,LA,71241,UNION,NonProfit
330047,NY,12010,MONTGOMERY,NonProfit
461304,UT,84648,JUAB,NonProfit
170006,KS,66762,CRAWFORD,NonProfit
281354,NE,68333,SALINE,NonProfit
274004,MT,59601,LEWIS AND CLARK,NonProfit
50515,CA,92120,SAN DIEGO,NonProfit
371305,OK,74048,NOWATA,NonProfit
140304,IL,60440,WILL,NonProfit
400022,PR,717,PONCE,NonProfit
150058,IN,46601,ST. JOSEPH,NonProfit
241320,MN,56716,POLK,NonProfit
210062,MD,20735,PRINCE GEORGES,NonProfit
521352,WI,53533,IOWA,NonProfit
443303,TN,37916,KNOX,NonProfit
381302,OR,97367,LINCOLN,NonProfit
110184,GA,30134,DOUGLAS,NonProfit
340053,NC,28233,MECKLENBURG,NonProfit
100040,FL,32204,DUVAL,NonProfit
350006,ND,58701,WARD,NonProfit
444005,TN,38237,WEAKLEY,NonProfit
490037,VA,23417,ACCOMACK,NonProfit
340183,NC,28078,MECKLENBURG,NonProfit
330003,NY,12204,ALBANY,NonProfit
60027,CO,80303,BOULDER,NonProfit
53300,CA,93636,MADERA,NonProfit
240002,MN,55805,ST. LOUIS,NonProfit
331320,NY,12043,SCHOHARIE,NonProfit
260163,MO,63640,ST. FRANCOIS,NonProfit
154050,IN,46706,DE KALB,NonProfit
230080,MI,48858,ISABELLA,NonProfit
461302,UT,84532,GRAND,NonProfit
390139,PA,19010,MONTGOMERY,NonProfit
31312,AZ,85603,COCHISE,NonProfit
370093,OK,73104,OKLAHOMA,NonProfit
351329,ND,58045,TRAILL,NonProfit
360006,OH,43214,FRANKLIN,NonProfit
101304,FL,32424,CALHOUN,NonProfit
161319,IA,52043,CLAYTON,NonProfit
450709,TX,77058,HARRIS,NonProfit
160110,IA,50703,BLACK HAWK,NonProfit
520038,WI,53027,WASHINGTON,NonProfit
390168,PA,16001,BUTLER,NonProfit
190202,LA,70816,E. BATON ROUGE,NonProfit
330014,NY,11418,QUEENS,NonProfit
151315,IN,46703,STEUBEN,NonProfit
360078,OH,44266,PORTAGE,NonProfit
51307,CA,90704,LOS ANGELES,NonProfit
74008,CT,6250,TOLLAND,NonProfit
50153,CA,95128,SANTA CLARA,NonProfit
361322,OH,45817,ALLEN,NonProfit
170049,KS,66061,JOHNSON,NonProfit
210002,MD,21201,BALTIMORE CITY,NonProfit
320090,NM,87507,SANTA FE,NonProfit
251302,MS,39730,MONROE,NonProfit
100321,FL,32068,CLAY,NonProfit
240044,MN,55987,WINONA,NonProfit
391309,PA,18847,SUSQUEHANNA,NonProfit
21314,AK,99835,SITKA BOROUGH,NonProfit
281303,NE,68746,BOYD,NonProfit
161346,IA,51250,SIOUX,NonProfit
41323,AR,71635,ASHLEY,NonProfit
190201,LA,70605,CALCASIEU,NonProfit
240214,MN,55369,HENNEPIN,NonProfit
110003,GA,31501,WARE,NonProfit
464011,UT,84088,SALT LAKE,NonProfit
441313,TN,37869,HANCOCK,NonProfit
50677,CA,91367,LOS ANGELES,NonProfit
41308,AR,71654,DESHA,NonProfit
230269,MI,48085,OAKLAND,NonProfit
360096,OH,43920,COLUMBIANA,NonProfit
371317,OK,73044,LOGAN,NonProfit
214003,MD,21742,WASHINGTON,NonProfit
494023,VA,22044,FAIRFAX,NonProfit
170086,KS,66604,SHAWNEE,NonProfit
140155,IL,60901,KANKAKEE,NonProfit
490004,VA,22801,HARRISONBURG CITY,NonProfit
260214,MO,64012,CASS,NonProfit
330239,NY,14701,CHAUTAUQUA,NonProfit
140008,IL,60160,COOK,NonProfit
330203,NY,13210,ONONDAGA,NonProfit
161332,IA,51455,CARROLL,NonProfit
70017,CT,6450,NEW HAVEN,NonProfit
150008,IN,46312,LAKE,NonProfit
420037,SC,29681,GREENVILLE,NonProfit
500011,WA,98166,KING,NonProfit
520049,WI,54305,BROWN,NonProfit
140166,IL,62521,MACON,NonProfit
190088,LA,71075,WEBSTER,NonProfit
150034,IN,46342,LAKE,NonProfit
330331,NY,11803,NASSAU,NonProfit
100140,FL,32034,NASSAU,NonProfit
50084,CA,95204,SAN JOAQUIN,NonProfit
330250,NY,12901,CLINTON,NonProfit
260052,MO,63090,FRANKLIN,NonProfit
50226,CA,92801,ORANGE,NonProfit
450395,TX,77351,POLK,NonProfit
390112,PA,15963,SOMERSET,NonProfit
430015,SD,57501,HUGHES,NonProfit
524018,WI,53066,WAUKESHA,NonProfit
141344,IL,62439,LAWRENCE,NonProfit
380021,OR,97123,WASHINGTON,NonProfit
363305,OH,43205,FRANKLIN,NonProfit
60009,CO,80033,JEFFERSON,NonProfit
10016,AL,35007,SHELBY,NonProfit
140160,IL,61032,STEPHENSON,NonProfit
101308,FL,32428,WASHINGTON,NonProfit
260064,MO,65265,AUDRAIN,NonProfit
30092,AZ,85027,MARICOPA,NonProfit
420107,SC,29520,CHESTERFIELD,NonProfit
450610,TX,77024,HARRIS,NonProfit
364050,OH,45420,MONTGOMERY,NonProfit
141309,IL,61530,WOODFORD,NonProfit
210016,MD,20912,MONTGOMERY,NonProfit
20012,AK,99701,FAIRBANKS NORTH STAR,NonProfit
271336,MT,59937,FLATHEAD,NonProfit
320002,NM,87505,SANTA FE,NonProfit
290005,NV,89030,CLARK,NonProfit
234040,MI,48213,WAYNE,NonProfit
500050,WA,98668,CLARK,NonProfit
390090,PA,15224,ALLEGHENY,NonProfit
140137,IL,62246,BOND,NonProfit
410008,RI,2879,WASHINGTON,NonProfit
180020,KY,40965,BELL,NonProfit
190098,LA,71103,CADDO,NonProfit
271320,MT,59923,LINCOLN,NonProfit
151310,IN,46992,WABASH,NonProfit
391303,PA,17233,FULTON,NonProfit
340010,NC,27534,WAYNE,NonProfit
364044,OH,45040,WARREN,NonProfit
320005,NM,87401,SAN JUAN,NonProfit
141331,IL,62832,PERRY,NonProfit
280081,NE,68122,DOUGLAS,NonProfit
50239,CA,91206,LOS ANGELES,NonProfit
431305,SD,57313,DOUGLAS,NonProfit
520087,WI,54601,LA CROSSE,NonProfit
450272,TX,78666,HAYS,NonProfit
491307,VA,22835,PAGE,NonProfit
390198,PA,16509,ERIE,NonProfit
240022,MN,56187,NOBLES,NonProfit
330211,NY,13669,ST. LAWRENCE,NonProfit
40071,AR,71603,JEFFERSON,NonProfit
521332,WI,54801,WASHBURN,NonProfit
450771,TX,75093,COLLIN,NonProfit
53310,CA,90020,LOS ANGELES,NonProfit
491300,VA,24445,BATH,NonProfit
490066,VA,23188,JAMES CITY,NonProfit
100127,FL,33756,PINELLAS,NonProfit
50290,CA,90404,LOS ANGELES,NonProfit
331318,NY,13619,JEFFERSON,NonProfit
240210,MN,55109,RAMSEY,NonProfit
390107,PA,15237,ALLEGHENY,NonProfit
330141,NY,11772,SUFFOLK,NonProfit
131310,ID,83338,JEROME,NonProfit
430097,SD,57402,BROWN,NonProfit
210035,MD,20646,CHARLES,NonProfit
140167,IL,60970,IROQUOIS,NonProfit
290042,NV,89119,CLARK,NonProfit
54074,CA,94590,SOLANO,NonProfit
60003,CO,80501,BOULDER,NonProfit
271307,MT,59422,TETON,NonProfit
50441,CA,94305,SANTA CLARA,NonProfit
361318,OH,44830,SENECA,NonProfit
200024,ME,4240,ANDROSCOGGIN,NonProfit
310017,NJ,7444,MORRIS,NonProfit
260081,MO,63026,JEFFERSON,NonProfit
451371,TX,78648,CALDWELL,NonProfit
310086,NJ,8084,CAMDEN,NonProfit
390256,PA,17033,DAUPHIN,NonProfit
40014,AR,72143,WHITE,NonProfit
520102,WI,53121,WALWORTH,NonProfit
150167,IN,46845,ALLEN,NonProfit
50102,CA,92503,RIVERSIDE,NonProfit
431337,SD,57362,HAND,NonProfit
30010,AZ,85745,PIMA,NonProfit
50567,CA,92691,ORANGE,NonProfit
320089,NM,87144,SANDOVAL,NonProfit
310044,NJ,8534,MERCER,NonProfit
450347,TX,77340,WALKER,NonProfit
53306,CA,92691,ORANGE,NonProfit
100151,FL,32224,DUVAL,NonProfit
500024,WA,98506,THURSTON,NonProfit
130003,ID,83501,NEZ PERCE,NonProfit
260094,MO,65615,TANEY,NonProfit
330024,NY,10029,NEW YORK,NonProfit
281321,NE,68045,BURT,NonProfit
460058,UT,84065,SALT LAKE,NonProfit
670023,TX,76063,TARRANT,NonProfit
240115,MN,55433,ANOKA,NonProfit
180088,KY,40202,JEFFERSON,NonProfit
224007,MA,2478,MIDDLESEX,NonProfit
450124,TX,78701,TRAVIS,NonProfit
50280,CA,96001,SHASTA,NonProfit
90004,DC,20007,THE DISTRICT,NonProfit
503302,WA,99204,SPOKANE,NonProfit
210001,MD,21742,WASHINGTON,NonProfit
210048,MD,21044,HOWARD,NonProfit
290047,NV,89148,CLARK,NonProfit
330033,NY,13815,CHENANGO,NonProfit
450083,TX,75701,SMITH,NonProfit
80004,DE,19901,KENT,NonProfit
420065,SC,29414,CHARLESTON,NonProfit
394048,PA,17701,LYCOMING,NonProfit
351320,ND,58237,WALSH,NonProfit
50043,CA,94609,ALAMEDA,NonProfit
181325,KY,42743,GREEN,NonProfit
440048,TN,38120,SHELBY,NonProfit
150012,IN,46545,ST. JOSEPH,NonProfit
231308,MI,49862,ALGER,NonProfit
161321,IA,51246,LYON,NonProfit
231329,MI,48723,TUSCOLA,NonProfit
454083,TX,77090,HARRIS,NonProfit
260005,MO,63301,ST. CHARLES,NonProfit
140209,IL,61636,PEORIA,NonProfit
190125,LA,71201,OUACHITA,NonProfit
510062,WV,25801,RALEIGH,NonProfit
100007,FL,32803,ORANGE,NonProfit
330265,NY,14432,ONTARIO,NonProfit
120007,HI,96817,HONOLULU,NonProfit
310108,NJ,8818,MIDDLESEX,NonProfit
390001,PA,18510,LACKAWANNA,NonProfit
521340,WI,54751,DUNN,NonProfit
241368,MN,56378,STEARNS,NonProfit
300005,NH,3246,BELKNAP,NonProfit
380103,OR,97124,WASHINGTON,NonProfit
330218,NY,13126,OSWEGO,NonProfit
500044,WA,99210,SPOKANE,NonProfit
501340,WA,98250,SAN JUAN,NonProfit
301305,NH,3766,GRAFTON,NonProfit
100253,FL,33458,PALM BEACH,NonProfit
670077,TX,77094,HARRIS,NonProfit
511311,WV,26757,HAMPSHIRE,NonProfit
60049,CO,80487,ROUTT,NonProfit
31300,AZ,85390,MARICOPA,NonProfit
471307,VT,5753,ADDISON,NonProfit
100157,FL,33805,POLK,NonProfit
180021,KY,40977,BELL,NonProfit
281320,NE,68818,HAMILTON,NonProfit
390331,PA,19107,PHILADELPHIA,NonProfit
430013,SD,57301,DAVISON,NonProfit
361307,OH,44041,ASHTABULA,NonProfit
491302,VA,24134,GILES,NonProfit
140231,IL,60540,DU PAGE,NonProfit
390050,PA,15212,ALLEGHENY,NonProfit
231330,MI,48453,SANILAC,NonProfit
141340,IL,60548,DE KALB,NonProfit
514001,WV,25304,KANAWHA,NonProfit
230270,MI,48180,WAYNE,NonProfit
250094,MS,39402,LAMAR,NonProfit
31315,AZ,85938,APACHE,NonProfit
281322,NE,68788,CUMING,NonProfit
410011,RI,2895,PROVIDENCE,NonProfit
100277,FL,33137,MIAMI-DADE,NonProfit
60031,CO,80907,EL PASO,NonProfit
10034,AL,36078,ELMORE,NonProfit
231325,MI,48624,GLADWIN,NonProfit
390266,PA,16127,MERCER,NonProfit
50425,CA,95825,SACRAMENTO,NonProfit
300034,NH,3102,HILLSBOROUGH,NonProfit
390046,PA,17403,YORK,NonProfit
340020,NC,27330,LEE,NonProfit
231338,MI,49412,NEWAYGO,NonProfit
170012,KS,67401,SALINE,NonProfit
381313,OR,97754,CROOK,NonProfit
50624,CA,91355,LOS ANGELES,NonProfit
41312,AR,72543,CLEBURNE,NonProfit
150088,IN,46016,MADISON,NonProfit
201304,ME,4609,HANCOCK,NonProfit
414000,RI,2906,PROVIDENCE,NonProfit
330011,NY,13905,BROOME,NonProfit
490129,VA,22205,ARLINGTON,NonProfit
430077,SD,57701,PENNINGTON,NonProfit
154035,IN,46947,CASS,NonProfit
340027,NC,28501,LENOIR,NonProfit
220086,MA,2215,SUFFOLK,NonProfit
50058,CA,91204,LOS ANGELES,NonProfit
50283,CA,94588,ALAMEDA,NonProfit
110006,GA,30606,CLARKE,NonProfit
390116,PA,19401,MONTGOMERY,NonProfit
301308,NH,3743,SULLIVAN,NonProfit
390101,PA,17403,YORK,NonProfit
220063,MA,1854,MIDDLESEX,NonProfit
461303,UT,84647,SANPETE,NonProfit
454029,TX,78731,TRAVIS,NonProfit
170023,KS,67846,FINNEY,NonProfit
50603,CA,92653,ORANGE,NonProfit
360354,OH,45069,BUTLER,NonProfit
210033,MD,21157,CARROLL,NonProfit
131302,ID,83330,GOODING,NonProfit
420066,SC,29560,FLORENCE,NonProfit
360132,OH,45013,BUTLER,NonProfit
431325,SD,57601,WALWORTH,NonProfit
520206,WI,53066,WAUKESHA,NonProfit
390137,PA,18764,LUZERNE,NonProfit
110027,GA,30553,FRANKLIN,NonProfit
410010,RI,2905,PROVIDENCE,NonProfit
51333,CA,93555,KERN,NonProfit
160005,IA,51401,CARROLL,NonProfit
220065,MA,1085,HAMPDEN,NonProfit
341315,NC,28337,BLADEN,NonProfit
260080,MO,63935,RIPLEY,NonProfit
280003,NE,68506,LANCASTER,NonProfit
50261,CA,93257,TULARE,NonProfit
30007,AZ,86326,YAVAPAI,NonProfit
390048,PA,17044,MIFFLIN,NonProfit
490002,VA,24266,RUSSELL,NonProfit
151335,IN,47421,LAWRENCE,NonProfit
271306,MT,59645,MEAGHER,NonProfit
180064,KY,40353,MONTGOMERY,NonProfit
271330,MT,59019,STILLWATER,NonProfit
100034,FL,33140,MIAMI-DADE,NonProfit
141332,IL,62049,MONTGOMERY,NonProfit
450176,TX,78572,HIDALGO,NonProfit
390228,PA,15243,ALLEGHENY,NonProfit
61344,CO,81212,FREMONT,NonProfit
210006,MD,21078,HARFORD,NonProfit
450723,TX,75237,DALLAS,NonProfit
140177,IL,60649,COOK,NonProfit
161304,IA,50841,ADAMS,NonProfit
330153,NY,12308,SCHENECTADY,NonProfit
150045,IN,46706,DE KALB,NonProfit
140185,IL,62226,ST. CLAIR,NonProfit
670108,TX,78654,BURNET,NonProfit
450007,TX,78028,KERR,NonProfit
320009,NM,87102,BERNALILLO,NonProfit
210018,MD,20832,MONTGOMERY,NonProfit
331316,NY,13346,MADISON,NonProfit
50145,CA,93940,MONTEREY,NonProfit
490144,VA,20169,PRINCE WILLIAM,NonProfit
490013,VA,24592,HALIFAX,NonProfit
180038,KY,42303,DAVIESS,NonProfit
291313,NV,89406,CHURCHILL,NonProfit
420015,SC,29640,PICKENS,NonProfit
451382,TX,76442,COMANCHE,NonProfit
50232,CA,93401,SAN LUIS OBISPO,NonProfit
330019,NY,11229,KINGS,NonProfit
424013,SC,29118,ORANGEBURG,NonProfit
450847,TX,77494,FORT BEND,NonProfit
453316,TX,75024,COLLIN,NonProfit
230207,MI,48342,OAKLAND,NonProfit
271326,MT,59068,CARBON,NonProfit
171338,KS,66534,NEMAHA,NonProfit
34028,AZ,85283,MARICOPA,NonProfit
453304,TX,77030,HARRIS,NonProfit
290049,NV,89521,WASHOE,NonProfit
60004,CO,80601,ADAMS,NonProfit
50047,CA,94109,SAN FRANCISCO,NonProfit
491308,VA,22482,LANCASTER,NonProfit
123301,HI,96826,HONOLULU,NonProfit
360180,OH,44195,CUYAHOGA,NonProfit
41327,AR,71671,BRADLEY,NonProfit
241345,MN,56093,WASECA,NonProfit
511321,WV,26201,UPSHUR,NonProfit
180013,KY,42101,WARREN,NonProfit
490053,VA,24211,WASHINGTON,NonProfit
360087,OH,44113,CUYAHOGA,NonProfit
390123,PA,19464,MONTGOMERY,NonProfit
511319,WV,25438,JEFFERSON,NonProfit
110121,GA,39828,GRADY,NonProfit
194088,LA,70737,ASCENSION,NonProfit
41310,AR,72560,STONE,NonProfit
210058,MD,21207,BALTIMORE,NonProfit
510038,WV,26452,LEWIS,NonProfit
194007,LA,70448,ST. TAMMANY,NonProfit
500027,WA,98122,KING,NonProfit
390138,PA,17268,FRANKLIN,NonProfit
100105,FL,32960,INDIAN RIVER,NonProfit
360230,OH,44124,CUYAHOGA,NonProfit
363308,OH,45229,HAMILTON,NonProfit
361324,OH,44875,RICHLAND,NonProfit
450348,TX,76661,FALLS,NonProfit
110001,GA,30720,WHITFIELD,NonProfit
404009,PR,705,AIBONITO,NonProfit
390164,PA,15213,ALLEGHENY,NonProfit
450462,TX,75231,DALLAS,NonProfit
351326,ND,58270,WALSH,NonProfit
241375,MN,56058,LE SUEUR,NonProfit
150051,IN,47403,MONROE,NonProfit
440039,TN,37232,DAVIDSON,NonProfit
140211,IL,60134,KANE,NonProfit
50455,CA,93301,KERN,NonProfit
351327,ND,58341,WELLS,NonProfit
330006,NY,10701,WESTCHESTER,NonProfit
260040,MO,65807,GREENE,NonProfit
420043,SC,29340,CHEROKEE,NonProfit
190266,LA,70810,E. BATON ROUGE,NonProfit
150048,IN,47374,WAYNE,NonProfit
241370,MN,56345,MORRISON,NonProfit
110082,GA,30342,FULTON,NonProfit
470005,VT,5701,RUTLAND,NonProfit
140158,IL,60616,COOK,NonProfit
220163,MA,1655,WORCESTER,NonProfit
100063,FL,34652,PASCO,NonProfit
330136,NY,13326,OTSEGO,NonProfit
170109,KS,66071,MIAMI,NonProfit
310039,NJ,8861,MIDDLESEX,NonProfit
440016,TN,38344,CARROLL,NonProfit
54145,CA,92123,SAN DIEGO,NonProfit
50770,CA,92563,RIVERSIDE,NonProfit
290001,NV,89502,WASHOE,NonProfit
100052,FL,33881,POLK,NonProfit
450571,TX,76903,TOM GREEN,NonProfit
140189,IL,61938,COLES,NonProfit
151326,IN,47842,VERMILLION,NonProfit
450099,TX,79065,GRAY,NonProfit
160104,IA,52722,SCOTT,NonProfit
220084,MA,1742,MIDDLESEX,NonProfit
301312,NH,3894,CARROLL,NonProfit
110135,GA,31036,PULASKI,NonProfit
490094,VA,23223,RICHMOND CITY,NonProfit
330208,NY,10701,WESTCHESTER,NonProfit
264020,MO,65360,HENRY,NonProfit
220077,MA,1199,HAMPDEN,NonProfit
251313,MS,39194,YAZOO,NonProfit
490001,VA,24273,NORTON CITY,NonProfit
453306,TX,79410,LUBBOCK,NonProfit
41307,AR,72396,CROSS,NonProfit
360065,OH,44857,HURON,NonProfit
50498,CA,95603,PLACER,NonProfit
510024,WV,26505,MONONGALIA,NonProfit
420104,SC,29466,CHARLESTON,NonProfit
520177,WI,53226,MILWAUKEE,NonProfit
100008,FL,33176,MIAMI-DADE,NonProfit
360174,OH,45373,MIAMI,NonProfit
80009,DE,19963,SUSSEX,NonProfit
50772,CA,95661,PLACER,NonProfit
241328,MN,56621,CLEARWATER,NonProfit
364058,OH,43229,FRANKLIN,NonProfit
451346,TX,77995,LAVACA,NonProfit
390179,PA,19380,CHESTER,NonProfit
283300,NE,68131,DOUGLAS,NonProfit
510001,WV,26506,MONONGALIA,NonProfit
361327,OH,43543,WILLIAMS,NonProfit
221300,MA,2557,DUKES,NonProfit
430005,SD,57201,CODINGTON,NonProfit
260219,MO,63368,ST. CHARLES,NonProfit
390028,PA,15219,ALLEGHENY,NonProfit
60128,CO,80504,BOULDER,NonProfit
161345,IA,51249,OSCEOLA,NonProfit
60008,CO,81101,ALAMOSA,NonProfit
410006,RI,2840,NEWPORT,NonProfit
70008,CT,6076,TOLLAND,NonProfit
490045,VA,20110,MANASSAS CITY,NonProfit
240106,MN,55101,RAMSEY,NonProfit
511312,WV,26537,PRESTON,NonProfit
390231,PA,19001,MONTGOMERY,NonProfit
310048,NJ,8876,SOMERSET,NonProfit
220135,MA,2540,BARNSTABLE,NonProfit
390270,PA,18711,LUZERNE,NonProfit
300001,NH,3301,MERRIMACK,NonProfit
420070,SC,29150,SUMTER,NonProfit
450079,TX,75061,DALLAS,NonProfit
140286,IL,60115,DE KALB,NonProfit
520078,WI,53215,MILWAUKEE,NonProfit
380040,OR,97756,DESCHUTES,NonProfit
230227,MI,48043,MACOMB,NonProfit
491305,VA,22664,SHENANDOAH,NonProfit
520095,WI,53578,SAUK,NonProfit
191322,LA,70548,VERMILION,NonProfit
231320,MI,49455,OCEANA,NonProfit
70040,CT,6117,HARTFORD,NonProfit
670122,TX,77385,MONTGOMERY,NonProfit
330106,NY,11030,NASSAU,NonProfit
360016,OH,45236,HAMILTON,NonProfit
190046,LA,70115,ORLEANS,NonProfit
230038,MI,49503,KENT,NonProfit
33302,AZ,85016,MARICOPA,NonProfit
331304,NY,12455,DELAWARE,NonProfit
370149,OK,74804,POTTAWATOMIE,NonProfit
161370,IA,50583,SAC,NonProfit
330058,NY,14456,ONTARIO,NonProfit
10065,AL,35010,TALLAPOOSA,NonProfit
60020,CO,81003,PUEBLO,NonProfit
390125,PA,18431,WAYNE,NonProfit
390222,PA,19063,DELAWARE,NonProfit
261309,MO,64683,GRUNDY,NonProfit
330233,NY,11212,KINGS,NonProfit
180044,KY,41501,PIKE,NonProfit
390146,PA,16365,WARREN,NonProfit
521334,WI,54981,WAUPACA,NonProfit
370091,OK,74136,TULSA,NonProfit
240006,MN,55904,OLMSTED,NonProfit
431307,SD,57226,DEUEL,NonProfit
140110,IL,61350,LA SALLE,NonProfit
40036,AR,72117,PULASKI,NonProfit
141334,IL,62966,JACKSON,NonProfit
391307,PA,16686,BLAIR,NonProfit
210015,MD,21237,BALTIMORE,NonProfit
150181,IN,46037,HAMILTON,NonProfit
154031,IN,46527,ELKHART,NonProfit
241308,MN,55616,LAKE,NonProfit
471304,VT,5855,ORLEANS,NonProfit
520088,WI,54935,FOND DU LAC,NonProfit
390199,PA,15767,JEFFERSON,NonProfit
390027,PA,19140,PHILADELPHIA,NonProfit
450032,TX,75670,HARRISON,NonProfit
221303,MA,1331,WORCESTER,NonProfit
220010,MA,1842,ESSEX,NonProfit
360037,OH,44115,CUYAHOGA,NonProfit
330169,NY,10003,NEW YORK,NonProfit
260048,MO,64108,JACKSON,NonProfit
511310,WV,25951,SUMMERS,NonProfit
360358,OH,43110,FRANKLIN,NonProfit
263304,MO,63110,ST. LOUIS CITY,NonProfit
310032,NJ,8360,CUMBERLAND,NonProfit
100132,FL,33563,HILLSBOROUGH,NonProfit
100135,FL,32308,LEON,NonProfit
30014,AZ,85020,MARICOPA,NonProfit
104075,FL,33543,PASCO,NonProfit
10022,AL,35960,CHEROKEE,NonProfit
330238,NY,14437,LIVINGSTON,NonProfit
460010,UT,84107,SALT LAKE,NonProfit
390147,PA,15063,WASHINGTON,NonProfit
331311,NY,13365,HERKIMER,NonProfit
101312,FL,33050,MONROE,NonProfit
440184,TN,37604,WASHINGTON,NonProfit
380102,OR,97477,LANE,NonProfit
161381,IA,51201,OBRIEN,NonProfit
451345,TX,79322,CROSBY,NonProfit
450042,TX,76712,MC LENNAN,NonProfit
210019,MD,21801,WICOMICO,NonProfit
230041,MI,48708,BAY,NonProfit
171361,KS,66935,REPUBLIC,NonProfit
220071,MA,2114,SUFFOLK,NonProfit
310061,NJ,8046,BURLINGTON,NonProfit
160122,IA,52627,LEE,NonProfit
50174,CA,95405,SONOMA,NonProfit
360203,OH,43725,GUERNSEY,NonProfit
380033,OR,97401,LANE,NonProfit
251300,MS,39074,SCOTT,NonProfit
391315,PA,15857,ELK,NonProfit
50129,CA,92404,SAN BERNARDINO,NonProfit
521359,WI,54806,ASHLAND,NonProfit
110229,GA,30265,COWETA,NonProfit
180045,KY,41042,BOONE,NonProfit
370113,OK,74344,DELAWARE,NonProfit
50597,CA,91740,LOS ANGELES,NonProfit
301303,NH,3584,COOS,NonProfit
141328,IL,62982,HARDIN,NonProfit
441304,TN,37683,JOHNSON,NonProfit
390183,PA,18218,SCHUYLKILL,NonProfit
220033,MA,1915,ESSEX,NonProfit
361333,OH,43567,FULTON,NonProfit
520138,WI,53215,MILWAUKEE,NonProfit
351332,ND,58368,PIERCE,NonProfit
50704,CA,91402,LOS ANGELES,NonProfit
151325,IN,47601,WARRICK,NonProfit
10044,AL,35570,MARION,NonProfit
361323,OH,44667,WAYNE,NonProfit
240038,MN,55102,RAMSEY,NonProfit
341326,NC,28734,MACON,NonProfit
330397,NY,11213,KINGS,NonProfit
330049,NY,12572,DUTCHESS,NonProfit
330222,NY,12866,SARATOGA,NonProfit
521349,WI,54022,PIERCE,NonProfit
70021,CT,6226,WINDHAM,NonProfit
360118,OH,44903,RICHLAND,NonProfit
10011,AL,35235,JEFFERSON,NonProfit
150082,IN,47747,VANDERBURGH,NonProfit
451360,TX,75972,SAN AUGUSTINE,NonProfit
421303,SC,29556,WILLIAMSBURG,NonProfit
240078,MN,55435,HENNEPIN,NonProfit
181307,KY,41472,MORGAN,NonProfit
331309,NY,13607,JEFFERSON,NonProfit
430012,SD,57078,YANKTON,NonProfit
400128,PR,919,SAN JUAN,NonProfit
40062,AR,72917,SEBASTIAN,NonProfit
241339,MN,56136,LINCOLN,NonProfit
340099,NC,27910,HERTFORD,NonProfit
141301,IL,61856,PIATT,NonProfit
414003,RI,2915,PROVIDENCE,NonProfit
360098,OH,44077,LAKE,NonProfit
361303,OH,44254,MEDINA,NonProfit
50710,CA,93720,FRESNO,NonProfit
50077,CA,92103,SAN DIEGO,NonProfit
340040,NC,27834,PITT,NonProfit
10056,AL,35205,JEFFERSON,NonProfit
104018,FL,34748,LAKE,NonProfit
320021,NM,87106,BERNALILLO,NonProfit
10129,AL,36507,BALDWIN,NonProfit
161306,IA,52205,JONES,NonProfit
393304,PA,15224,ALLEGHENY,NonProfit
110016,GA,30240,TROUP,NonProfit
321306,NM,88345,LINCOLN,NonProfit
250004,MS,38801,LEE,NonProfit
361328,OH,43512,DEFIANCE,NonProfit
380071,OR,97128,YAMHILL,NonProfit
351300,ND,58852,WILLIAMS,NonProfit
220049,MA,1752,MIDDLESEX,NonProfit
210040,MD,21133,BALTIMORE,NonProfit
521322,WI,53813,GRANT,NonProfit
310001,NJ,7601,BERGEN,NonProfit
60119,CO,80538,LARIMER,NonProfit
330198,NY,11572,NASSAU,NonProfit
110069,GA,31093,HOUSTON,NonProfit
201305,ME,4619,WASHINGTON,NonProfit
450389,TX,75751,HENDERSON,NonProfit
140030,IL,60123,KANE,NonProfit
230110,MI,49431,MASON,NonProfit
171315,KS,66538,NEMAHA,NonProfit
50748,CA,95337,SAN JOAQUIN,NonProfit
360364,OH,44011,LORAIN,NonProfit
190060,LA,70601,CALCASIEU,NonProfit
140148,IL,62702,SANGAMON,NonProfit
431313,SD,57029,HUTCHINSON,NonProfit
220095,MA,1440,WORCESTER,NonProfit
351323,ND,58249,CAVALIER,NonProfit
193300,LA,70118,ORLEANS,NonProfit
440176,TN,37660,SULLIVAN,NonProfit
70039,CT,6492,NEW HAVEN,NonProfit
160064,IA,50401,CERRO GORDO,NonProfit
190027,LA,70601,CALCASIEU,NonProfit
110030,GA,30120,BARTOW,NonProfit
450563,TX,76051,TARRANT,NonProfit
281359,NE,68008,WASHINGTON,NonProfit
360155,OH,44130,CUYAHOGA,NonProfit
230021,MI,49085,BERRIEN,NonProfit
50014,CA,95642,AMADOR,NonProfit
360056,OH,45014,BUTLER,NonProfit
50089,CA,92411,SAN BERNARDINO,NonProfit
431326,SD,57252,GRANT,NonProfit
241322,MN,56649,KOOCHICHING,NonProfit
141311,IL,62837,WAYNE,NonProfit
240019,MN,55805,ST. LOUIS,NonProfit
241356,MN,56359,MILLE LACS,NonProfit
420087,SC,29401,CHARLESTON,NonProfit
341319,NC,28712,TRANSYLVANIA,NonProfit
500079,WA,98372,PIERCE,NonProfit
61308,CO,81140,CONEJOS,NonProfit
21313,AK,99603,KENAI PENINSULA,NonProfit
100113,FL,32610,ALACHUA,NonProfit
670053,TX,77478,FORT BEND,NonProfit
330057,NY,12208,ALBANY,NonProfit
393303,PA,19104,PHILADELPHIA,NonProfit
341303,NC,27371,MONTGOMERY,NonProfit
420105,SC,29569,HORRY,NonProfit
330201,NY,11203,KINGS,NonProfit
50393,CA,90241,LOS ANGELES,NonProfit
210009,MD,21287,BALTIMORE CITY,NonProfit
263303,MO,63043,ST. LOUIS,NonProfit
160032,IA,50208,JASPER,NonProfit
374021,OK,74120,TULSA,NonProfit
50169,CA,90602,LOS ANGELES,NonProfit
360189,OH,43140,MADISON,NonProfit
220024,MA,1040,HAMPDEN,NonProfit
451380,TX,75783,WOOD,NonProfit
190005,LA,70112,ORLEANS,NonProfit
161378,IA,52040,DUBUQUE,NonProfit
150007,IN,46902,HOWARD,NonProfit
154009,IN,47804,VIGO,NonProfit
201301,ME,4441,PISCATAQUIS,NonProfit
150011,IN,46952,GRANT,NonProfit
190102,LA,70508,LAFAYETTE,NonProfit
370114,OK,74104,TULSA,NonProfit
261332,MO,64633,CARROLL,NonProfit
141310,IL,61342,LA SALLE,NonProfit
261321,MO,64601,LIVINGSTON,NonProfit
61302,CO,81521,MESA,NonProfit
271344,MT,59270,RICHLAND,NonProfit
330163,NY,14094,NIAGARA,NonProfit
340187,NC,27028,DAVIE,NonProfit
30130,AZ,85140,PINAL,NonProfit
240066,MN,55082,WASHINGTON,NonProfit
101313,FL,33070,MONROE,NonProfit
180106,KY,42602,CLINTON,NonProfit
330086,NY,10550,WESTCHESTER,NonProfit
470012,VT,5201,BENNINGTON,NonProfit
511318,WV,25136,FAYETTE,NonProfit
520033,WI,54495,WOOD,NonProfit
201303,ME,4457,PENOBSCOT,NonProfit
330193,NY,11355,QUEENS,NonProfit
93300,DC,20010,THE DISTRICT,NonProfit
220012,MA,2601,BARNSTABLE,NonProfit
361306,OH,44074,LORAIN,NonProfit
390184,PA,15425,FAYETTE,NonProfit
241336,MN,56728,KITTSON,NonProfit
220171,MA,1803,MIDDLESEX,NonProfit
104040,FL,34208,MANATEE,NonProfit
331307,NY,13690,ST. LAWRENCE,NonProfit
50036,CA,93301,KERN,NonProfit
230167,MI,48910,INGHAM,NonProfit
171310,KS,67756,CHEYENNE,NonProfit
341325,NC,28640,ASHE,NonProfit
351314,ND,58533,GRANT,NonProfit
520207,WI,53024,OZAUKEE,NonProfit
520202,WI,54476,MARATHON,NonProfit
330267,NY,10567,WESTCHESTER,NonProfit
310010,NJ,8536,MIDDLESEX,NonProfit
50727,CA,90804,LOS ANGELES,NonProfit
150169,IN,46256,MARION,NonProfit
410007,RI,2903,PROVIDENCE,NonProfit
141317,IL,60936,FORD,NonProfit
190019,LA,71301,RAPIDES,NonProfit
351315,ND,58474,DICKEY,NonProfit
161377,IA,52544,APPANOOSE,NonProfit
50108,CA,95816,SACRAMENTO,NonProfit
510047,WV,26554,MARION,NonProfit
230239,MI,49783,CHIPPEWA,NonProfit
231315,MI,49047,CASS,NonProfit
450229,TX,79601,TAYLOR,NonProfit
111330,GA,30125,POLK,NonProfit
281348,NE,69022,FURNAS,NonProfit
191302,LA,70517,ST. MARTIN,NonProfit
181320,KY,42078,LIVINGSTON,NonProfit
110153,GA,31069,HOUSTON,NonProfit
271316,MT,59230,VALLEY,NonProfit
340123,NC,27204,RANDOLPH,NonProfit
50112,CA,90404,LOS ANGELES,NonProfit
450475,TX,75652,RUSK,NonProfit
281308,NE,68371,YORK,NonProfit
101300,FL,33873,HARDEE,NonProfit
330399,NY,10457,BRONX,NonProfit
340071,NC,28334,HARNETT,NonProfit
241371,MN,56156,ROCK,NonProfit
281323,NE,68661,COLFAX,NonProfit
70007,CT,6320,NEW LONDON,NonProfit
301302,NH,3561,GRAFTON,NonProfit
241380,MN,56470,HUBBARD,NonProfit
521329,WI,54880,DOUGLAS,NonProfit
50394,CA,93003,VENTURA,NonProfit
490018,VA,22939,AUGUSTA,NonProfit
250141,MS,38671,DE SOTO,NonProfit
210022,MD,20814,MONTGOMERY,NonProfit
460039,UT,84337,BOX ELDER,NonProfit
30012,AZ,86301,YAVAPAI,NonProfit
154055,IN,47630,WARRICK,NonProfit
260104,MO,63044,ST. LOUIS,NonProfit
210030,MD,21620,KENT,NonProfit
330005,NY,14210,ERIE,NonProfit
140012,IL,61021,LEE,NonProfit
140077,IL,62207,ST. CLAIR,NonProfit
230118,MI,48413,HURON,NonProfit
330107,NY,11901,SUFFOLK,NonProfit
13300,AL,35233,JEFFERSON,NonProfit
220066,MA,1104,HAMPDEN,NonProfit
140015,IL,62305,ADAMS,NonProfit
360041,OH,44129,CUYAHOGA,NonProfit
350011,ND,58122,CASS,NonProfit
160001,IA,50158,MARSHALL,NonProfit
201308,ME,4730,AROOSTOOK,NonProfit
171345,KS,67550,PAWNEE,NonProfit
260057,MO,64429,CLINTON,NonProfit
363300,OH,45229,HAMILTON,NonProfit
440006,TN,37207,DAVIDSON,NonProfit
150089,IN,47303,DELAWARE,NonProfit
50754,CA,94025,SAN MATEO,NonProfit
400013,PR,737,CAYEY,NonProfit
230037,MI,49242,HILLSDALE,NonProfit
463302,UT,84103,SALT LAKE,NonProfit
70020,CT,6457,MIDDLESEX,NonProfit
430027,SD,57117,MINNEHAHA,NonProfit
230002,MI,48154,WAYNE,NonProfit
231319,MI,49913,HOUGHTON,NonProfit
120001,HI,96813,HONOLULU,NonProfit
330074,NY,14424,ONTARIO,NonProfit
121303,HI,96748,MAUI,NonProfit
220110,MA,2115,SUFFOLK,NonProfit
520063,WI,53095,WASHINGTON,NonProfit
321302,NM,88401,QUAY,NonProfit
330140,NY,13203,ONONDAGA,NonProfit
331315,NY,13642,ST. LAWRENCE,NonProfit
431333,SD,57013,LINCOLN,NonProfit
100289,FL,33331,BROWARD,NonProfit
521336,WI,54843,SAWYER,NonProfit
280013,NE,68198,DOUGLAS,NonProfit
420106,SC,29212,LEXINGTON,NonProfit
50013,CA,94574,NAPA,NonProfit
100313,FL,32456,GULF,NonProfit
64023,CO,81501,MESA,NonProfit
351335,ND,58401,STUTSMAN,NonProfit
110215,GA,30214,FAYETTE,NonProfit
180009,KY,41101,BOYD,NonProfit
310091,NJ,8079,SALEM,NonProfit
160153,IA,51101,WOODBURY,NonProfit
190118,LA,71052,DE SOTO,NonProfit
260006,MO,64506,BUCHANAN,NonProfit
520070,WI,54703,EAU CLAIRE,NonProfit
340097,NC,28621,SURRY,NonProfit
291309,NV,89005,CLARK,NonProfit
441303,TN,37185,HUMPHREYS,NonProfit
330028,NY,10304,RICHMOND,NonProfit
330096,NY,14895,ALLEGANY,NonProfit
380029,OR,97381,MARION,NonProfit
331301,NY,14727,ALLEGANY,NonProfit
361312,OH,43078,CHAMPAIGN,NonProfit
150101,IN,46725,WHITLEY,NonProfit
141300,IL,62016,GREENE,NonProfit
390197,PA,18102,LEHIGH,NonProfit
520103,WI,53051,WAUKESHA,NonProfit
151318,IN,46970,MIAMI,NonProfit
181310,KY,41008,CARROLL,NonProfit
130071,ID,83687,CANYON,NonProfit
54093,CA,92373,SAN BERNARDINO,NonProfit
241330,MN,56352,STEARNS,NonProfit
330194,NY,11219,KINGS,NonProfit
141302,IL,61036,JO DAVIESS,NonProfit
50523,CA,94509,CONTRA COSTA,NonProfit
390003,PA,17815,COLUMBIA,NonProfit
330059,NY,10467,BRONX,NonProfit
431335,SD,57350,BEADLE,NonProfit
140115,IL,60613,COOK,NonProfit
351325,ND,58730,DIVIDE,NonProfit
521325,WI,54552,PRICE,NonProfit
240075,MN,56401,CROW WING,NonProfit
390115,PA,19114,PHILADELPHIA,NonProfit
241303,MN,56175,LYON,NonProfit
161362,IA,51012,CHEROKEE,NonProfit
154011,IN,47025,DEARBORN,NonProfit
340119,NC,28001,STANLY,NonProfit
41311,AR,71852,HOWARD,NonProfit
140122,IL,60521,DU PAGE,NonProfit
440050,TN,37745,GREENE,NonProfit
500031,WA,98520,GRAYS HARBOR,NonProfit
150128,IN,46227,MARION,NonProfit
60075,CO,81601,GARFIELD,NonProfit
154020,IN,46410,LAKE,NonProfit
521355,WI,54923,GREEN LAKE,NonProfit
521317,WI,53014,CALUMET,NonProfit
151329,IN,47006,FRANKLIN,NonProfit
463301,UT,84113,SALT LAKE,NonProfit
351330,ND,58639,ADAMS,NonProfit
50782,CA,91767,LOS ANGELES,NonProfit
420109,SC,29102,CLARENDON,NonProfit
330181,NY,11542,NASSAU,NonProfit
230089,MI,48230,WAYNE,NonProfit
184004,KY,40511,FAYETTE,NonProfit
330259,NY,11570,NASSAU,NonProfit
241344,MN,56751,ROSEAU,NonProfit
330232,NY,12180,RENSSELAER,NonProfit
330046,NY,10019,NEW YORK,NonProfit
310047,NJ,8244,ATLANTIC,NonProfit
111328,GA,31791,WORTH,NonProfit
51320,CA,96130,LASSEN,NonProfit
333301,NY,10595,WESTCHESTER,NonProfit
370023,OK,73533,STEPHENS,NonProfit
310110,NJ,8690,MERCER,NonProfit
340168,NC,28401,NEW HANOVER,NonProfit
500154,WA,98042,KING,NonProfit
451349,TX,79088,SWISHER,NonProfit
180040,KY,40202,JEFFERSON,NonProfit
510013,WV,26038,MARSHALL,NonProfit
100154,FL,33143,MIAMI-DADE,NonProfit
340091,NC,27401,GUILFORD,NonProfit
450573,TX,75951,JASPER,NonProfit
450137,TX,76104,TARRANT,NonProfit
521315,WI,54812,BARRON,NonProfit
524000,WI,53213,MILWAUKEE,NonProfit
330276,NY,12078,FULTON,NonProfit
50557,CA,95355,STANISLAUS,NonProfit
250069,MS,39301,LAUDERDALE,NonProfit
50777,CA,94577,ALAMEDA,NonProfit
70003,CT,6260,WINDHAM,NonProfit
361311,OH,43907,HARRISON,NonProfit
341320,NC,28675,ALLEGHANY,NonProfit
380014,OR,97330,BENTON,NonProfit
271341,MT,59201,ROOSEVELT,NonProfit
261337,MO,63080,FRANKLIN,NonProfit
271302,MT,59324,CARTER,NonProfit
201302,ME,4543,LINCOLN,NonProfit
361304,OH,45123,HIGHLAND,NonProfit
504009,WA,98126,KING,NonProfit
310014,NJ,8103,CAMDEN,NonProfit
420023,SC,29601,GREENVILLE,NonProfit
271337,MT,59427,GLACIER,NonProfit
201313,ME,4967,SOMERSET,NonProfit
220060,MA,2360,PLYMOUTH,NonProfit
390150,PA,15370,GREENE,NonProfit
390079,PA,18840,BRADFORD,NonProfit
360153,OH,43906,BELMONT,NonProfit
341305,NC,28713,SWAIN,NonProfit
670082,TX,75071,COLLIN,NonProfit
380004,OR,97225,WASHINGTON,NonProfit
150044,IN,47150,FLOYD,NonProfit
453314,TX,75219,DALLAS,NonProfit
104008,FL,33407,PALM BEACH,NonProfit
60065,CO,80229,ADAMS,NonProfit
271323,MT,59859,SANDERS,NonProfit
390278,PA,19408,MONTGOMERY,NonProfit
180025,KY,40004,NELSON,NonProfit
460007,UT,84721,IRON,NonProfit
490024,VA,24014,ROANOKE CITY,NonProfit
40039,AR,72450,GREENE,NonProfit
440034,TN,37830,ANDERSON,NonProfit
50100,CA,92123,SAN DIEGO,NonProfit
210013,MD,21223,BALTIMORE CITY,NonProfit
441305,TN,37083,MACON,NonProfit
141305,IL,62321,HANCOCK,NonProfit
531307,WY,82240,GOSHEN,NonProfit
450219,TX,78643,LLANO,NonProfit
433300,SD,57105,MINNEHAHA,NonProfit
364055,OH,44883,SENECA,NonProfit
370178,OK,74960,ADAIR,NonProfit
50254,CA,95667,EL DORADO,NonProfit
461307,UT,84032,WASATCH,NonProfit
670041,TX,78664,WILLIAMSON,NonProfit
50738,CA,91733,LOS ANGELES,NonProfit
260179,MO,63017,ST. LOUIS,NonProfit
271314,MT,59722,POWELL,NonProfit
140119,IL,60612,COOK,NonProfit
330226,NY,14626,MONROE,NonProfit
451365,TX,78611,BURNET,NonProfit
143300,IL,60611,COOK,NonProfit
391314,PA,16354,CRAWFORD,NonProfit
451319,TX,75766,CHEROKEE,NonProfit
490089,VA,24151,FRANKLIN,NonProfit
240047,MN,55805,ST. LOUIS,NonProfit
230020,MI,48124,WAYNE,NonProfit
360365,OH,44906,RICHLAND,NonProfit
40027,AR,72653,BAXTER,NonProfit
490021,VA,24501,LYNCHBURG CITY,NonProfit
400018,PR,705,AIBONITO,NonProfit
214013,MD,20850,MONTGOMERY,NonProfit
390330,PA,18360,MONROE,NonProfit
40118,AR,72401,CRAIGHEAD,NonProfit
360086,OH,45504,CLARK,NonProfit
140239,IL,61103,WINNEBAGO,NonProfit
171341,KS,66434,BROWN,NonProfit
361319,OH,45750,WASHINGTON,NonProfit
170103,KS,67114,HARVEY,NonProfit
360068,OH,43606,LUCAS,NonProfit
50313,CA,95376,SAN JOAQUIN,NonProfit
161359,IA,51040,MONONA,NonProfit
314022,NJ,8755,OCEAN,NonProfit
210027,MD,21502,ALLEGANY,NonProfit
241348,MN,56178,LINCOLN,NonProfit
241364,MN,55720,CARLTON,NonProfit
521326,WI,54961,WAUPACA,NonProfit
281319,NE,68352,JEFFERSON,NonProfit
31301,AZ,85602,COCHISE,NonProfit
341324,NC,27959,DARE,NonProfit
123300,HI,96826,HONOLULU,NonProfit
423300,SC,29605,GREENVILLE,NonProfit
330160,NY,10305,RICHMOND,NonProfit
330285,NY,14642,MONROE,NonProfit
230146,MI,48192,WAYNE,NonProfit
500148,WA,98801,CHELAN,NonProfit
310028,NJ,7860,SUSSEX,NonProfit
251323,MS,39117,SCOTT,NonProfit
431320,SD,57732,LAWRENCE,NonProfit
334048,NY,10021,NEW YORK,NonProfit
490113,VA,22191,PRINCE WILLIAM,NonProfit
230066,MI,49442,MUSKEGON,NonProfit
330277,NY,14830,STEUBEN,NonProfit
440193,TN,37087,WILSON,NonProfit
241379,MN,56531,GRANT,NonProfit
330167,NY,11501,NASSAU,NonProfit
154053,IN,47303,DELAWARE,NonProfit
370016,OK,73701,GARFIELD,NonProfit
241346,MN,55009,GOODHUE,NonProfit
131312,ID,83638,VALLEY,NonProfit
520076,WI,53916,DODGE,NonProfit
230244,MI,48135,WAYNE,NonProfit
104024,FL,32901,BREVARD,NonProfit
140088,IL,60637,COOK,NonProfit
361321,OH,43713,BELMONT,NonProfit
451381,TX,75494,WOOD,NonProfit
450046,TX,78404,NUECES,NonProfit
390036,PA,15009,BEAVER,NonProfit
70010,CT,6610,FAIRFIELD,NonProfit
251322,MS,39365,NESHOBA,NonProfit
271324,MT,59425,PONDERA,NonProfit
160083,IA,50314,POLK,NonProfit
130006,ID,83712,ADA,NonProfit
40050,AR,71701,OUACHITA,NonProfit
430016,SD,57117,MINNEHAHA,NonProfit
150021,IN,46845,ALLEN,NonProfit
11304,AL,36904,CHOCTAW,NonProfit
420027,SC,29621,ANDERSON,NonProfit
181301,KY,40336,ESTILL,NonProfit
70006,CT,6904,FAIRFIELD,NonProfit
314026,NJ,8502,SOMERSET,NonProfit
40119,AR,72503,INDEPENDENCE,NonProfit
521327,WI,53963,FOND DU LAC,NonProfit
310031,NJ,8015,BURLINGTON,NonProfit
310029,NJ,8103,CAMDEN,NonProfit
330279,NY,14220,ERIE,NonProfit
520100,WI,53511,ROCK,NonProfit
283301,NE,68114,DOUGLAS,NonProfit
450187,TX,77833,WASHINGTON,NonProfit
50152,CA,94109,SAN FRANCISCO,NonProfit
190065,LA,70806,E. BATON ROUGE,NonProfit
241321,MN,56240,BIG STONE,NonProfit
80006,DE,19973,SUSSEX,NonProfit
210057,MD,20850,MONTGOMERY,NonProfit
210061,MD,21811,WORCESTER,NonProfit
500002,WA,99362,WALLA WALLA,NonProfit
240187,MN,55350,MC LEOD,NonProfit
380020,OR,97477,LANE,NonProfit
51331,CA,93463,SANTA BARBARA,NonProfit
104081,FL,34769,OSCEOLA,NonProfit
271343,MT,59860,LAKE,NonProfit
173300,KS,66211,JOHNSON,NonProfit
521344,WI,53805,GRANT,NonProfit
330246,NY,11777,SUFFOLK,NonProfit
383300,OR,97239,MULTNOMAH,NonProfit
420098,SC,29576,HORRY,NonProfit
31314,AZ,85501,GILA,NonProfit
140186,IL,60901,KANKAKEE,NonProfit
260065,MO,65804,GREENE,NonProfit
271334,MT,59522,LIBERTY,NonProfit
240036,MN,56303,STEARNS,NonProfit
521303,WI,54984,WAUSHARA,NonProfit
290019,NV,89703,CARSON CITY,NonProfit
500152,WA,98029,KING,NonProfit
281347,NE,68765,PIERCE,NonProfit
520062,WI,53066,WAUKESHA,NonProfit
70019,CT,6460,NEW HAVEN,NonProfit
260025,MO,63401,MARION,NonProfit
521346,WI,54166,SHAWANO,NonProfit
100001,FL,32209,DUVAL,NonProfit
310025,NJ,7002,HUDSON,NonProfit
40154,AR,72032,FAULKNER,NonProfit
260062,MO,64154,PLATTE,NonProfit
100265,FL,34695,PINELLAS,NonProfit
230071,MI,48033,OAKLAND,NonProfit
490130,VA,23061,GLOUCESTER,NonProfit
241304,MN,56296,TRAVERSE,NonProfit
390226,PA,19107,PHILADELPHIA,NonProfit
361334,OH,45690,PIKE,NonProfit
450163,TX,78363,KLEBERG,NonProfit
14013,AL,36301,HOUSTON,NonProfit
10101,AL,35161,TALLADEGA,NonProfit
340126,NC,27893,WILSON,NonProfit
200021,ME,4011,CUMBERLAND,NonProfit
400113,PR,780,PONCE,NonProfit
270004,MT,59101,YELLOWSTONE,NonProfit
240052,MN,56537,OTTER TAIL,NonProfit
100177,FL,32932,BREVARD,NonProfit
151314,IN,47167,WASHINGTON,NonProfit
250104,MS,39301,LAUDERDALE,NonProfit
521354,WI,53818,GRANT,NonProfit
440133,TN,37236,DAVIDSON,NonProfit
330085,NY,13820,OTSEGO,NonProfit
460001,UT,84604,UTAH,NonProfit
490022,VA,22401,FREDERICKSBURG CITY,NonProfit
50758,CA,91763,SAN BERNARDINO,NonProfit
330191,NY,12801,WARREN,NonProfit
521333,WI,54615,JACKSON,NonProfit
131328,ID,83864,BONNER,NonProfit
440017,TN,37662,SULLIVAN,NonProfit
50197,CA,94062,SAN MATEO,NonProfit
340173,NC,27518,WAKE,NonProfit
230302,MI,48322,OAKLAND,NonProfit
471301,VT,5060,ORANGE,NonProfit
281343,NE,68713,HOLT,NonProfit
230078,MI,49098,BERRIEN,NonProfit
240020,MN,55008,ISANTI,NonProfit
190204,LA,70461,ST. TAMMANY,NonProfit
223302,MA,2115,SUFFOLK,NonProfit
521310,WI,54154,OCONTO,NonProfit
140101,IL,60450,GRUNDY,NonProfit
394007,PA,19139,PHILADELPHIA,NonProfit
390133,PA,18105,LEHIGH,NonProfit
241349,MN,56362,STEARNS,NonProfit
330126,NY,10940,ORANGE,NonProfit
460026,UT,84701,SEVIER,NonProfit
330078,NY,14214,ERIE,NonProfit
100122,FL,32539,OKALOOSA,NonProfit
521338,WI,53925,COLUMBIA,NonProfit
250102,MS,39202,HINDS,NonProfit
171372,KS,67871,SCOTT,NonProfit
520066,WI,53548,ROCK,NonProfit
51334,CA,93023,VENTURA,NonProfit
80001,DE,19718,NEW CASTLE,NonProfit
110043,GA,31419,CHATHAM,NonProfit
670085,TX,76244,TARRANT,NonProfit
191303,LA,70390,ASSUMPTION,NonProfit
240213,MN,55125,WASHINGTON,NonProfit
360070,OH,44708,STARK,NonProfit
440015,TN,37920,KNOX,NonProfit
330125,NY,14621,MONROE,NonProfit
140133,IL,60629,COOK,NonProfit
250100,MS,39701,LOWNDES,NonProfit
111314,GA,39823,EARLY,NonProfit
140252,IL,60005,COOK,NonProfit
220074,MA,2720,BRISTOL,NonProfit
180048,KY,40422,BOYLE,NonProfit
50517,CA,92392,SAN BERNARDINO,NonProfit
50070,CA,94080,SAN MATEO,NonProfit
281365,NE,68822,CUSTER,NonProfit
141315,IL,62363,PIKE,NonProfit
491304,VA,24450,LEXINGTON CITY,NonProfit
141312,IL,61068,OGLE,NonProfit
390236,PA,18848,BRADFORD,NonProfit
43301,AR,72762,WASHINGTON,NonProfit
30023,AZ,86001,COCONINO,NonProfit
181318,KY,42135,SIMPSON,NonProfit
440084,TN,37874,MONROE,NonProfit
171382,KS,66002,ATCHISON,NonProfit
61336,CO,81050,OTERO,NonProfit
310038,NJ,8901,MIDDLESEX,NonProfit
194080,LA,70445,ST. TAMMANY,NonProfit
510012,WV,25550,MASON,NonProfit
310113,NJ,8050,OCEAN,NonProfit
30062,AZ,85901,NAVAJO,NonProfit
60028,CO,80218,DENVER,NonProfit
521348,WI,54665,VERNON,NonProfit
190128,LA,70817,E. BATON ROUGE,NonProfit
340087,NC,28752,MC DOWELL,NonProfit
100050,FL,33012,MIAMI-DADE,NonProfit
310083,NJ,7018,ESSEX,NonProfit
440025,TN,37745,GREENE,NonProfit
70022,CT,6504,NEW HAVEN,NonProfit
180143,KY,40509,FAYETTE,NonProfit
340190,NC,28215,MECKLENBURG,NonProfit
330304,NY,10601,WESTCHESTER,NonProfit
380047,OR,97701,DESCHUTES,NonProfit
360013,OH,45365,SHELBY,NonProfit
300023,NH,3833,ROCKINGHAM,NonProfit
450054,TX,76508,BELL,NonProfit
381321,OR,97850,UNION,NonProfit
363304,OH,44104,CUYAHOGA,NonProfit
330175,NY,13045,CORTLAND,NonProfit
241361,MN,56071,SCOTT,NonProfit
310073,NJ,7754,MONMOUTH,NonProfit
493302,VA,23220,RICHMOND CITY,NonProfit
40076,AR,72104,HOT SPRING,NonProfit
103301,FL,33155,MIAMI-DADE,NonProfit
470001,VT,5641,WASHINGTON,NonProfit
330164,NY,14620,MONROE,NonProfit
240056,MN,55387,CARVER,NonProfit
261307,MO,64628,LINN,NonProfit
270017,MT,59701,SILVER BOW,NonProfit
61321,CO,81082,LAS ANIMAS,NonProfit
140197,IL,60640,COOK,NonProfit
224042,MA,2346,PLYMOUTH,NonProfit
390153,PA,19301,CHESTER,NonProfit
440001,TN,37650,UNICOI,NonProfit
110050,GA,30705,MURRAY,NonProfit
31311,AZ,86047,NAVAJO,NonProfit
161367,IA,50219,MARION,NonProfit
110164,GA,31217,BIBB,NonProfit
210028,MD,20650,ST. MARYS,NonProfit
391312,PA,15825,JEFFERSON,NonProfit
350070,ND,58104,CASS,NonProfit
490011,VA,23505,NORFOLK CITY,NonProfit
310003,NJ,7047,HUDSON,NonProfit
100102,FL,32055,COLUMBIA,NonProfit
151302,IN,47348,BLACKFORD,NonProfit
50124,CA,91209,LOS ANGELES,NonProfit
310012,NJ,7450,BERGEN,NonProfit
431329,SD,57325,BRULE,NonProfit
70029,CT,6010,HARTFORD,NonProfit
330307,NY,14850,TOMPKINS,NonProfit
320011,NM,87532,RIO ARRIBA,NonProfit
30088,AZ,85206,MARICOPA,NonProfit
510039,WV,26003,OHIO,NonProfit
141316,IL,60942,VERMILION,NonProfit
280020,NE,68510,LANCASTER,NonProfit
263302,MO,64108,JACKSON,NonProfit
200018,ME,4769,AROOSTOOK,NonProfit
50082,CA,93030,VENTURA,NonProfit
351333,ND,58301,RAMSEY,NonProfit
321310,NM,87571,TAOS,NonProfit
361314,OH,43452,OTTAWA,NonProfit
490143,VA,23185,JAMES CITY,NonProfit
240064,MN,55744,ITASCA,NonProfit
260138,MO,64111,JACKSON,NonProfit
520083,WI,53715,DANE,NonProfit
390258,PA,19047,BUCKS,NonProfit
40051,AR,71655,DREW,NonProfit
521321,WI,54971,FOND DU LAC,NonProfit
240043,MN,56007,FREEBORN,NonProfit
281357,NE,69162,CHEYENNE,NonProfit
520059,WI,53105,RACINE,NonProfit
210003,MD,20785,PRINCE GEORGES,NonProfit
410012,RI,2906,PROVIDENCE,NonProfit
70033,CT,6810,FAIRFIELD,NonProfit
60130,CO,80918,EL PASO,NonProfit
490048,VA,24153,SALEM CITY,NonProfit
151324,IN,47978,JASPER,NonProfit
30093,AZ,85375,MARICOPA,NonProfit
104057,FL,34609,HERNANDO,NonProfit
191324,LA,70394,LAFOURCHE,NonProfit
370025,OK,74401,MUSKOGEE,NonProfit
351316,ND,58367,ROLETTE,NonProfit
200063,ME,4856,KNOX,NonProfit
270032,MT,59501,HILL,NonProfit
500039,WA,98310,KITSAP,NonProfit
390268,PA,16803,CENTRE,NonProfit
210017,MD,21550,GARRETT,NonProfit
270051,MT,59901,FLATHEAD,NonProfit
431328,SD,57070,TURNER,NonProfit
181305,KY,41649,FLOYD,NonProfit
360137,OH,44106,CUYAHOGA,NonProfit
53305,CA,94304,SANTA CLARA,NonProfit
450194,TX,75766,CHEROKEE,NonProfit
54089,CA,94112,SAN FRANCISCO,NonProfit
281341,NE,69337,DAWES,NonProfit
340023,NC,28792,HENDERSON,NonProfit
390219,PA,15650,WESTMORELAND,NonProfit
181324,KY,42164,ALLEN,NonProfit
310024,NJ,7065,UNION,NonProfit
370211,OK,73099,CANADIAN,NonProfit
490042,VA,24073,MONTGOMERY,NonProfit
60125,CO,80109,DOUGLAS,NonProfit
340028,NC,28302,CUMBERLAND,NonProfit
50444,CA,95340,MERCED,NonProfit
521351,WI,53959,SAUK,NonProfit
444003,TN,37830,ANDERSON,NonProfit
330197,NY,13676,ST. LAWRENCE,NonProfit
520041,WI,53901,COLUMBIA,NonProfit
371319,OK,74538,COAL,NonProfit
140001,IL,61520,FULTON,NonProfit
390080,PA,19111,PHILADELPHIA,NonProfit
140029,IL,60504,KANE,NonProfit
490017,VA,23707,PORTSMOUTH CITY,NonProfit
140120,IL,61554,TAZEWELL,NonProfit
161320,IA,50674,BREMER,NonProfit
360001,OH,45255,HAMILTON,NonProfit
200037,ME,4938,FRANKLIN,NonProfit
390009,PA,16544,ERIE,NonProfit
334027,NY,11701,SUFFOLK,NonProfit
150091,IN,46750,HUNTINGTON,NonProfit
180011,KY,40741,LAUREL,NonProfit
450072,TX,77566,BRAZORIA,NonProfit
520071,WI,53538,JEFFERSON,NonProfit
314012,NJ,8502,SOMERSET,NonProfit
40072,AR,72160,ARKANSAS,NonProfit
240093,MN,56001,BLUE EARTH,NonProfit
200034,ME,4243,ANDROSCOGGIN,NonProfit
140091,IL,61801,CHAMPAIGN,NonProfit
30115,AZ,85037,MARICOPA,NonProfit
520198,WI,54904,WINNEBAGO,NonProfit
330090,NY,14905,CHEMUNG,NonProfit
30013,AZ,85364,YUMA,NonProfit
50350,CA,90640,LOS ANGELES,NonProfit
41305,AR,72958,SCOTT,NonProfit
40007,AR,72205,PULASKI,NonProfit
51311,CA,95948,BUTTE,NonProfit
50352,CA,96150,EL DORADO,NonProfit
60001,CO,80631,WELD,NonProfit
670056,TX,78640,HAYS,NonProfit
190053,LA,70546,JEFFRSON DAVIS,NonProfit
40011,AR,72833,YELL,NonProfit
140181,IL,60617,COOK,NonProfit
444007,TN,37067,WILLIAMSON,NonProfit
400007,PR,791,HUMACAO,NonProfit
360071,OH,45891,VAN WERT,NonProfit
370227,OK,74055,TULSA,NonProfit
431332,SD,57231,KINGSBURY,NonProfit
180004,KY,42345,MUHLENBERG,NonProfit
670088,TX,77845,BRAZOS,NonProfit
130002,ID,83301,TWIN FALLS,NonProfit
281352,NE,68355,RICHARDSON,NonProfit
160047,IA,51503,POTTAWATTAMIE,NonProfit
240080,MN,55454,HENNEPIN,NonProfit
100173,FL,33613,HILLSBOROUGH,NonProfit
100044,FL,34995,MARTIN,NonProfit
390081,PA,19026,DELAWARE,NonProfit
210029,MD,21224,BALTIMORE CITY,NonProfit
450755,TX,79336,HOCKLEY,NonProfit
330184,NY,10802,WESTCHESTER,NonProfit
140013,IL,61614,PEORIA,NonProfit
260102,MO,64139,JACKSON,NonProfit
190176,LA,70112,ORLEANS,NonProfit
190274,LA,70065,JEFFERSON,NonProfit
331310,NY,12428,ULSTER,NonProfit
490107,VA,20190,FAIRFAX,NonProfit
330073,NY,14020,GENESEE,NonProfit
330157,NY,13601,JEFFERSON,NonProfit
230176,MI,48183,WAYNE,NonProfit
340070,NC,27216,ALAMANCE,NonProfit
371310,OK,73438,CARTER,NonProfit
140213,IL,60451,WILL,NonProfit
310002,NJ,7112,ESSEX,NonProfit
41314,AR,72042,ARKANSAS,NonProfit
340188,NC,28376,HOKE,NonProfit
100043,FL,34698,PINELLAS,NonProfit
450010,TX,76301,WICHITA,NonProfit
390160,PA,15317,WASHINGTON,NonProfit
440018,TN,37643,CARTER,NonProfit
120011,HI,96819,HONOLULU,NonProfit
521343,WI,53589,DANE,NonProfit
270023,MT,59804,MISSOULA,NonProfit
210063,MD,21204,BALTIMORE,NonProfit
493301,VA,23507,NORFOLK CITY,NonProfit
380025,OR,97030,MULTNOMAH,NonProfit
231311,MI,48427,SANILAC,NonProfit
260091,MO,63117,ST. LOUIS,NonProfit
260108,MO,63131,ST. LOUIS,NonProfit
450211,TX,75901,ANGELINA,NonProfit
360145,OH,44035,LORAIN,NonProfit
670128,TX,78660,TRAVIS,NonProfit
390042,PA,15301,WASHINGTON,NonProfit
490038,VA,24354,SMYTH,NonProfit
390267,PA,15146,ALLEGHENY,NonProfit
141339,IL,62568,CHRISTIAN,NonProfit
360011,OH,43302,MARION,NonProfit
330162,NY,10549,WESTCHESTER,NonProfit
440130,TN,38261,OBION,NonProfit
374020,OK,74136,TULSA,NonProfit
241378,MN,56073,BROWN,NonProfit
220119,MA,2130,SUFFOLK,NonProfit
50137,CA,91402,LOS ANGELES,NonProfit
31309,AZ,86505,APACHE,NonProfit
154005,IN,47906,TIPPECANOE,NonProfit
450684,TX,77338,HARRIS,NonProfit
150179,IN,46256,MARION,NonProfit
521319,WI,53534,ROCK,NonProfit
400010,PR,631,LARES,NonProfit
310057,NJ,8060,BURLINGTON,NonProfit
490077,VA,22911,ALBEMARLE,NonProfit
60010,CO,80524,LARIMER,NonProfit
521337,WI,54024,POLK,NonProfit
360091,OH,44256,MEDINA,NonProfit
260209,MO,65251,CALLAWAY,NonProfit
440009,TN,38555,CUMBERLAND,NonProfit
300003,NH,3756,GRAFTON,NonProfit
360245,OH,44084,ASHTABULA,NonProfit
110129,GA,31995,MUSCOGEE,NonProfit
310041,NJ,8755,OCEAN,NonProfit
450639,TX,76022,TARRANT,NonProfit
360359,OH,44122,CUYAHOGA,NonProfit
213300,MD,21209,BALTIMORE CITY,NonProfit
110165,GA,30274,CLAYTON,NonProfit
230193,MI,48446,LAPEER,NonProfit
360197,OH,43311,LOGAN,NonProfit
280060,NE,68124,DOUGLAS,NonProfit
301310,NH,3570,COOS,NonProfit
360192,OH,44024,GEAUGA,NonProfit
330166,NY,14787,CHAUTAUQUA,NonProfit
520057,WI,53913,SAUK,NonProfit
370218,OK,74133,TULSA,NonProfit
390233,PA,17331,YORK,NonProfit
140011,IL,62948,WILLIAMSON,NonProfit
160033,IA,52803,SCOTT,NonProfit
270057,MT,59715,GALLATIN,NonProfit
201315,ME,4268,OXFORD,NonProfit
151328,IN,47421,LAWRENCE,NonProfit
151301,IN,47394,RANDOLPH,NonProfit
50101,CA,94589,SOLANO,NonProfit
310111,NJ,7728,MONMOUTH,NonProfit
171363,KS,66508,MARSHALL,NonProfit
360172,OH,44053,LORAIN,NonProfit
50300,CA,92307,SAN BERNARDINO,NonProfit
140058,IL,62650,MORGAN,NonProfit
140062,IL,60463,COOK,NonProfit
310008,NJ,7666,BERGEN,NonProfit
54148,CA,91356,LOS ANGELES,NonProfit
460049,UT,84107,SALT LAKE,NonProfit
271331,MT,59872,MINERAL,NonProfit
54123,CA,95204,SAN JOAQUIN,NonProfit
331305,NY,13753,DELAWARE,NonProfit
341329,NC,28777,MITCHELL,NonProfit
10007,AL,36467,COVINGTON,NonProfit
300012,NH,3103,HILLSBOROUGH,NonProfit
390117,PA,15537,BEDFORD,NonProfit
391308,PA,16407,ERIE,NonProfit
340186,NC,27889,BEAUFORT,NonProfit
271319,MT,59749,MADISON,NonProfit
180016,KY,40065,SHELBY,NonProfit
241302,MN,56183,COTTONWOOD,NonProfit
160024,IA,50316,POLK,NonProfit
390326,PA,18045,NORTHAMPTON,NonProfit
34023,AZ,86004,COCONINO,NonProfit
340047,NC,27157,FORSYTH,NonProfit
230072,MI,49423,OTTAWA,NonProfit
490063,VA,22042,FAIRFAX,NonProfit
331302,NY,12932,ESSEX,NonProfit
450064,TX,76012,TARRANT,NonProfit
330214,NY,10016,NEW YORK,NonProfit
270012,MT,59405,CASCADE,NonProfit
103304,FL,32827,ORANGE,NonProfit
370236,OK,73034,OKLAHOMA,NonProfit
360074,OH,43560,LUCAS,NonProfit
260216,MO,64086,JACKSON,NonProfit
340096,NC,27293,DAVIDSON,NonProfit
50779,CA,90059,LOS ANGELES,NonProfit
140002,IL,62002,MADISON,NonProfit
50761,CA,91356,LOS ANGELES,NonProfit
520034,WI,54241,MANITOWOC,NonProfit
310054,NJ,7042,ESSEX,NonProfit
351311,ND,58054,RANSOM,NonProfit
180036,KY,41101,BOYD,NonProfit
30065,AZ,85202,MARICOPA,NonProfit
520004,WI,54601,LA CROSSE,NonProfit
520008,WI,53188,WAUKESHA,NonProfit
520019,WI,54501,ONEIDA,NonProfit
131325,ID,83221,BINGHAM,NonProfit
171333,KS,67544,BARTON,NonProfit
460006,UT,84143,SALT LAKE,NonProfit
310015,NJ,7960,MORRIS,NonProfit
100018,FL,34102,COLLIER,NonProfit
521314,WI,54724,CHIPPEWA,NonProfit
351328,ND,58552,EMMONS,NonProfit
360066,OH,45801,ALLEN,NonProfit
460061,UT,84041,DAVIS,NonProfit
200009,ME,4102,CUMBERLAND,NonProfit
310075,NJ,7740,MONMOUTH,NonProfit
220177,MA,2554,NANTUCKET,NonProfit
521335,WI,54016,ST. CROIX,NonProfit
490084,VA,22560,ESSEX,NonProfit
460023,UT,84003,UTAH,NonProfit
160045,IA,52402,LINN,NonProfit
330219,NY,14215,ERIE,NonProfit
471300,VT,5353,WINDHAM,NonProfit
510077,WV,25661,MINGO,NonProfit
154014,IN,46562,KOSCIUSKO,NonProfit
330270,NY,10021,NEW YORK,NonProfit
454085,TX,77573,GALVESTON,NonProfit
230003,MI,49464,OTTAWA,NonProfit
360027,OH,44307,SUMMIT,NonProfit
41326,AR,71639,DESHA,NonProfit
131326,ID,83318,CASSIA,NonProfit
400104,PR,725,CAGUAS,NonProfit
181329,KY,40403,MADISON,NonProfit
361320,OH,45640,JACKSON,NonProfit
140276,IL,60153,COOK,NonProfit
360051,OH,45409,MONTGOMERY,NonProfit
360003,OH,45219,HAMILTON,NonProfit
511300,WV,26416,BARBOUR,NonProfit
330056,NY,11201,KINGS,NonProfit
310084,NJ,8701,OCEAN,NonProfit
140164,IL,62901,JACKSON,NonProfit
453302,TX,75235,DALLAS,NonProfit
271308,MT,59218,ROOSEVELT,NonProfit
331313,NY,14865,SCHUYLER,NonProfit
450210,TX,75633,PANOLA,NonProfit
450669,TX,75057,DENTON,NonProfit
150069,IN,47250,JEFFERSON,NonProfit
11305,AL,35121,BLOUNT,NonProfit
160147,IA,50112,POWESHIEK,NonProfit
281336,NE,68467,YORK,NonProfit
60006,CO,81401,MONTROSE,NonProfit
140307,IL,62269,ST. CLAIR,NonProfit
420020,SC,29440,GEORGETOWN,NonProfit
503300,WA,98105,KING,NonProfit
281364,NE,68310,GAGE,NonProfit
160080,IA,52732,CLINTON,NonProfit
381324,OR,97741,JEFFERSON,NonProfit
50714,CA,95065,SANTA CRUZ,NonProfit
50060,CA,93721,FRESNO,NonProfit
241305,MN,56431,AITKIN,NonProfit
50496,CA,94520,CONTRA COSTA,NonProfit
490126,VA,24457,ALLEGHANY,NonProfit
100107,FL,33936,LEE,NonProfit
50755,CA,91403,LOS ANGELES,NonProfit
100156,FL,32055,COLUMBIA,NonProfit
500015,WA,98001,KING,NonProfit
390113,PA,16335,CRAWFORD,NonProfit
281345,NE,68787,WAYNE,NonProfit
260227,MO,63901,BUTLER,NonProfit
144035,IL,60540,DU PAGE,NonProfit
341323,NC,28646,AVERY,NonProfit
41328,AR,71653,CHICOT,NonProfit
271340,MT,59840,RAVALLI,NonProfit
370019,OK,73644,BECKHAM,NonProfit
210055,MD,20707,PRINCE GEORGES,NonProfit
450372,TX,75165,ELLIS,NonProfit
341311,NC,27344,CHATHAM,NonProfit
40004,AR,72703,WASHINGTON,NonProfit
360159,OH,45601,ROSS,NonProfit
390163,PA,16201,ARMSTRONG,NonProfit
50224,CA,92663,ORANGE,NonProfit
110194,GA,39845,SEMINOLE,NonProfit
450184,TX,77008,HARRIS,NonProfit
420078,SC,29605,GREENVILLE,NonProfit
340004,NC,27261,GUILFORD,NonProfit
330401,NY,11787,SUFFOLK,NonProfit
50231,CA,91767,LOS ANGELES,NonProfit
400016,PR,918,SAN JUAN,NonProfit
670034,TX,78664,WILLIAMSON,NonProfit
30105,AZ,85206,MARICOPA,NonProfit
30103,AZ,85054,MARICOPA,NonProfit
140147,IL,62450,RICHLAND,NonProfit
150023,IN,47804,VIGO,NonProfit
350015,ND,58506,BURLEIGH,NonProfit
351305,ND,58746,WARD,NonProfit
390312,PA,19124,PHILADELPHIA,NonProfit
313300,NJ,8901,MIDDLESEX,NonProfit
31317,AZ,85344,LAPAZ,NonProfit
40132,AR,71901,GARLAND,NonProfit
251315,MS,39051,LEAKE,NonProfit
140281,IL,60611,COOK,NonProfit
94004,DC,20016,THE DISTRICT,NonProfit
490140,VA,22554,STAFFORD,NonProfit
190041,LA,71105,CADDO,NonProfit
231332,MI,49079,VAN BUREN,NonProfit
390328,PA,15146,ALLEGHENY,NonProfit
450011,TX,77802,BRAZOS,NonProfit
360362,OH,45241,HAMILTON,NonProfit
420018,SC,29203,RICHLAND,NonProfit
230151,MI,48336,OAKLAND,NonProfit
271311,MT,59520,CHOUTEAU,NonProfit
381314,OR,97365,LINCOLN,NonProfit
431324,SD,57382,JERAULD,NonProfit
150026,IN,46526,ELKHART,NonProfit
54147,CA,91335,LOS ANGELES,NonProfit
370030,OK,74631,KAY,NonProfit
100319,FL,33544,PASCO,NonProfit
310081,NJ,8096,GLOUCESTER,NonProfit
210037,MD,21601,TALBOT,NonProfit
310096,NJ,7102,ESSEX,NonProfit
231316,MI,48726,TUSCOLA,NonProfit
450867,TX,78759,TRAVIS,NonProfit
230133,MI,49735,OTSEGO,NonProfit
363303,OH,44308,SUMMIT,NonProfit
360355,OH,45502,CLARK,NonProfit
50039,CA,95926,BUTTE,NonProfit
330044,NY,13503,ONEIDA,NonProfit
230030,MI,48801,GRATIOT,NonProfit
380017,OR,97210,MULTNOMAH,NonProfit
180115,KY,40456,ROCKCASTLE,NonProfit
220002,MA,2138,MIDDLESEX,NonProfit
351331,ND,58324,TOWNER,NonProfit
360046,OH,45056,BUTLER,NonProfit
431300,SD,57042,LAKE,NonProfit
30006,AZ,85712,PIMA,NonProfit
54075,CA,91942,SAN DIEGO,NonProfit
230070,MI,48602,SAGINAW,NonProfit
190044,LA,70526,ACADIA,NonProfit
360012,OH,43081,FRANKLIN,NonProfit
400111,PR,676,MOCA,NonProfit
240057,MN,55407,HENNEPIN,NonProfit
461310,UT,84511,SAN JUAN,NonProfit
50561,CA,90034,LOS ANGELES,NonProfit
60076,CO,80751,LOGAN,NonProfit
390201,PA,18301,MONROE,NonProfit
370020,OK,74820,PONTOTOC,NonProfit
340002,NC,28801,BUNCOMBE,NonProfit
391304,PA,17764,CLINTON,NonProfit
50407,CA,94133,SAN FRANCISCO,NonProfit
270089,MT,59716,GALLATIN,NonProfit
51329,CA,95453,LAKE,NonProfit
241337,MN,56762,MARSHALL,NonProfit
440180,TN,37762,CAMPBELL,NonProfit
221302,MA,1230,BERKSHIRE,NonProfit
500016,WA,98807,CHELAN,NonProfit
150074,IN,46219,MARION,NonProfit
53301,CA,94609,ALAMEDA,NonProfit
391301,PA,17756,LYCOMING,NonProfit
63301,CO,80045,ADAMS,NonProfit
140242,IL,60190,DU PAGE,NonProfit
180051,KY,42240,CHRISTIAN,NonProfit
360185,OH,44460,COLUMBIANA,NonProfit
43300,AR,72202,PULASKI,NonProfit
140234,IL,61354,LA SALLE,NonProfit
260137,MO,64804,JASPER,NonProfit
330236,NY,11215,KINGS,NonProfit
351322,ND,58413,MCINTOSH,NonProfit
190002,LA,70503,LAFAYETTE,NonProfit
34027,AZ,85929,NAVAJO,NonProfit
380050,OR,97601,KLAMATH,NonProfit
181331,KY,41647,FLOYD,NonProfit
50305,CA,94705,ALAMEDA,NonProfit
364042,OH,44621,TUSCARAWAS,NonProfit
200019,ME,4005,YORK,NonProfit
241313,MN,56510,NORMAN,NonProfit
360123,OH,44145,CUYAHOGA,NonProfit
521331,WI,54840,BURNETT,NonProfit
520160,WI,54911,OUTAGAMIE,NonProfit
500036,WA,98902,YAKIMA,NonProfit
390102,PA,15215,ALLEGHENY,NonProfit
260162,MO,63141,ST. LOUIS,NonProfit
124001,HI,96706,HONOLULU,NonProfit
381301,OR,97424,LANE,NonProfit
140103,IL,60621,COOK,NonProfit
294003,NV,89512,WASHOE,NonProfit
180080,KY,40701,WHITLEY,NonProfit
10100,AL,36532,BALDWIN,NonProfit
201311,ME,4654,WASHINGTON,NonProfit
490127,VA,24614,BUCHANAN,NonProfit
450424,TX,77521,HARRIS,NonProfit
431311,SD,57274,DAY,NonProfit
151323,IN,46761,LAGRANGE,NonProfit
391316,PA,16901,TIOGA,NonProfit
450820,TX,77479,FORT BEND,NonProfit
104076,FL,32826,ORANGE,NonProfit
301306,NH,3235,MERRIMACK,NonProfit
521308,WI,54001,POLK,NonProfit
241311,MN,55307,SIBLEY,NonProfit
391306,PA,18801,SUSQUEHANNA,NonProfit
180138,KY,40031,OLDHAM,NonProfit
361315,OH,43326,HARDIN,NonProfit
241352,MN,56087,BROWN,NonProfit
371312,OK,74066,CREEK,NonProfit
390194,PA,18235,CARBON,NonProfit
231306,MI,49781,MACKINAC,NonProfit
260020,MO,63141,ST. LOUIS,NonProfit
380061,OR,97213,MULTNOMAH,NonProfit
220100,MA,2190,NORFOLK,NonProfit
330108,NY,14901,CHEMUNG,NonProfit
420011,SC,29671,PICKENS,NonProfit
230029,MI,48341,OAKLAND,NonProfit
450694,TX,77437,WHARTON,NonProfit
80003,DE,19805,NEW CASTLE,NonProfit
150113,IN,46011,MADISON,NonProfit
190006,LA,70506,LAFAYETTE,NonProfit
140018,IL,60608,COOK,NonProfit
181316,KY,41749,LESLIE,NonProfit
340008,NC,28352,SCOTLAND,NonProfit
444010,TN,38301,MADISON,NonProfit
490093,VA,23666,HAMPTON CITY,NonProfit
330235,NY,13021,CAYUGA,NonProfit
450828,TX,78332,JIM WELLS,NonProfit
260047,MO,65102,COLE,NonProfit
330094,NY,12534,COLUMBIA,NonProfit
340050,NC,28359,ROBESON,NonProfit
110010,GA,30322,DE KALB,NonProfit
471305,VT,5661,LAMOILLE,NonProfit
44017,AR,72113,PULASKI,NonProfit
110078,GA,30308,FULTON,NonProfit
240071,MN,55021,RICE,NonProfit
390265,PA,15025,ALLEGHENY,NonProfit
150173,IN,47905,TIPPECANOE,NonProfit
180141,KY,40202,JEFFERSON,NonProfit
504008,WA,99352,BENTON,NonProfit
420057,SC,29540,DARLINGTON,NonProfit
300019,NH,3431,CHESHIRE,NonProfit
330100,NY,10003,NEW YORK,NonProfit
141304,IL,61231,MERCER,NonProfit
390157,PA,15136,ALLEGHENY,NonProfit
511306,WV,25276,ROANE,NonProfit
520189,WI,53142,KENOSHA,NonProfit
100106,FL,32348,TAYLOR,NonProfit
100117,FL,32250,DUVAL,NonProfit
351318,ND,58421,FOSTER,NonProfit
330101,NY,10065,NEW YORK,NonProfit
341304,NC,27983,BERTIE,NonProfit
100175,FL,34265,DE SOTO,NonProfit
51318,CA,95540,HUMBOLDT,NonProfit
110190,GA,31063,DOOLY,NonProfit
110161,GA,30342,FULTON,NonProfit
431310,SD,57028,MOODY,NonProfit
220016,MA,1301,FRANKLIN,NonProfit
360029,OH,43402,WOOD,NonProfit
360039,OH,43701,MUSKINGUM,NonProfit
453315,TX,78207,BEXAR,NonProfit
390173,PA,15701,INDIANA,NonProfit
201310,ME,4009,CUMBERLAND,NonProfit
431334,SD,57580,TRIPP,NonProfit
40029,AR,72034,FAULKNER,NonProfit
271305,MT,59215,MCCONE,NonProfit
231324,MI,48827,EATON,NonProfit
300020,NH,3060,HILLSBOROUGH,NonProfit
214000,MD,21204,BALTIMORE,NonProfit
400012,PR,935,SAN JUAN,NonProfit
330221,NY,11237,KINGS,NonProfit
100125,FL,33033,MIAMI-DADE,NonProfit
110038,GA,31792,THOMAS,NonProfit
160008,IA,52632,LEE,NonProfit
431336,SD,57069,CLAY,NonProfit
280128,NE,68526,LANCASTER,NonProfit
100315,FL,32940,BREVARD,NonProfit
521309,WI,53934,ADAMS,NonProfit
460044,UT,84094,SALT LAKE,NonProfit
30131,AZ,85008,MARICOPA,NonProfit
510029,WV,25309,KANAWHA,NonProfit
451374,TX,76574,WILLIAMSON,NonProfit
440125,TN,37916,KNOX,NonProfit
360044,OH,45331,DARKE,NonProfit
521304,WI,54634,VERNON,NonProfit
511307,WV,26354,TAYLOR,NonProfit
431330,SD,57366,HUTCHINSON,NonProfit
60116,CO,80026,BOULDER,NonProfit
511315,WV,26726,MINERAL,NonProfit
450779,TX,76132,TARRANT,NonProfit
394047,PA,18069,LEHIGH,NonProfit
280040,NE,68114,DOUGLAS,NonProfit
460043,UT,84057,UTAH,NonProfit
210005,MD,21701,FREDERICK,NonProfit
390203,PA,18901,BUCKS,NonProfit
251312,MS,38967,MONTGOMERY,NonProfit
90006,DC,20017,THE DISTRICT,NonProfit
330119,NY,10021,NEW YORK,NonProfit
181314,KY,42749,HART,NonProfit
314019,NJ,7481,BERGEN,NonProfit
460015,UT,84341,CACHE,NonProfit
394049,PA,19034,MONTGOMERY,NonProfit
230005,MI,49221,LENAWEE,NonProfit
180130,KY,40207,JEFFERSON,NonProfit
390073,PA,16601,BLAIR,NonProfit
521356,WI,54153,OCONTO,NonProfit
230142,MI,48184,WAYNE,NonProfit
400003,PR,733,PONCE,NonProfit
140251,IL,60634,COOK,NonProfit
360143,OH,44125,CUYAHOGA,NonProfit
201300,ME,4614,HANCOCK,NonProfit
213301,MD,21205,BALTIMORE CITY,NonProfit
220083,MA,2494,NORFOLK,NonProfit
330387,NY,10021,NEW YORK,NonProfit
100128,FL,33606,HILLSBOROUGH,NonProfit
260023,MO,63028,JEFFERSON,NonProfit
330408,NY,13838,DELAWARE,NonProfit
341316,NC,28741,MACON,NonProfit
231331,MI,48846,IONIA,NonProfit
131311,ID,83647,ELMORE,NonProfit
330088,NY,11944,SUFFOLK,NonProfit
394033,PA,19403,MONTGOMERY,NonProfit
140046,IL,62864,JEFFERSON,NonProfit
330013,NY,12208,ALBANY,NonProfit
53302,CA,90027,LOS ANGELES,NonProfit
450192,TX,76645,HILL,NonProfit
154052,IN,46383,PORTER,NonProfit
440032,TN,37857,HAWKINS,NonProfit
310112,NJ,7733,MONMOUTH,NonProfit
151300,IN,46506,MARSHALL,NonProfit
521324,WI,54451,TAYLOR,NonProfit
160028,IA,51503,POTTAWATTAMIE,NonProfit
154021,IN,46952,GRANT,NonProfit
100006,FL,32806,ORANGE,NonProfit
330043,NY,11706,SUFFOLK,NonProfit
231333,MI,49938,GOGEBIC,NonProfit
50006,CA,95501,HUMBOLDT,NonProfit
450370,TX,78934,COLORADO,NonProfit
141335,IL,60033,MC HENRY,NonProfit
361309,OH,43545,HENRY,NonProfit
241326,MN,56347,TODD,NonProfit
420009,SC,29672,OCONEE,NonProfit
390329,PA,19403,MONTGOMERY,NonProfit
453301,TX,78411,NUECES,NonProfit
511309,WV,25411,MORGAN,NonProfit
330273,NY,10512,PUTNAM,NonProfit
301304,NH,3257,MERRIMACK,NonProfit
184006,KY,41018,KENTON,NonProfit
151316,IN,46041,CLINTON,NonProfit
470011,VT,5301,WINDHAM,NonProfit
241360,MN,56636,ITASCA,NonProfit
360218,OH,43055,LICKING,NonProfit
160013,IA,52761,MUSCATINE,NonProfit
260110,MO,63701,CAPE GIRARDEAU,NonProfit
281315,NE,68978,NUCKOLLS,NonProfit
390002,PA,15132,ALLEGHENY,NonProfit
100088,FL,32207,DUVAL,NonProfit
54083,CA,90011,LOS ANGELES,NonProfit
250067,MS,39773,CLAY,NonProfit
280065,NE,69101,LINCOLN,NonProfit
231312,MI,48884,MONTCALM,NonProfit
281331,NE,68729,KNOX,NonProfit
134016,ID,83201,BANNOCK,NonProfit
241363,MN,56267,STEVENS,NonProfit
100307,FL,32216,DUVAL,NonProfit
41303,AR,72949,FRANKLIN,NonProfit
251308,MS,38863,PONTOTOC,NonProfit
521357,WI,53147,WALWORTH,NonProfit
301301,NH,3785,GRAFTON,NonProfit
261329,MO,65708,BARRY,NonProfit
280061,NE,69361,SCOTT BLUFF,NonProfit
223300,MA,2135,SUFFOLK,NonProfit
110005,GA,30041,FORSYTH,NonProfit
520028,WI,53566,GREEN,NonProfit
521345,WI,54017,ST. CROIX,NonProfit
41321,AR,71923,CLARK,NonProfit
230259,MI,48118,WASHTENAW,NonProfit
190111,LA,71103,CADDO,NonProfit
61327,CO,81321,MONTEZUMA,NonProfit
351302,ND,58854,MCKENZIE,NonProfit
500077,WA,99208,SPOKANE,NonProfit
271325,MT,59864,LAKE,NonProfit
200020,ME,3909,YORK,NonProfit
240063,MN,55102,RAMSEY,NonProfit
330195,NY,11040,NASSAU,NonProfit
210045,MD,21817,SOMERSET,NonProfit
490023,VA,20186,FAUQUIER,NonProfit
241340,MN,55705,ST. LOUIS,NonProfit
120028,HI,96743,HAWAII,NonProfit
240053,MN,55426,HENNEPIN,NonProfit
330394,NY,13903,BROOME,NonProfit
330045,NY,11743,SUFFOLK,NonProfit
240100,MN,56601,BELTRAMI,NonProfit
220105,MA,1890,MIDDLESEX,NonProfit
180029,KY,41701,PERRY,NonProfit
360025,OH,44870,ERIE,NonProfit
361310,OH,44890,HURON,NonProfit
451391,TX,78061,FRIO,NonProfit
10113,AL,36652,MOBILE,NonProfit
151306,IN,47454,ORANGE,NonProfit
521316,WI,54773,TREMPEALEAU,NonProfit
520044,WI,53081,SHEBOYGAN,NonProfit
340115,NC,28374,MOORE,NonProfit
510008,WV,25401,BERKELEY,NonProfit
190190,LA,71418,CALDWELL,NonProfit
450102,TX,75701,SMITH,NonProfit
420049,SC,29526,HORRY,NonProfit
241318,MN,55731,ST. LOUIS,NonProfit
451300,TX,79035,PARMER,NonProfit
360054,OH,45631,GALLIA,NonProfit
521320,WI,54660,MONROE,NonProfit
390049,PA,18015,NORTHAMPTON,NonProfit
151309,IN,47834,CLAY,NonProfit
520089,WI,53715,DANE,NonProfit
340085,NC,27360,DAVIDSON,NonProfit
380089,OR,97062,WASHINGTON,NonProfit
450068,TX,77030,HARRIS,NonProfit
431338,SD,57533,GREGORY,NonProfit
140143,IL,61362,BUREAU,NonProfit
450604,TX,78624,GILLESPIE,NonProfit
220075,MA,2114,SUFFOLK,NonProfit
50492,CA,93611,FRESNO,NonProfit
340069,NC,27610,WAKE,NonProfit
330023,NY,12601,DUTCHESS,NonProfit
83300,DE,19899,NEW CASTLE,NonProfit
141322,IL,62656,LOGAN,NonProfit
400019,PR,910,SAN JUAN,NonProfit
50238,CA,91006,LOS ANGELES,NonProfit
340015,NC,28144,ROWAN,NonProfit
330332,NY,11714,NASSAU,NonProfit
451348,TX,76825,MC CULLOCH,NonProfit
161309,IA,51555,HARRISON,NonProfit
50503,CA,92024,SAN DIEGO,NonProfit
200033,ME,4401,PENOBSCOT,NonProfit
490050,VA,22205,ARLINGTON,NonProfit
73300,CT,6106,HARTFORD,NonProfit
100131,FL,33180,MIAMI-DADE,NonProfit
41313,AR,72031,VAN BUREN,NonProfit
301307,NH,3860,CARROLL,NonProfit
41318,AR,72927,LOGAN,NonProfit
301300,NH,3576,COOS,NonProfit
431319,SD,57567,HAAKON,NonProfit
160057,IA,52655,DES MOINES,NonProfit
280077,NE,68025,DODGE,NonProfit
10018,AL,35233,JEFFERSON,NonProfit
461301,UT,84631,MILLARD,NonProfit
511308,WV,26624,BRAXTON,NonProfit
271322,MT,59254,SHERIDAN,NonProfit
230254,MI,48307,OAKLAND,NonProfit
70027,CT,6040,HARTFORD,NonProfit
260142,MO,65340,SALINE,NonProfit
271327,MT,59327,ROSEBUD,NonProfit
50116,CA,91325,LOS ANGELES,NonProfit
370047,OK,73401,CARTER,NonProfit
171316,KS,66032,ANDERSON,NonProfit
70034,CT,6856,FAIRFIELD,NonProfit
330030,NY,14513,WAYNE,NonProfit
140191,IL,60426,COOK,NonProfit
500129,WA,98405,PIERCE,NonProfit
450865,TX,78737,HAYS,NonProfit
140206,IL,60622,COOK,NonProfit
34004,AZ,85251,MARICOPA,NonProfit
500005,WA,98101,KING,NonProfit
161316,IA,52175,FAYETTE,NonProfit
490114,VA,24219,WISE,NonProfit
171350,KS,67665,RUSSELL,NonProfit
300014,NH,3867,STRAFFORD,NonProfit
360076,OH,45005,WARREN,NonProfit
160146,IA,51104,WOODBURY,NonProfit
241359,MN,56258,LYON,NonProfit
110083,GA,30309,FULTON,NonProfit
450346,TX,77701,JEFFERSON,NonProfit
61301,CO,81132,RIO GRANDE,NonProfit
271300,MT,59255,ROOSEVELT,NonProfit
100002,FL,33435,PALM BEACH,NonProfit
390030,PA,17901,SCHUYLKILL,NonProfit
160117,IA,52001,DUBUQUE,NonProfit
210012,MD,21215,BALTIMORE CITY,NonProfit
261331,MO,64850,NEWTON,NonProfit
70011,CT,6790,LITCHFIELD,NonProfit
520139,WI,53227,MILWAUKEE,NonProfit
271335,MT,59711,DEER LODGE,NonProfit
161350,IA,51449,CALHOUN,NonProfit
380018,OR,97504,JACKSON,NonProfit
143302,IL,60707,COOK,NonProfit
241381,MN,56701,PENNINGTON,NonProfit
290045,NV,89052,CLARK,NonProfit
271317,MT,59047,PARK,NonProfit
351313,ND,58623,BOWMAN,NonProfit
131323,ID,83340,BLAINE,NonProfit
181321,KY,42633,WAYNE,NonProfit
220029,MA,1950,ESSEX,NonProfit
223303,MA,1104,HAMPDEN,NonProfit
340060,NC,27288,ROCKINGHAM,NonProfit
131327,ID,83843,LATAH,NonProfit
250002,MS,38852,TISHOMINGO,NonProfit
320004,NM,88310,OTERO,NonProfit
380056,OR,97383,MARION,NonProfit
450351,TX,76401,ERATH,NonProfit
193301,LA,71103,CADDO,NonProfit
34030,AZ,85712,PIMA,NonProfit
220031,MA,2118,SUFFOLK,NonProfit
420102,SC,29615,GREENVILLE,NonProfit
50537,CA,95616,YOLO,NonProfit
181304,KY,42211,TRIGG,NonProfit
360020,OH,44309,SUMMIT,NonProfit
310005,NJ,8822,HUNTERDON,NonProfit
330406,NY,12308,SCHENECTADY,NonProfit
390204,PA,19152,PHILADELPHIA,NonProfit
50414,CA,95630,SACRAMENTO,NonProfit
281310,NE,69154,GARDEN,NonProfit
420005,SC,29536,DILLON,NonProfit
390063,PA,16550,ERIE,NonProfit
141347,IL,62626,MACOUPIN,NonProfit
181315,KY,40484,LINCOLN,NonProfit
201312,ME,4915,WALDO,NonProfit
260077,MO,63128,ST. LOUIS,NonProfit
261328,MO,64402,GENTRY,NonProfit
184007,KY,40207,JEFFERSON,NonProfit
161354,IA,51445,IDA,NonProfit
320086,NM,88201,CHAVES,NonProfit
310011,NJ,8210,CAPE MAY,NonProfit
234011,MI,48220,OAKLAND,NonProfit
450539,TX,79072,HALE,NonProfit
290009,NV,89503,WASHOE,NonProfit
331312,NY,13856,DELAWARE,NonProfit
520113,WI,54143,MARINETTE,NonProfit
171378,KS,67068,KINGMAN,NonProfit
500037,WA,98948,YAKIMA,NonProfit
230264,MI,48091,MACOMB,NonProfit
131313,ID,83422,TETON,NonProfit
420033,SC,29650,GREENVILLE,NonProfit
231314,MI,48471,SANILAC,NonProfit
240001,MN,55422,HENNEPIN,NonProfit
390195,PA,19096,MONTGOMERY,NonProfit
301311,NH,3264,GRAFTON,NonProfit
120004,HI,96786,HONOLULU,NonProfit
50078,CA,90732,LOS ANGELES,NonProfit
340014,NC,27103,FORSYTH,NonProfit
390004,PA,17011,CUMBERLAND,NonProfit
351310,ND,58545,MERCER,NonProfit
230195,MI,48093,MACOMB,NonProfit
360026,OH,45385,GREENE,NonProfit
230046,MI,48109,WASHTENAW,NonProfit
30111,AZ,85713,PIMA,NonProfit
230141,MI,48532,GENESEE,NonProfit
271301,MT,59313,FALLON,NonProfit
220070,MA,2176,MIDDLESEX,NonProfit
171358,KS,67456,MCPHERSON,NonProfit
490122,VA,22306,FAIRFAX,NonProfit
230216,MI,48060,ST. CLAIR,NonProfit
490005,VA,22601,WINCHESTER CITY,NonProfit
40020,AR,72401,CRAIGHEAD,NonProfit
241315,MN,56143,JACKSON,NonProfit
151319,IN,47670,GIBSON,NonProfit
491303,VA,24228,DICKENSON,NonProfit
310092,NJ,8638,MERCER,NonProfit
460021,UT,84790,WASHINGTON,NonProfit
250152,MS,39216,HINDS,NonProfit
351306,ND,58425,GRIGGS,NonProfit
450034,TX,77702,JEFFERSON,NonProfit
390178,PA,16125,MERCER,NonProfit
50528,CA,93635,MERCED,NonProfit
230236,MI,49519,KENT,NonProfit
171314,KS,66097,JEFFERSON,NonProfit
100090,FL,32086,ST. JOHNS,NonProfit
150165,IN,46321,LAKE,NonProfit
650003,GU,96929,GUAM,NonProfit
204006,ME,4401,PENOBSCOT,NonProfit
390104,PA,16735,MC KEAN,NonProfit
220035,MA,1970,ESSEX,NonProfit
60114,CO,80138,DOUGLAS,NonProfit
240166,MN,56031,MARTIN,NonProfit
140095,IL,60623,COOK,NonProfit
520116,WI,53098,DODGE,NonProfit
390156,PA,19023,DELAWARE,NonProfit
490098,VA,23970,MECKLENBURG,NonProfit
310074,NJ,7302,HUDSON,NonProfit
161336,IA,51247,SIOUX,NonProfit
100032,FL,33701,PINELLAS,NonProfit
140182,IL,60657,COOK,NonProfit
431309,SD,57523,GREGORY,NonProfit
520035,WI,53083,SHEBOYGAN,NonProfit
180001,KY,41075,CAMPBELL,NonProfit
501332,WA,99403,ASOTIN,NonProfit
141330,IL,61747,TAZEWELL,NonProfit
340032,NC,28052,GASTON,NonProfit
514011,WV,26301,HARRISON,NonProfit
100019,FL,32901,BREVARD,NonProfit
330229,NY,14048,CHAUTAUQUA,NonProfit
231317,MI,48850,MONTCALM,NonProfit
521347,WI,54002,ST. CROIX,NonProfit
230017,MI,49007,KALAMAZOO,NonProfit
241362,MN,55362,WRIGHT,NonProfit
50192,CA,93654,FRESNO,NonProfit
150006,IN,46350,LA PORTE,NonProfit
360109,OH,43812,COSHOCTON,NonProfit
520009,WI,54915,OUTAGAMIE,NonProfit
140019,IL,62565,SHELBY,NonProfit
390151,PA,17201,FRANKLIN,NonProfit
241338,MN,55041,WABASHA,NonProfit
440063,TN,37604,WASHINGTON,NonProfit
430048,SD,57783,LAWRENCE,NonProfit
30139,AZ,85212,MARICOPA,NonProfit
161366,IA,51601,PAGE,NonProfit
220175,MA,1701,MIDDLESEX,NonProfit
161349,IA,52349,BENTON,NonProfit
171319,KS,66436,JACKSON,NonProfit
490040,VA,22304,ALEXANDRIA CITY,NonProfit
501330,WA,98944,YAKIMA,NonProfit
380038,OR,97045,CLACKAMAS,NonProfit
50396,CA,93102,SANTA BARBARA,NonProfit
670004,TX,78945,FAYETTE,NonProfit
310009,NJ,7109,ESSEX,NonProfit
520011,WI,54868,BARRON,NonProfit
500026,WA,98026,SNOHOMISH,NonProfit
100314,FL,33196,MIAMI-DADE,NonProfit
260085,MO,64114,JACKSON,NonProfit
521300,WI,54521,VILAS,NonProfit
150146,IN,46755,NOBLE,NonProfit
230053,MI,48202,WAYNE,NonProfit
390035,PA,18951,BUCKS,NonProfit
453313,TX,79905,EL PASO,NonProfit
290056,NV,89148,CLARK,NonProfit
450743,TX,76201,DENTON,NonProfit
521330,WI,53821,CRAWFORD,NonProfit
50030,CA,95966,BUTTE,NonProfit
220088,MA,2120,SUFFOLK,NonProfit
261315,MO,63628,ST. FRANCOIS,NonProfit
140202,IL,60048,LAKE,NonProfit
231323,MI,49677,OSCEOLA,NonProfit
281339,NE,68434,SEWARD,NonProfit
171349,KS,66901,CLOUD,NonProfit
231313,MI,48441,HURON,NonProfit
370235,OK,74012,TULSA,NonProfit
340073,NC,27609,WAKE,NonProfit
191312,LA,71019,RED RIVER,NonProfit
441300,TN,37033,HICKMAN,NonProfit
160016,IA,50501,WEBSTER,NonProfit
351301,ND,58784,MOUNTRAIL,NonProfit
390006,PA,17822,MONTOUR,NonProfit
110018,GA,30014,NEWTON,NonProfit
371309,OK,74056,OSAGE,NonProfit
241372,MN,56256,LAC QUI PARLE,NonProfit
460004,UT,84403,WEBER,NonProfit
490043,VA,20176,LOUDOUN,NonProfit
394023,PA,19131,PHILADELPHIA,NonProfit
450101,TX,76712,MC LENNAN,NonProfit
381308,OR,97338,POLK,NonProfit
381325,OR,97838,UMATILLA,NonProfit
251317,MS,39114,SIMPSON,NonProfit
431339,SD,57262,ROBERTS,NonProfit
50140,CA,92335,SAN BERNARDINO,NonProfit
70038,CT,6405,NEW HAVEN,NonProfit
330185,NY,11777,SUFFOLK,NonProfit
340039,NC,28677,IREDELL,NonProfit
60104,CO,80023,BROOMFIELD,NonProfit
330245,NY,13501,ONEIDA,NonProfit
351308,ND,58254,NELSON,NonProfit
150100,IN,47750,VANDERBURGH,NonProfit
150002,IN,46402,LAKE,NonProfit
360348,OH,43016,FRANKLIN,NonProfit
511303,WV,26147,CALHOUN,NonProfit
521341,WI,53581,RICHLAND,NonProfit
370106,OK,73109,OKLAHOMA,NonProfit
60030,CO,80538,LARIMER,NonProfit
271312,MT,59538,PHILLIPS,NonProfit
390037,PA,15143,ALLEGHENY,NonProfit
351319,ND,58220,PEMBINA,NonProfit
70025,CT,6102,HARTFORD,NonProfit
450848,TX,77479,FORT BEND,NonProfit
230279,MI,48116,LIVINGSTON,NonProfit
440173,TN,37923,KNOX,NonProfit
40114,AR,72205,PULASKI,NonProfit
150161,IN,46032,HAMILTON,NonProfit
360361,OH,45662,SCIOTO,NonProfit
360360,OH,45431,GREENE,NonProfit
54131,CA,94524,CONTRA COSTA,NonProfit
390327,PA,17403,YORK,NonProfit
390111,PA,19104,PHILADELPHIA,NonProfit
330004,NY,12401,ULSTER,NonProfit
351309,ND,58257,TRAILL,NonProfit
410013,RI,2891,WASHINGTON,NonProfit
510058,WV,26101,WOOD,NonProfit
450292,TX,75142,KAUFMAN,NonProfit
171352,KS,67749,DECATUR,NonProfit
50309,CA,95661,PLACER,NonProfit
320038,NM,87301,MCKINLEY,NonProfit
243302,MN,55404,HENNEPIN,NonProfit
150125,IN,46321,LAKE,NonProfit
50457,CA,94117,SAN FRANCISCO,NonProfit
301309,NH,3458,HILLSBOROUGH,NonProfit
10130,AL,35125,ST. CLAIR,NonProfit
370018,OK,74006,WASHINGTON,NonProfit
310027,NJ,7207,UNION,NonProfit
104067,FL,32808,ORANGE,NonProfit
140289,IL,62062,MADISON,NonProfit
450862,TX,77384,MONTGOMERY,NonProfit
500139,WA,98502,THURSTON,NonProfit
230130,MI,48073,OAKLAND,NonProfit
210044,MD,21204,BALTIMORE,NonProfit
170105,KS,67460,MCPHERSON,NonProfit
220116,MA,2111,SUFFOLK,NonProfit
371314,OK,73005,CADDO,NonProfit
190242,LA,70737,ASCENSION,NonProfit
250167,MS,38654,DE SOTO,NonProfit
190036,LA,70121,JEFFERSON,NonProfit
360210,OH,43015,DELAWARE,NonProfit
80007,DE,19958,SUSSEX,NonProfit
341328,NC,28906,CHEROKEE,NonProfit
330386,NY,12742,SULLIVAN,NonProfit
500119,WA,99216,SPOKANE,NonProfit
390039,PA,15501,SOMERSET,NonProfit
210065,MD,20876,MONTGOMERY,NonProfit
184013,KY,42302,DAVIESS,NonProfit
450844,TX,77070,HARRIS,NonProfit
390174,PA,19107,PHILADELPHIA,NonProfit
330180,NY,12180,RENSSELAER,NonProfit
443302,TN,38105,SHELBY,NonProfit
310022,NJ,8043,CAMDEN,NonProfit
360125,OH,44004,ASHTABULA,NonProfit
161313,IA,52742,CLINTON,NonProfit
420086,SC,29220,RICHLAND,NonProfit
201307,ME,4462,PENOBSCOT,NonProfit
340151,NC,27870,HALIFAX,NonProfit
310045,NJ,7631,BERGEN,NonProfit
420071,SC,29646,GREENWOOD,NonProfit
100167,FL,33317,BROWARD,NonProfit
390062,PA,16673,BLAIR,NonProfit
160082,IA,50309,POLK,NonProfit
50272,CA,92373,SAN BERNARDINO,NonProfit
490041,VA,23602,NEWPORT NEWS CITY,NonProfit
420038,SC,29325,LAURENS,NonProfit
30064,AZ,85724,PIMA,NonProfit
360234,OH,45211,HAMILTON,NonProfit
250034,MS,38655,LAFAYETTE,NonProfit
281326,NE,68756,ANTELOPE,NonProfit
150056,IN,46202,MARION,NonProfit
310034,NJ,7701,MONMOUTH,NonProfit
371316,OK,74079,LINCOLN,NonProfit
131320,ID,83544,CLEARWATER,NonProfit
210032,MD,21921,CECIL,NonProfit
520045,WI,54956,WINNEBAGO,NonProfit
331319,NY,14103,ORLEANS,NonProfit
244018,MN,56701,PENNINGTON,NonProfit
154060,IN,46805,ALLEN,NonProfit
210034,MD,21225,BALTIMORE CITY,NonProfit
291306,NV,89410,DOUGLAS,NonProfit
451332,TX,77465,MATAGORDA,NonProfit
100093,FL,32501,ESCAMBIA,NonProfit
261303,MO,64446,ATCHISON,NonProfit
141341,IL,62557,CHRISTIAN,NonProfit
53311,CA,95817,SACRAMENTO,NonProfit
240050,MN,55092,CHISAGO,NonProfit
360032,OH,45885,AUGLAIZE,NonProfit
431306,SD,57369,CHARLES MIX,NonProfit
490052,VA,23601,NEWPORT NEWS CITY,NonProfit
50007,CA,94010,SAN MATEO,NonProfit
100290,FL,32159,LAKE,NonProfit
100168,FL,33486,PALM BEACH,NonProfit
490088,VA,24523,BEDFORD,NonProfit
394038,PA,18901,BUCKS,NonProfit
141324,IL,62930,SALINE,NonProfit
471306,VT,5156,WINDSOR,NonProfit
271333,MT,59644,BROADWATER,NonProfit
170133,KS,66048,LEAVENWORTH,NonProfit
453310,TX,78723,TRAVIS,NonProfit
260160,MO,63841,STODDARD,NonProfit
330215,NY,13440,ONEIDA,NonProfit
34025,AZ,86314,YAVAPAI,NonProfit
10024,AL,36106,MONTGOMERY,NonProfit
500058,WA,99352,BENTON,NonProfit
261335,MO,65548,HOWELL,NonProfit
391305,PA,16947,BRADFORD,NonProfit
380007,OR,97227,MULTNOMAH,NonProfit
271345,MT,59457,FERGUS,NonProfit
310069,NJ,8318,SALEM,NonProfit
171362,KS,67701,THOMAS,NonProfit
200052,ME,4743,AROOSTOOK,NonProfit
100025,FL,32504,ESCAMBIA,NonProfit
450128,TX,78596,HIDALGO,NonProfit
271347,MT,59301,CUSTER,NonProfit
300018,NH,3820,STRAFFORD,NonProfit
251331,MS,38916,CALHOUN,NonProfit
241309,MN,55072,PINE,NonProfit
161355,IA,50138,MARION,NonProfit
510006,WV,26330,HARRISON,NonProfit
341302,NC,27874,HALIFAX,NonProfit
190039,LA,70072,JEFFERSON,NonProfit
60054,CO,81505,MESA,NonProfit
131321,ID,83522,IDAHO,NonProfit
104059,FL,32308,LEON,NonProfit
341322,NC,28722,POLK,NonProfit
141306,IL,62088,MACOUPIN,NonProfit
510030,WV,26241,RANDOLPH,NonProfit
251335,MS,39328,KEMPER,NonProfit
10089,AL,35502,WALKER,NonProfit
370237,OK,74301,CRAIG,NonProfit
471303,VT,5819,CALEDONIA,NonProfit
360163,OH,45219,HAMILTON,NonProfit
50017,CA,95819,SACRAMENTO,NonProfit
370028,OK,73112,OKLAHOMA,NonProfit
360077,OH,44111,CUYAHOGA,NonProfit
240018,MN,55066,GOODHUE,NonProfit
